{"features":[{"geometry":{"coordinates":[[[[22.35652,43.80995],[22.38505,43.86872],[22.39303,43.90798],[22.38644,43.92507],[22.40724,43.93976],[22.4064,43.98106],[22.41424,43.99159],[22.40891,44.00278],[22.44422,44.01663],[22.52895,44.01957],[22.5429,44.03316],[22.53246,44.05075],[22.6208,44.06274],[22.62306,44.07204],[22.61511,44.07783],[22.6194,44.0955],[22.60998,44.10625],[22.6184,44.1464],[22.62771,44.1462],[22.6276,44.15675],[22.61337,44.16427],[22.61976,44.17401],[22.6332,44.17425],[22.62744,44.18359],[22.63676,44.18339],[22.64395,44.2074],[22.65259,44.2044],[22.66289,44.21366],[22.6691,44.20617],[22.67267,44.21531],[22.69249,44.20325],[22.74468,44.19765],[22.80656,44.15534],[22.86669,44.13334],[22.9195,44.10359],[23.02446,44.09012],[23.03944,44.08051],[23.04433,44.05206],[23.00963,44.00954],[22.92997,44.0006],[22.88144,43.97708],[22.84263,43.88997],[22.84397,43.86294],[22.86792,43.8359],[22.9689,43.80852],[23.06484,43.7932],[23.14362,43.80499],[23.27192,43.84381],[23.42627,43.84826],[23.50412,43.83494],[23.55941,43.80154],[23.61328,43.78848],[23.69805,43.80192],[23.74637,43.7982],[23.7648,43.78221],[23.86215,43.75243],[23.97254,43.7419],[24.05786,43.71744],[24.08875,43.69865],[24.1729,43.68002],[24.34064,43.69461],[24.37675,43.70966],[24.40466,43.73358],[24.49724,43.7597],[24.62775,43.73974],[24.68911,43.69699],[24.7354,43.68149],[24.80551,43.70777],[24.88569,43.70357],[24.93842,43.72464],[24.99483,43.72584],[25.05646,43.68954],[25.1076,43.68181],[25.18388,43.6963],[25.25768,43.67924],[25.34463,43.62532],[25.3821,43.61664],[25.43184,43.62248],[25.48261,43.64069],[25.55763,43.64157],[25.65926,43.68656],[25.73059,43.68784],[25.76213,43.6993],[25.78575,43.71104],[25.81071,43.74481],[25.86044,43.76303],[25.87828,43.77761],[25.95327,43.86046],[26.05623,43.90687],[26.08132,43.94445],[26.10827,43.96624],[26.14906,43.98483],[26.19279,43.98261],[26.3103,44.02647],[26.38198,44.03996],[26.41177,44.03606],[26.43084,43.9603],[26.50767,43.87596],[26.52526,43.87208],[26.58322,43.89349],[26.6406,43.86262],[26.64668,43.84803],[26.66572,43.83613],[26.70999,43.83163],[26.73008,43.81469],[26.76285,43.8121],[26.79043,43.78514],[26.84843,43.78991],[26.85333,43.76773],[26.88743,43.72799],[26.91288,43.74017],[26.93856,43.74065],[26.96909,43.71895],[27.00726,43.67553],[27.03857,43.69736],[27.08336,43.69064],[27.16155,43.69563],[27.27037,43.63498],[27.36052,43.61146],[27.41065,43.62893],[27.42314,43.64618],[27.44851,43.64172],[27.46839,43.57695],[27.48054,43.56119],[27.56164,43.53516],[27.60362,43.54035],[27.69666,43.50622],[27.71288,43.47898],[27.7429,43.46872],[27.77191,43.47519],[27.7994,43.45758],[27.82758,43.4106],[27.85882,43.38059],[27.91616,43.35264],[27.96276,43.35195],[27.99485,43.33634],[28.07198,43.34269],[28.04921,43.3],[22.83805,43.3],[22.82725,43.32855],[22.79606,43.34122],[22.76967,43.36285],[22.76748,43.37562],[22.72074,43.39504],[22.6795,43.39358],[22.66827,43.40173],[22.65956,43.42587],[22.59831,43.43459],[22.57568,43.46144],[22.53534,43.4694],[22.48748,43.56268],[22.4927,43.60135],[22.47891,43.62129],[22.48955,43.63819],[22.47894,43.65485],[22.45023,43.66226],[22.40665,43.69642],[22.3933,43.7297],[22.39991,43.75764],[22.37721,43.77386],[22.35652,43.80995]]],[[[28.10672,43.38117],[28.08147,43.3624],[28.08845,43.37867],[28.10672,43.38117]]]],"type":"MultiPolygon"},"id":"1939-02-031","properties":{"Foreign_Po":"","Govt_in_Ex":"","Head_of_St":"King Boris III","Name":"Bulgaria","editorialFlagIds":["HA-CAUTION-HEAD-OF-STATE"],"foreignPowerCategory":"unclassified","snapshotDate":"1939-02-28","sourceFeatureIndex":31,"yearMonth":"1939-02"},"type":"Feature"},{"geometry":{"coordinates":[[[19.00093,49.39734],[19.03437,49.3947],[19.05271,49.41303],[19.07397,49.41605],[19.12124,49.40098],[19.1736,49.41186],[19.18613,49.40803],[19.19469,49.41393],[19.18527,49.43354],[19.19657,49.44582],[19.2246,49.45298],[19.22772,49.46121],[19.21864,49.46759],[19.23418,49.49366],[19.23258,49.50792],[19.26052,49.52922],[19.35914,49.53345],[19.36572,49.53668],[19.37008,49.56553],[19.39967,49.57253],[19.40908,49.58966],[19.44143,49.59548],[19.44756,49.611],[19.46673,49.61036],[19.47378,49.6013],[19.46769,49.59332],[19.4793,49.58482],[19.52661,49.56959],[19.53348,49.52377],[19.58124,49.45379],[19.59509,49.4564],[19.61043,49.44474],[19.64182,49.45341],[19.63584,49.43883],[19.64757,49.43124],[19.63056,49.40627],[19.68285,49.40185],[19.7148,49.38499],[19.74745,49.40672],[19.78928,49.4088],[19.79136,49.37655],[19.80227,49.36524],[19.79323,49.34338],[19.80343,49.32175],[19.79237,49.29723],[19.80753,49.29216],[19.81994,49.2741],[19.79154,49.26523],[19.78272,49.24429],[19.76572,49.23349],[19.75691,49.21255],[19.76404,49.20439],[19.78167,49.19722],[19.80492,49.20276],[19.86795,49.19447],[19.90099,49.21141],[19.90184,49.22926],[19.9309,49.23427],[19.98153,49.22984],[20.00847,49.21803],[20.00687,49.21062],[20.01954,49.20101],[20.07335,49.17737],[20.08675,49.17807],[20.08678,49.20544],[20.10195,49.22108],[20.09589,49.23389],[20.10075,49.24951],[20.12398,49.2682],[20.12983,49.29506],[20.14481,49.31638],[20.15646,49.30212],[20.17337,49.31194],[20.17041,49.32542],[20.22164,49.3501],[20.31604,49.34253],[20.32387,49.36448],[20.31868,49.37439],[20.32922,49.38854],[20.317,49.38681],[20.3261,49.4011],[20.36195,49.39596],[20.37293,49.40534],[20.38205,49.38657],[20.38951,49.38684],[20.4065,49.39001],[20.41542,49.40336],[20.43261,49.39423],[20.42807,49.41353],[20.47097,49.41338],[20.5103,49.39087],[20.57466,49.37453],[20.59791,49.38559],[20.61165,49.40037],[20.61359,49.4153],[20.65122,49.39857],[20.69134,49.41843],[20.7363,49.41421],[20.74435,49.41061],[20.74221,49.40136],[20.75504,49.39921],[20.74544,49.38972],[20.75966,49.38082],[20.75897,49.37144],[20.78279,49.37202],[20.78268,49.3588],[20.79802,49.36112],[20.80976,49.35434],[20.79694,49.3565],[20.79516,49.34249],[20.81072,49.34574],[20.83584,49.33295],[20.85356,49.34544],[20.86658,49.3442],[20.88157,49.33237],[20.87253,49.31906],[20.90277,49.32183],[20.90248,49.3143],[20.92604,49.29502],[20.963,49.30753],[20.98346,49.3065],[20.99222,49.31227],[20.98849,49.32776],[21.00782,49.3344],[21.01045,49.34549],[21.04133,49.3633],[21.09332,49.36392],[21.10343,49.37523],[21.05269,49.40475],[21.04642,49.41576],[21.05332,49.41982],[21.09677,49.42789],[21.11183,49.42264],[21.12508,49.43458],[21.15106,49.42542],[21.17925,49.40091],[21.20766,49.4019],[21.22573,49.41525],[21.22339,49.42399],[21.23355,49.43529],[21.26568,49.44536],[21.2667,49.45566],[21.2763,49.4585],[21.30738,49.44596],[21.34207,49.44819],[21.372,49.43102],[21.39608,49.43239],[21.43665,49.41035],[21.47277,49.41239],[21.48824,49.42692],[21.51681,49.41646],[21.52842,49.43327],[21.55014,49.43107],[21.56258,49.43927],[21.58581,49.43123],[21.63076,49.44464],[21.66022,49.41417],[21.72145,49.40978],[21.72686,49.39596],[21.7631,49.38086],[21.76634,49.36442],[21.78158,49.35432],[21.79635,49.37742],[21.83818,49.39012],[21.85611,49.36741],[21.88307,49.36838],[21.90192,49.34936],[21.96064,49.34698],[21.98191,49.30874],[22.03268,49.27589],[22.02885,49.26113],[22.04063,49.25514],[22.02962,49.22409],[22.06011,49.21042],[22.14287,49.19873],[22.14238,49.1912],[22.18767,49.17211],[22.22125,49.18176],[22.23369,49.17283],[22.22356,49.15117],[22.30496,49.13475],[22.36657,49.14415],[22.41251,49.10021],[22.4556,49.10116],[22.49662,49.08334],[22.53738,49.09211],[22.56675,49.08599],[22.58888,49.09681],[22.62722,49.08019],[22.64111,49.0606],[22.68413,49.03963],[22.70029,49.05015],[22.72017,49.05266],[22.7559,49.04292],[22.77207,49.05343],[22.81612,49.02564],[22.83405,49.02645],[22.84825,49.00298],[22.88033,49.00692],[22.91196,48.99854],[22.92498,48.9923],[22.93877,48.96221],[22.93556,48.95593],[22.90672,48.95829],[22.88484,48.94845],[22.87843,48.93589],[22.88696,48.91876],[22.92318,48.8899],[22.97799,48.86457],[23.00741,48.82219],[23.02664,48.84372],[23.11015,48.86346],[23.18115,48.83327],[23.18308,48.81402],[23.19486,48.80883],[23.211,48.76699],[23.256,48.77023],[23.27345,48.76436],[23.2991,48.78224],[23.33754,48.75198],[23.37547,48.76647],[23.3977,48.73622],[23.42994,48.72569],[23.48994,48.71466],[23.52497,48.73422],[23.55754,48.7198],[23.62133,48.7168],[23.62779,48.70364],[23.66157,48.69856],[23.70494,48.64086],[23.7906,48.64268],[23.81379,48.62171],[23.80057,48.61668],[23.8302,48.57776],[23.84455,48.58169],[23.88182,48.55894],[23.90916,48.5622],[23.94579,48.54236],[23.93442,48.52377],[23.92805,48.46262],[23.97387,48.44447],[24.00106,48.4868],[24.01622,48.49347],[24.10964,48.51692],[24.12115,48.52595],[24.14321,48.51647],[24.1276,48.48889],[24.14628,48.47793],[24.13908,48.45882],[24.14205,48.4346],[24.15755,48.43262],[24.16485,48.38876],[24.17782,48.38329],[24.18505,48.34898],[24.20159,48.35544],[24.21852,48.34373],[24.2376,48.34891],[24.26154,48.33628],[24.26764,48.35649],[24.28731,48.35872],[24.2929,48.36754],[24.28162,48.37854],[24.29003,48.387],[24.33337,48.37567],[24.35562,48.35751],[24.34948,48.33731],[24.40795,48.30871],[24.42959,48.27916],[24.46522,48.26208],[24.46269,48.2395],[24.52377,48.20569],[24.49486,48.1541],[24.52645,48.12415],[24.54937,48.11826],[24.55438,48.10613],[24.6197,48.07263],[24.64804,48.03254],[24.62675,48.01531],[24.60832,48.01203],[24.58113,47.96596],[24.52564,47.95994],[24.51113,47.9504],[24.43559,47.96897],[24.39323,47.95352],[24.38212,47.92633],[24.34955,47.91436],[24.32529,47.92517],[24.28051,47.90619],[24.25767,47.90726],[24.22848,47.89673],[24.19273,47.91759],[24.11338,47.91352],[24.09566,47.9368],[24.06238,47.95157],[24.03258,47.9487],[24.00873,47.96606],[23.98482,47.95862],[23.97807,47.9652],[23.95385,47.9616],[23.9423,47.94685],[23.88272,47.94105],[23.86695,47.9316],[23.84762,47.93977],[23.82373,47.97711],[23.77943,47.99412],[23.66913,47.98311],[23.61516,48.00696],[23.56613,48.00254],[23.5301,48.01841],[23.50482,47.97007],[23.45144,47.97566],[23.43498,47.98911],[23.4197,47.98621],[23.40069,48.00092],[23.33356,48.01955],[23.33286,48.03773],[23.29276,48.04448],[23.27815,48.05958],[23.29182,48.07221],[23.26967,48.08631],[23.2674,48.09896],[23.24661,48.09194],[23.19141,48.09665],[23.18108,48.11692],[23.16731,48.11952],[23.15073,48.11198],[23.14551,48.09833],[23.11594,48.08567],[23.12372,48.07713],[23.1064,48.06682],[23.11151,48.05384],[23.09981,48.04286],[23.10975,48.03691],[23.09373,48.02074],[23.09081,48.01537],[23.09921,48.01437],[23.09223,48.00473],[23.0323,48.00233],[23.01567,47.98907],[22.97373,48.0102],[22.96267,48.00675],[22.92965,48.01824],[22.9212,48.00306],[22.93956,47.99615],[22.94171,47.97211],[22.95,47.96542],[22.89093,47.95524],[22.88997,47.96772],[22.84156,47.98099],[22.8377,47.9881],[22.86682,48.01038],[22.88198,48.05047],[22.89775,48.05528],[22.92167,48.08482],[22.9176,48.10718],[22.90105,48.12624],[22.89298,48.17664],[22.8806,48.1952],[22.90114,48.20136],[22.91016,48.23455],[22.92298,48.2283],[22.94303,48.23261],[22.9376,48.24466],[22.97025,48.26842],[22.97994,48.30913],[22.96927,48.31799],[22.94546,48.31602],[22.93221,48.32613],[22.81603,48.28923],[22.7764,48.2824],[22.72425,48.2884],[22.71648,48.32446],[22.73013,48.35901],[22.74251,48.35094],[22.74929,48.38152],[22.78709,48.40284],[22.80538,48.42735],[22.76471,48.45484],[22.72627,48.45829],[22.62647,48.44496],[22.6015,48.42784],[22.57561,48.43457],[22.56231,48.37908],[22.49132,48.37474],[22.45314,48.40657],[22.44644,48.42536],[22.4217,48.43098],[22.38173,48.45632],[22.38108,48.46494],[22.4064,48.47257],[22.41926,48.48823],[22.40483,48.52212],[22.31636,48.61356],[22.11427,48.59486],[22.1306,48.57316],[22.11,48.57825],[22.10053,48.56978],[22.04014,48.60762],[22.00937,48.59575],[21.98375,48.61558],[21.92813,48.59782],[21.87832,48.61451],[21.87623,48.60619],[21.86628,48.60725],[21.88429,48.55129],[21.86921,48.53772],[21.82783,48.53547],[21.82251,48.555],[21.83359,48.56426],[21.80471,48.56542],[21.78773,48.55584],[21.75946,48.57114],[21.75006,48.56265],[21.75678,48.54867],[21.74784,48.54203],[21.75429,48.53282],[21.70339,48.53911],[21.67637,48.51825],[21.63048,48.52115],[21.59086,48.55559],[21.56705,48.54764],[21.5417,48.55121],[21.52563,48.56898],[21.4972,48.57191],[21.46808,48.59006],[21.46059,48.61925],[21.44732,48.63671],[21.44844,48.65933],[21.48909,48.67032],[21.4996,48.68345],[21.49803,48.69498],[21.4876,48.69416],[21.47387,48.70977],[21.44473,48.72223],[21.40959,48.72202],[21.37406,48.73226],[21.33396,48.72969],[21.30551,48.76949],[21.27773,48.78175],[21.24684,48.78106],[21.24187,48.76641],[21.22253,48.77119],[21.18516,48.81088],[21.13389,48.81692],[21.15943,48.78884],[21.14085,48.77838],[21.10226,48.7822],[21.09624,48.76292],[21.02963,48.7657],[20.96989,48.77912],[20.93255,48.75059],[20.93415,48.69461],[20.88413,48.67393],[20.84159,48.68563],[20.82534,48.67206],[20.76572,48.66645],[20.68894,48.68799],[20.64268,48.70279],[20.64718,48.74207],[20.57127,48.76816],[20.5407,48.73605],[20.53569,48.70059],[20.46647,48.69762],[20.46462,48.68928],[20.47664,48.67776],[20.45031,48.67077],[20.44663,48.66071],[20.43234,48.65543],[20.43439,48.66469],[20.40236,48.65821],[20.40623,48.64273],[20.39705,48.6209],[20.36402,48.62963],[20.36363,48.61454],[20.34774,48.60183],[20.28965,48.61569],[20.28525,48.66902],[20.27952,48.67616],[20.23951,48.67982],[20.2204,48.65888],[20.1715,48.64821],[20.19192,48.64163],[20.21546,48.61587],[20.21959,48.60131],[20.21115,48.56901],[20.1878,48.55507],[20.16662,48.55795],[20.16283,48.54034],[20.14371,48.53924],[20.12858,48.51604],[20.14246,48.50628],[20.13885,48.49621],[20.10938,48.46014],[20.08025,48.47317],[20.03981,48.47397],[20.01577,48.45629],[20.02568,48.43462],[20.01579,48.40149],[19.85245,48.40281],[19.84484,48.39404],[19.8312,48.39808],[19.81307,48.38739],[19.80465,48.39569],[19.75668,48.38762],[19.76188,48.37772],[19.68892,48.37464],[19.67822,48.35763],[19.63597,48.36318],[19.6179,48.35246],[19.59592,48.35813],[19.58043,48.37457],[19.55855,48.37362],[19.5903,48.33029],[19.54711,48.30945],[19.55555,48.30117],[19.54622,48.29064],[19.56076,48.26957],[19.53664,48.27164],[19.53077,48.24948],[19.54432,48.23793],[19.53624,48.22635],[19.51072,48.22853],[19.47025,48.19894],[19.45953,48.21024],[19.47307,48.22042],[19.45268,48.21932],[19.44601,48.22933],[19.42405,48.2057],[19.43683,48.1829],[19.4609,48.18085],[19.45901,48.16402],[19.39758,48.1664],[19.3831,48.17329],[19.35585,48.14443],[19.32188,48.14729],[19.28246,48.15909],[19.29029,48.16977],[19.26673,48.16702],[19.24975,48.17598],[19.2422,48.19643],[19.22252,48.19146],[19.21864,48.20122],[19.19328,48.18917],[19.19419,48.20136],[19.18285,48.2023],[19.15483,48.18385],[19.15571,48.17339],[19.13002,48.15192],[19.07833,48.14483],[19.03016,48.16386],[19.05351,48.18838],[19.03932,48.19708],[19.0,48.19576],[19.00093,49.39734]]],"type":"Polygon"},"id":"1939-02-001","properties":{"Foreign_Po":"","Govt_in_Ex":"<Null>","Head_of_St":"Emil Hácha (President)","Name":"Czecho-Slovakia","editorialFlagIds":["HA-CAUTION-HEAD-OF-STATE"],"foreignPowerCategory":"unclassified","snapshotDate":"1939-02-28","sourceFeatureIndex":1,"yearMonth":"1939-02"},"type":"Feature"},{"geometry":{"coordinates":[[[[19.02656,48.19812],[19.05351,48.18838],[19.03016,48.16386],[19.07833,48.14483],[19.13002,48.15192],[19.15571,48.17339],[19.15483,48.18385],[19.18285,48.2023],[19.19419,48.20136],[19.19328,48.18917],[19.21864,48.20122],[19.22252,48.19146],[19.2422,48.19643],[19.24975,48.17598],[19.26673,48.16702],[19.29029,48.16977],[19.28246,48.15909],[19.32188,48.14729],[19.35585,48.14443],[19.3831,48.17329],[19.39758,48.1664],[19.45901,48.16402],[19.4609,48.18085],[19.43683,48.1829],[19.42405,48.2057],[19.44601,48.22933],[19.45268,48.21932],[19.47307,48.22042],[19.45953,48.21024],[19.47025,48.19894],[19.51072,48.22853],[19.53624,48.22635],[19.54432,48.23793],[19.53077,48.24948],[19.53664,48.27164],[19.56076,48.26957],[19.54622,48.29064],[19.55555,48.30117],[19.54711,48.30945],[19.5903,48.33029],[19.55855,48.37362],[19.58043,48.37457],[19.59592,48.35813],[19.6179,48.35246],[19.63597,48.36318],[19.67822,48.35763],[19.68892,48.37464],[19.76188,48.37772],[19.75668,48.38762],[19.80465,48.39569],[19.81307,48.38739],[19.8312,48.39808],[19.84484,48.39404],[19.85245,48.40281],[20.01579,48.40149],[20.02568,48.43462],[20.01577,48.45629],[20.03981,48.47397],[20.08025,48.47317],[20.10938,48.46014],[20.13885,48.49621],[20.14246,48.50628],[20.12858,48.51604],[20.14371,48.53924],[20.16283,48.54034],[20.16662,48.55795],[20.1878,48.55507],[20.21115,48.56901],[20.21959,48.60131],[20.21546,48.61587],[20.19192,48.64163],[20.1715,48.64821],[20.2204,48.65888],[20.23951,48.67982],[20.27952,48.67616],[20.28525,48.66902],[20.28965,48.61569],[20.34774,48.60183],[20.36363,48.61454],[20.36402,48.62963],[20.39705,48.6209],[20.40623,48.64273],[20.40236,48.65821],[20.43439,48.66469],[20.43234,48.65543],[20.44663,48.66071],[20.45031,48.67077],[20.47664,48.67776],[20.46462,48.68928],[20.46647,48.69762],[20.53569,48.70059],[20.5407,48.73605],[20.57127,48.76816],[20.64718,48.74207],[20.64268,48.70279],[20.68894,48.68799],[20.76572,48.66645],[20.82534,48.67206],[20.84159,48.68563],[20.88413,48.67393],[20.93415,48.69461],[20.93255,48.75059],[20.96989,48.77912],[21.02963,48.7657],[21.09624,48.76292],[21.10226,48.7822],[21.14085,48.77838],[21.15943,48.78884],[21.13389,48.81692],[21.18516,48.81088],[21.22253,48.77119],[21.24187,48.76641],[21.24684,48.78106],[21.27773,48.78175],[21.30551,48.76949],[21.33396,48.72969],[21.37406,48.73226],[21.40959,48.72202],[21.44473,48.72223],[21.47387,48.70977],[21.4876,48.69416],[21.49803,48.69498],[21.4996,48.68345],[21.48909,48.67032],[21.44844,48.65933],[21.44732,48.63671],[21.46059,48.61925],[21.46808,48.59006],[21.4972,48.57191],[21.52563,48.56898],[21.5417,48.55121],[21.56705,48.54764],[21.59086,48.55559],[21.63048,48.52115],[21.67637,48.51825],[21.70339,48.53911],[21.75429,48.53282],[21.74784,48.54203],[21.75678,48.54867],[21.75006,48.56265],[21.75946,48.57114],[21.78773,48.55584],[21.80471,48.56542],[21.83359,48.56426],[21.82251,48.555],[21.82783,48.53547],[21.86921,48.53772],[21.88429,48.55129],[21.86628,48.60725],[21.87623,48.60619],[21.87832,48.61451],[21.92813,48.59782],[21.98375,48.61558],[22.00937,48.59575],[22.04014,48.60762],[22.10053,48.56978],[22.11,48.57825],[22.1306,48.57316],[22.11427,48.59486],[22.31636,48.61356],[22.40483,48.52212],[22.41926,48.48823],[22.4064,48.47257],[22.38108,48.46494],[22.38173,48.45632],[22.4217,48.43098],[22.44644,48.42536],[22.45314,48.40657],[22.49132,48.37474],[22.56231,48.37908],[22.57561,48.43457],[22.6015,48.42784],[22.62647,48.44496],[22.72627,48.45829],[22.76471,48.45484],[22.80538,48.42735],[22.78709,48.40284],[22.74929,48.38152],[22.74251,48.35094],[22.73013,48.35901],[22.71648,48.32446],[22.72425,48.2884],[22.7764,48.2824],[22.81603,48.28923],[22.93221,48.32613],[22.94546,48.31602],[22.96927,48.31799],[22.97994,48.30913],[22.97025,48.26842],[22.9376,48.24466],[22.94303,48.23261],[22.92298,48.2283],[22.91016,48.23455],[22.90114,48.20136],[22.8806,48.1952],[22.89298,48.17664],[22.90105,48.12624],[22.9176,48.10718],[22.92167,48.08482],[22.89775,48.05528],[22.88198,48.05047],[22.86682,48.01038],[22.8377,47.9881],[22.84156,47.98099],[22.88997,47.96772],[22.89553,47.95089],[22.88499,47.94927],[22.84181,47.90676],[22.82453,47.90687],[22.79114,47.88984],[22.75545,47.89114],[22.76508,47.8786],[22.76024,47.86585],[22.77635,47.85066],[22.77389,47.84143],[22.74859,47.83296],[22.71648,47.83669],[22.67881,47.78683],[22.60855,47.77116],[22.54826,47.77143],[22.48059,47.80958],[22.44723,47.80291],[22.42473,47.74938],[22.42816,47.74043],[22.35423,47.7488],[22.31569,47.76644],[22.31511,47.7418],[22.28435,47.72814],[22.26319,47.72957],[22.25657,47.69799],[22.22586,47.69002],[22.21998,47.66122],[22.20231,47.65369],[22.18876,47.61149],[22.17248,47.59239],[22.12773,47.59642],[22.12702,47.58795],[22.09409,47.5593],[22.07254,47.55883],[22.05215,47.54588],[22.06954,47.53541],[22.06051,47.52786],[22.04289,47.5374],[22.01883,47.51535],[22.00594,47.47497],[22.01777,47.45371],[22.02957,47.44955],[22.02334,47.44169],[22.03354,47.41395],[22.01165,47.37741],[21.93778,47.37224],[21.88457,47.28876],[21.87697,47.28674],[21.88625,47.27242],[21.8491,47.23657],[21.85739,47.1891],[21.81631,47.17174],[21.79864,47.12805],[21.78879,47.12247],[21.79072,47.10706],[21.72466,47.09714],[21.71314,47.07273],[21.67964,47.045],[21.64735,47.03994],[21.6583,47.0207],[21.67713,47.01677],[21.68712,46.99953],[21.67479,46.99516],[21.6767,46.98545],[21.66629,46.97138],[21.67964,46.96233],[21.67171,46.95273],[21.65681,46.9553],[21.63574,46.93192],[21.59918,46.92636],[21.59776,46.90846],[21.61331,46.88492],[21.60304,46.88318],[21.59959,46.86264],[21.52015,46.83602],[21.51852,46.79914],[21.50732,46.78133],[21.49007,46.77368],[21.48343,46.75728],[21.52515,46.7376],[21.52765,46.71832],[21.49161,46.68418],[21.47124,46.69301],[21.45014,46.68672],[21.43026,46.69169],[21.43481,46.67505],[21.45526,46.66051],[21.41929,46.64439],[21.40687,46.62101],[21.3655,46.63586],[21.3256,46.62679],[21.31327,46.61574],[21.30164,46.58941],[21.31905,46.57997],[21.28987,46.54409],[21.27316,46.53826],[21.26018,46.49971],[21.27283,46.47557],[21.29485,46.47419],[21.31449,46.45025],[21.3108,46.44018],[21.28747,46.41129],[21.29322,46.40593],[21.22496,46.41219],[21.20547,46.39999],[21.19718,46.34478],[21.1724,46.32743],[21.1701,46.31722],[21.1794,46.30293],[21.16822,46.2965],[21.14607,46.29693],[21.14345,46.30386],[21.11305,46.29849],[21.10047,46.26083],[21.06948,46.25266],[21.06157,46.24208],[21.03505,46.2477],[21.02226,46.26518],[20.99148,46.25792],[20.94939,46.26226],[20.94547,46.27597],[20.92292,46.27449],[20.91578,46.26097],[20.88848,46.26947],[20.87115,46.2855],[20.77547,46.2734],[20.75021,46.24651],[20.75902,46.20383],[20.72897,46.20592],[20.71299,46.16384],[20.68515,46.14386],[20.65573,46.14872],[20.63953,46.1247],[20.54421,46.17791],[20.49829,46.19006],[20.49514,46.16853],[20.4637,46.14411],[20.4356,46.14213],[20.39996,46.15702],[20.39298,46.15011],[20.38077,46.15795],[20.36644,46.14891],[20.35383,46.16818],[20.31218,46.14756],[20.3081,46.1546],[20.28797,46.14422],[20.25008,46.11467],[20.24733,46.12822],[20.23069,46.12129],[20.18,46.15748],[20.1384,46.14344],[20.11081,46.15746],[20.0981,46.17669],[20.06399,46.14483],[20.04172,46.1441],[20.02215,46.17061],[19.93159,46.17438],[19.85315,46.1485],[19.81716,46.12718],[19.7598,46.1448],[19.69606,46.18667],[19.68238,46.18033],[19.6619,46.18883],[19.63329,46.16963],[19.56552,46.17671],[19.55433,46.1616],[19.50505,46.14233],[19.52541,46.11871],[19.46545,46.09375],[19.46552,46.07952],[19.4149,46.04517],[19.38126,46.03489],[19.3649,46.05055],[19.28369,46.01411],[19.30275,45.99064],[19.23399,45.99856],[19.14809,45.9956],[19.13608,46.03548],[19.10624,46.03805],[19.06608,45.99887],[19.08033,45.96354],[19.02411,45.96456],[19.0,45.95207],[19.0,48.19576],[19.02656,48.19812]]],[[[19.00845,45.92327],[19.0,45.92271],[19.0,45.93737],[19.00845,45.92327]]]],"type":"MultiPolygon"},"id":"1939-02-000","properties":{"Foreign_Po":"<Null>","Govt_in_Ex":"","Head_of_St":"Miklós Horthy (Regent)","Name":"Hungary","editorialFlagIds":["HA-CAUTION-HEAD-OF-STATE"],"foreignPowerCategory":"unclassified","snapshotDate":"1939-02-28","sourceFeatureIndex":0,"yearMonth":"1939-02"},"type":"Feature"},{"geometry":{"coordinates":[[[19.00803,52.6],[27.23027,52.6],[27.2342,52.56838],[27.31317,52.51206],[27.49599,52.50878],[27.533,52.50054],[27.57787,52.46043],[27.58151,52.43399],[27.54742,52.37849],[27.52331,52.35897],[27.51986,52.32301],[27.4827,52.32265],[27.49205,52.29826],[27.48638,52.26071],[27.50916,52.25355],[27.51065,52.21783],[27.52819,52.20184],[27.5063,52.15993],[27.52057,52.0494],[27.5659,52.03507],[27.56328,51.98938],[27.49595,51.94935],[27.49927,51.91815],[27.48966,51.90228],[27.46836,51.89293],[27.47116,51.87621],[27.44873,51.86798],[27.46137,51.84405],[27.4395,51.82135],[27.4409,51.79715],[27.4167,51.78438],[27.40128,51.78952],[27.38305,51.77971],[27.37485,51.74733],[27.40021,51.72347],[27.39164,51.69018],[27.50547,51.63024],[27.56901,51.61891],[27.59264,51.60292],[27.62389,51.61364],[27.69716,51.58734],[27.67876,51.5459],[27.62004,51.52586],[27.59496,51.49502],[27.53185,51.47944],[27.48126,51.47926],[27.48459,51.44421],[27.53055,51.41722],[27.51401,51.39952],[27.45393,51.42667],[27.44226,51.44087],[27.4192,51.44236],[27.41212,51.38102],[27.44753,51.36714],[27.44084,51.33453],[27.40704,51.30882],[27.43091,51.26208],[27.39102,51.2248],[27.35961,51.16514],[27.36329,51.07916],[27.34215,51.06118],[27.33752,51.02155],[27.26442,51.0103],[27.26174,50.96751],[27.28072,50.95222],[27.24441,50.87506],[27.24765,50.83139],[27.24065,50.7854],[27.25363,50.75084],[27.23573,50.7247],[27.24993,50.70531],[27.26216,50.64493],[27.24576,50.61858],[27.19833,50.59587],[27.17287,50.5699],[27.21982,50.5514],[27.19608,50.50982],[27.10945,50.52939],[27.0788,50.49362],[27.02977,50.50662],[27.00645,50.4899],[26.95329,50.50827],[26.92012,50.51025],[26.88713,50.48822],[26.83187,50.50108],[26.78856,50.4719],[26.81022,50.46396],[26.75994,50.45305],[26.74537,50.4264],[26.71618,50.43063],[26.64157,50.38295],[26.60735,50.38597],[26.5921,50.37379],[26.59278,50.3507],[26.57653,50.33579],[26.57364,50.29883],[26.50876,50.32252],[26.43454,50.2747],[26.32939,50.24658],[26.31156,50.21847],[26.2918,50.21456],[26.28846,50.19685],[26.26079,50.19215],[26.26036,50.17402],[26.23706,50.1687],[26.239,50.13587],[26.30661,50.1033],[26.30374,50.08264],[26.24226,50.07701],[26.23801,50.06516],[26.25522,50.05794],[26.25788,50.04415],[26.24218,50.0301],[26.2119,50.03056],[26.2107,50.01446],[26.23355,50.01026],[26.21475,49.98324],[26.16257,49.9734],[26.16464,49.91949],[26.18195,49.86151],[26.20429,49.86887],[26.21399,49.84929],[26.19026,49.81245],[26.21214,49.79306],[26.22668,49.74884],[26.19597,49.71778],[26.21015,49.70236],[26.23985,49.69237],[26.25424,49.66061],[26.2415,49.63753],[26.24837,49.60589],[26.24193,49.59628],[26.23231,49.58616],[26.20694,49.58691],[26.1556,49.54827],[26.15423,49.51877],[26.17172,49.50861],[26.18037,49.47768],[26.19863,49.46548],[26.19867,49.43578],[26.22466,49.41576],[26.22332,49.36517],[26.24756,49.35306],[26.20275,49.26847],[26.21357,49.20558],[26.23254,49.19997],[26.21232,49.17221],[26.21855,49.0793],[26.23189,49.06203],[26.23103,49.04682],[26.20811,49.03671],[26.18162,49.03767],[26.17007,49.02592],[26.1694,49.01547],[26.19727,49.00569],[26.19925,48.99007],[26.174,48.97743],[26.18198,48.96189],[26.2029,48.9579],[26.19831,48.91063],[26.2272,48.89973],[26.21396,48.85754],[26.22427,48.84454],[26.25453,48.83342],[26.25585,48.81596],[26.21515,48.80559],[26.20516,48.78115],[26.23648,48.76892],[26.23758,48.73807],[26.27153,48.69953],[26.26553,48.66108],[26.27873,48.6438],[26.32086,48.62897],[26.3421,48.57979],[26.36259,48.56237],[26.38505,48.58016],[26.43865,48.53094],[26.3738,48.51848],[26.36265,48.50765],[26.30746,48.51005],[26.27611,48.53865],[26.21144,48.52224],[26.17229,48.52413],[26.15252,48.53948],[26.13799,48.59147],[26.10742,48.61413],[26.09129,48.5973],[26.11433,48.56135],[26.11287,48.53567],[26.08324,48.54381],[26.04721,48.57205],[26.0527,48.60097],[26.04459,48.62899],[26.02865,48.6428],[26.01613,48.60626],[25.96222,48.60828],[25.92944,48.58136],[25.90556,48.57617],[25.87991,48.58751],[25.84244,48.58137],[25.85108,48.61559],[25.79492,48.65903],[25.75864,48.65652],[25.74118,48.61781],[25.69264,48.65341],[25.63663,48.65365],[25.58083,48.61458],[25.59573,48.37597],[25.51263,48.39533],[25.46955,48.3937],[25.43179,48.37697],[25.41276,48.38154],[25.39535,48.36865],[25.36581,48.36798],[25.35381,48.35816],[25.3129,48.34948],[25.28996,48.32395],[25.2645,48.31312],[25.26226,48.29716],[25.24411,48.28628],[25.22117,48.25596],[25.20445,48.24487],[25.17381,48.24048],[25.13269,48.20787],[25.14736,48.17619],[25.1287,48.16345],[25.09871,48.16087],[25.10248,48.14983],[25.07692,48.14281],[25.09047,48.13043],[25.0808,48.11837],[25.06369,48.11497],[25.05845,48.09847],[25.00228,48.10041],[25.00811,48.07284],[24.95238,48.03453],[24.96286,48.02162],[24.92258,48.01372],[24.94421,47.9993],[24.93623,47.98316],[24.94674,47.9473],[24.96436,47.95254],[24.98607,47.9247],[24.97119,47.9143],[24.98365,47.90781],[24.96705,47.89191],[24.99466,47.84602],[25.03012,47.85742],[25.00895,47.83162],[25.02475,47.80361],[24.96986,47.7901],[24.95125,47.76299],[24.96645,47.75612],[24.96247,47.74805],[24.92563,47.72727],[24.88398,47.72339],[24.87702,47.75209],[24.83505,47.77981],[24.83626,47.79303],[24.82136,47.80558],[24.82702,47.81916],[24.78369,47.82407],[24.77877,47.83621],[24.76655,47.83882],[24.75203,47.82931],[24.73598,47.84294],[24.70621,47.84026],[24.70516,47.85092],[24.67156,47.86404],[24.66661,47.87617],[24.67393,47.89527],[24.65231,47.91919],[24.63756,47.92307],[24.62819,47.94917],[24.60225,47.94499],[24.58113,47.96596],[24.60832,48.01203],[24.62675,48.01531],[24.64804,48.03254],[24.6197,48.07263],[24.55438,48.10613],[24.54937,48.11826],[24.52645,48.12415],[24.49486,48.1541],[24.52377,48.20569],[24.46269,48.2395],[24.46522,48.26208],[24.42959,48.27916],[24.40795,48.30871],[24.34948,48.33731],[24.35562,48.35751],[24.33337,48.37567],[24.29003,48.387],[24.28162,48.37854],[24.2929,48.36754],[24.28731,48.35872],[24.26764,48.35649],[24.26154,48.33628],[24.2376,48.34891],[24.21852,48.34373],[24.20159,48.35544],[24.18505,48.34898],[24.17782,48.38329],[24.16485,48.38876],[24.15755,48.43262],[24.14205,48.4346],[24.13908,48.45882],[24.14628,48.47793],[24.1276,48.48889],[24.14321,48.51647],[24.12115,48.52595],[24.10964,48.51692],[24.01622,48.49347],[24.00106,48.4868],[23.97387,48.44447],[23.92805,48.46262],[23.93442,48.52377],[23.94579,48.54236],[23.90916,48.5622],[23.88182,48.55894],[23.84455,48.58169],[23.8302,48.57776],[23.80057,48.61668],[23.81379,48.62171],[23.7906,48.64268],[23.70494,48.64086],[23.66157,48.69856],[23.62779,48.70364],[23.62133,48.7168],[23.59942,48.72233],[23.55754,48.7198],[23.52497,48.73422],[23.48994,48.71466],[23.42994,48.72569],[23.3977,48.73622],[23.37547,48.76647],[23.33754,48.75198],[23.2991,48.78224],[23.27345,48.76436],[23.256,48.77023],[23.211,48.76699],[23.19486,48.80883],[23.18308,48.81402],[23.18115,48.83327],[23.11015,48.86346],[23.02664,48.84372],[23.00741,48.82219],[22.97799,48.86457],[22.92318,48.8899],[22.88696,48.91876],[22.87843,48.93589],[22.88484,48.94845],[22.90672,48.95829],[22.93556,48.95593],[22.92498,48.9923],[22.88033,49.00692],[22.84825,49.00298],[22.83405,49.02645],[22.81612,49.02564],[22.77207,49.05343],[22.7559,49.04292],[22.72017,49.05266],[22.70029,49.05015],[22.68413,49.03963],[22.65606,49.05038],[22.63339,49.0757],[22.60129,49.09353],[22.58458,49.09729],[22.56675,49.08599],[22.53738,49.09211],[22.49662,49.08334],[22.4556,49.10116],[22.42637,49.09679],[22.39011,49.11596],[22.36657,49.14415],[22.30496,49.13475],[22.22356,49.15117],[22.23369,49.17283],[22.22125,49.18176],[22.18767,49.17211],[22.14238,49.1912],[22.14287,49.19873],[22.06011,49.21042],[22.02962,49.22409],[22.04063,49.25514],[22.02885,49.26113],[22.03268,49.27589],[21.98191,49.30874],[21.96064,49.34698],[21.90192,49.34936],[21.88307,49.36838],[21.85611,49.36741],[21.83818,49.39012],[21.79635,49.37742],[21.78158,49.35432],[21.76634,49.36442],[21.7631,49.38086],[21.72686,49.39596],[21.72145,49.40978],[21.66022,49.41417],[21.63076,49.44464],[21.58581,49.43123],[21.56258,49.43927],[21.55014,49.43107],[21.52842,49.43327],[21.51681,49.41646],[21.48824,49.42692],[21.47277,49.41239],[21.43665,49.41035],[21.39608,49.43239],[21.372,49.43102],[21.34207,49.44819],[21.30738,49.44596],[21.2763,49.4585],[21.2667,49.45566],[21.26568,49.44536],[21.23355,49.43529],[21.22339,49.42399],[21.22573,49.41525],[21.20766,49.4019],[21.17925,49.40091],[21.15106,49.42542],[21.12508,49.43458],[21.11183,49.42264],[21.09677,49.42789],[21.04853,49.41839],[21.05269,49.40475],[21.10343,49.37523],[21.09332,49.36392],[21.04133,49.3633],[21.01045,49.34549],[21.00782,49.3344],[20.98849,49.32776],[20.99222,49.31227],[20.98346,49.3065],[20.963,49.30753],[20.92604,49.29502],[20.90248,49.3143],[20.90277,49.32183],[20.87253,49.31906],[20.88157,49.33237],[20.86658,49.3442],[20.85356,49.34544],[20.83584,49.33295],[20.81072,49.34574],[20.79516,49.34249],[20.79694,49.3565],[20.80976,49.35434],[20.79802,49.36112],[20.78268,49.3588],[20.78279,49.37202],[20.75897,49.37144],[20.75966,49.38082],[20.74544,49.38972],[20.75504,49.39921],[20.74221,49.40136],[20.74435,49.41061],[20.7363,49.41421],[20.69134,49.41843],[20.65122,49.39857],[20.61359,49.4153],[20.61165,49.40037],[20.59791,49.38559],[20.57466,49.37453],[20.5103,49.39087],[20.47097,49.41338],[20.44485,49.40916],[20.43428,49.41485],[20.42807,49.41353],[20.43261,49.39423],[20.41542,49.40336],[20.4065,49.39001],[20.38951,49.38684],[20.38205,49.38657],[20.37293,49.40534],[20.36195,49.39596],[20.31968,49.39885],[20.317,49.38681],[20.32922,49.38854],[20.31868,49.37439],[20.32387,49.36448],[20.31604,49.34253],[20.22164,49.3501],[20.17041,49.32542],[20.17337,49.31194],[20.15646,49.30212],[20.14481,49.31638],[20.12983,49.29506],[20.12398,49.2682],[20.10075,49.24951],[20.09589,49.23389],[20.10195,49.22108],[20.08678,49.20544],[20.08675,49.17807],[20.07335,49.17737],[20.01954,49.20101],[20.00687,49.21062],[20.00847,49.21803],[19.98153,49.22984],[19.9309,49.23427],[19.90184,49.22926],[19.90099,49.21141],[19.86795,49.19447],[19.80492,49.20276],[19.78167,49.19722],[19.76404,49.20439],[19.75691,49.21255],[19.76572,49.23349],[19.78272,49.24429],[19.79154,49.26523],[19.81994,49.2741],[19.80753,49.29216],[19.79237,49.29723],[19.80343,49.32175],[19.79323,49.34338],[19.80227,49.36524],[19.79136,49.37655],[19.78928,49.4088],[19.74745,49.40672],[19.7148,49.38499],[19.68285,49.40185],[19.63056,49.40627],[19.64757,49.43124],[19.63584,49.43883],[19.64182,49.45341],[19.61043,49.44474],[19.59509,49.4564],[19.58124,49.45379],[19.53348,49.52377],[19.52661,49.56959],[19.4793,49.58482],[19.46769,49.59332],[19.47378,49.6013],[19.46673,49.61036],[19.44756,49.611],[19.44143,49.59548],[19.40908,49.58966],[19.39967,49.57253],[19.37008,49.56553],[19.36572,49.53668],[19.35914,49.53345],[19.26052,49.52922],[19.23258,49.50792],[19.23418,49.49366],[19.21864,49.46759],[19.22772,49.46121],[19.2246,49.45298],[19.19657,49.44582],[19.18527,49.43354],[19.19469,49.41393],[19.18613,49.40803],[19.1736,49.41186],[19.12124,49.40098],[19.07397,49.41605],[19.05271,49.41303],[19.03437,49.3947],[19.0,49.39735],[19.0,52.56071],[19.00803,52.6]]],"type":"Polygon"},"id":"1939-02-033","properties":{"Foreign_Po":"","Govt_in_Ex":"","Head_of_St":"Ignacy Moscicki (President)","Name":"Poland","editorialFlagIds":["HA-CAUTION-HEAD-OF-STATE"],"foreignPowerCategory":"unclassified","snapshotDate":"1939-02-28","sourceFeatureIndex":33,"yearMonth":"1939-02"},"type":"Feature"},{"geometry":{"coordinates":[[[[28.66221,44.15409],[28.6565,44.15711],[28.67175,44.15036],[28.66221,44.15409]]],[[[28.77128,44.55987],[28.76926,44.55439],[28.76742,44.56058],[28.77128,44.55987]]],[[[28.85199,44.55163],[28.84557,44.55283],[28.85078,44.55576],[28.85199,44.55163]]],[[[28.88809,44.55268],[28.8399,44.54122],[28.83733,44.5417],[28.84132,44.54876],[28.88809,44.55268]]],[[[28.87268,44.55557],[28.86876,44.5524],[28.86071,44.55293],[28.87268,44.55557]]],[[[28.7753,44.58934],[28.76948,44.58847],[28.77212,44.59188],[28.7753,44.58934]]],[[[28.77184,44.59485],[28.77157,44.59783],[28.77414,44.59735],[28.77184,44.59485]]],[[[28.9042,44.57014],[28.87863,44.5642],[28.87505,44.56195],[28.87478,44.56492],[28.88871,44.56914],[28.9042,44.57014]]],[[[28.79971,44.60331],[28.80424,44.60442],[28.80451,44.60144],[28.79971,44.60331]]],[[[28.92182,44.59902],[28.92881,44.61039],[28.93036,44.60717],[28.92182,44.59902]]],[[[28.93573,44.61787],[28.93206,44.61173],[28.92855,44.61336],[28.93573,44.61787]]],[[[28.93837,44.62127],[28.93913,44.62698],[28.94888,44.631],[28.93837,44.62127]]],[[[28.81456,44.66196],[28.81659,44.66743],[28.82343,44.67103],[28.81456,44.66196]]],[[[28.82668,44.67237],[28.80378,44.67371],[28.83407,44.68854],[28.82133,44.68019],[28.82668,44.67237]]],[[[28.85426,44.69843],[28.85453,44.69545],[28.84647,44.69598],[28.85426,44.69843]]],[[[28.83989,44.68941],[28.83223,44.69473],[28.83454,44.69723],[28.84647,44.69598],[28.83989,44.68941]]],[[[28.94249,44.68389],[28.96327,44.67316],[28.95755,44.66156],[28.95271,44.67807],[28.93685,44.67617],[28.94249,44.68389]]],[[[28.78151,44.71391],[28.78409,44.71343],[28.78145,44.71002],[28.78151,44.71391]]],[[[29.00552,44.68668],[28.97325,44.65569],[28.98419,44.67021],[28.9507,44.69112],[28.98564,44.67774],[28.99848,44.68996],[29.00552,44.68668]]],[[[28.93463,44.79553],[28.9355,44.79049],[28.93231,44.79304],[28.93463,44.79553]]],[[[29.52475,44.77811],[29.53014,44.78489],[29.56045,44.79173],[29.54523,44.78099],[29.52475,44.77811]]],[[[28.96157,44.96303],[28.97406,44.97044],[28.98045,44.96535],[28.9752,44.96244],[28.96157,44.96303]]],[[[28.98798,45.00001],[28.98306,44.998],[28.98116,45.00031],[28.98798,45.00001]]],[[[29.00127,44.9985],[28.99479,44.99971],[29.00291,44.99917],[29.00127,44.9985]]],[[[28.98185,45.00213],[28.97503,45.00242],[28.9764,45.00607],[28.98185,45.00213]]],[[[29.71519,45.2161],[29.71434,45.2104],[29.71045,45.21115],[29.71519,45.2161]]],[[[29.75017,45.22692],[29.75723,45.2236],[29.7452,45.22495],[29.75017,45.22692]]],[[[29.63533,45.47456],[29.62988,45.47853],[29.64611,45.47347],[29.63533,45.47456]]],[[[29.77967,45.43902],[29.77929,45.4557],[29.78262,45.45701],[29.77967,45.43902]]],[[[28.08845,43.37867],[28.07198,43.34269],[27.99485,43.33634],[27.96276,43.35195],[27.91616,43.35264],[27.85882,43.38059],[27.82758,43.4106],[27.7994,43.45758],[27.77191,43.47519],[27.7429,43.46872],[27.71288,43.47898],[27.69666,43.50622],[27.60362,43.54035],[27.56164,43.53516],[27.48054,43.56119],[27.46839,43.57695],[27.44851,43.64172],[27.42314,43.64618],[27.41065,43.62893],[27.36052,43.61146],[27.27037,43.63498],[27.16155,43.69563],[27.08336,43.69064],[27.03857,43.69736],[27.00726,43.67553],[26.96909,43.71895],[26.93856,43.74065],[26.91288,43.74017],[26.88743,43.72799],[26.85333,43.76773],[26.84843,43.78991],[26.79043,43.78514],[26.76285,43.8121],[26.73008,43.81469],[26.70999,43.83163],[26.66572,43.83613],[26.64668,43.84803],[26.6406,43.86262],[26.58322,43.89349],[26.52526,43.87208],[26.50767,43.87596],[26.43084,43.9603],[26.41177,44.03606],[26.38198,44.03996],[26.3103,44.02647],[26.19279,43.98261],[26.14906,43.98483],[26.10827,43.96624],[26.08132,43.94445],[26.05623,43.90687],[25.95327,43.86046],[25.87828,43.77761],[25.86044,43.76303],[25.81071,43.74481],[25.78575,43.71104],[25.76213,43.6993],[25.73059,43.68784],[25.65926,43.68656],[25.55763,43.64157],[25.48261,43.64069],[25.3995,43.61685],[25.34463,43.62532],[25.25768,43.67924],[25.18388,43.6963],[25.1076,43.68181],[25.05646,43.68954],[24.99483,43.72584],[24.93842,43.72464],[24.88569,43.70357],[24.80551,43.70777],[24.7354,43.68149],[24.68911,43.69699],[24.62775,43.73974],[24.49724,43.7597],[24.40466,43.73358],[24.37675,43.70966],[24.34064,43.69461],[24.1729,43.68002],[24.08875,43.69865],[24.05786,43.71744],[23.97254,43.7419],[23.86215,43.75243],[23.7648,43.78221],[23.74637,43.7982],[23.69805,43.80192],[23.61328,43.78848],[23.55941,43.80154],[23.50412,43.83494],[23.42627,43.84826],[23.27192,43.84381],[23.14362,43.80499],[23.06484,43.7932],[22.87626,43.83195],[22.85579,43.84608],[22.84034,43.88067],[22.88144,43.97708],[22.92997,44.0006],[23.00963,44.00954],[23.04433,44.05206],[23.03944,44.08051],[23.02446,44.09012],[22.9195,44.10359],[22.86669,44.13334],[22.80656,44.15534],[22.74468,44.19765],[22.68882,44.20466],[22.6712,44.22028],[22.68589,44.25293],[22.67942,44.27577],[22.65674,44.28722],[22.55763,44.30432],[22.52252,44.34216],[22.50603,44.37387],[22.49811,44.41887],[22.46537,44.43916],[22.45721,44.45547],[22.45707,44.46601],[22.46868,44.47512],[22.51811,44.4681],[22.54871,44.47774],[22.55819,44.48902],[22.56423,44.53038],[22.58555,44.54594],[22.62724,44.54558],[22.69737,44.51294],[22.75762,44.53319],[22.76339,44.54013],[22.75276,44.56252],[22.708,44.59969],[22.67277,44.61555],[22.60306,44.61747],[22.565,44.63842],[22.47347,44.7118],[22.4564,44.71387],[22.41582,44.70254],[22.38985,44.67891],[22.33906,44.67548],[22.31296,44.66236],[22.29863,44.63636],[22.27321,44.62028],[22.25846,44.58667],[22.23721,44.56531],[22.1842,44.47794],[22.14038,44.46882],[22.07934,44.49519],[22.06973,44.52309],[22.0372,44.53936],[22.02491,44.59051],[22.00435,44.6063],[21.99162,44.63264],[21.95445,44.63508],[21.92095,44.64758],[21.80521,44.6543],[21.79116,44.66356],[21.72165,44.65434],[21.69181,44.66539],[21.63036,44.66188],[21.6138,44.67808],[21.61259,44.71449],[21.60027,44.74357],[21.58368,44.75976],[21.53247,44.7722],[21.39844,44.77666],[21.37981,44.80829],[21.3548,44.82346],[21.3595,44.83248],[21.35047,44.83443],[21.36602,44.868],[21.44743,44.8752],[21.45917,44.86722],[21.47695,44.8681],[21.55583,44.8879],[21.54088,44.92964],[21.46577,44.9571],[21.43383,44.95969],[21.40257,44.97745],[21.40973,44.98524],[21.35486,45.01894],[21.4018,45.03475],[21.4186,45.03099],[21.45155,45.03878],[21.44632,45.05176],[21.45294,45.06914],[21.47763,45.08834],[21.46619,45.10391],[21.47373,45.11928],[21.52428,45.13846],[21.51293,45.16642],[21.48925,45.17],[21.4773,45.18944],[21.43249,45.20201],[21.40254,45.22628],[21.39073,45.21614],[21.35506,45.221],[21.32207,45.23794],[21.28729,45.24078],[21.27089,45.22827],[21.21546,45.24856],[21.19992,45.26453],[21.20463,45.27354],[21.18825,45.28579],[21.17791,45.3069],[21.18057,45.319],[21.17207,45.32372],[21.16264,45.31807],[21.15833,45.32329],[21.14185,45.3041],[21.09484,45.29485],[21.07912,45.31652],[21.05986,45.31571],[21.06044,45.33089],[21.01516,45.32331],[21.00926,45.34012],[20.95882,45.36543],[20.94776,45.38373],[20.93021,45.38462],[20.93429,45.39085],[20.91888,45.41436],[20.86592,45.42846],[20.88,45.44317],[20.86623,45.46173],[20.83252,45.47665],[20.76981,45.47743],[20.77601,45.48725],[20.76709,45.49673],[20.83225,45.53281],[20.79399,45.58432],[20.77096,45.57909],[20.76505,45.60918],[20.80451,45.65267],[20.79593,45.68303],[20.80133,45.73383],[20.81469,45.74481],[20.82183,45.77165],[20.78288,45.78231],[20.7734,45.75096],[20.69975,45.74708],[20.68349,45.79341],[20.66231,45.7908],[20.65085,45.80812],[20.65999,45.82525],[20.61105,45.86061],[20.58044,45.86559],[20.56845,45.9067],[20.51518,45.88922],[20.48252,45.95042],[20.44606,45.96733],[20.40513,45.96282],[20.34603,45.99711],[20.35568,46.00376],[20.33884,46.03579],[20.34115,46.04696],[20.3096,46.06808],[20.30048,46.08415],[20.27123,46.09649],[20.26384,46.10764],[20.28183,46.11444],[20.26635,46.11309],[20.26226,46.12013],[20.28797,46.14422],[20.3081,46.1546],[20.31218,46.14756],[20.35383,46.16818],[20.36644,46.14891],[20.38077,46.15795],[20.39298,46.15011],[20.39996,46.15702],[20.4356,46.14213],[20.4637,46.14411],[20.49514,46.16853],[20.49829,46.19006],[20.54421,46.17791],[20.63953,46.1247],[20.65573,46.14872],[20.68515,46.14386],[20.71299,46.16384],[20.72897,46.20592],[20.75902,46.20383],[20.75021,46.24651],[20.77547,46.2734],[20.87115,46.2855],[20.88848,46.26947],[20.91578,46.26097],[20.92292,46.27449],[20.94547,46.27597],[20.94939,46.26226],[20.99148,46.25792],[21.02226,46.26518],[21.03505,46.2477],[21.06157,46.24208],[21.06948,46.25266],[21.10047,46.26083],[21.11305,46.29849],[21.14345,46.30386],[21.14607,46.29693],[21.16822,46.2965],[21.1794,46.30293],[21.1701,46.31722],[21.1724,46.32743],[21.19718,46.34478],[21.20547,46.39999],[21.22496,46.41219],[21.29322,46.40593],[21.28747,46.41129],[21.3108,46.44018],[21.31449,46.45025],[21.29485,46.47419],[21.27283,46.47557],[21.26018,46.49971],[21.27316,46.53826],[21.28987,46.54409],[21.31905,46.57997],[21.30164,46.58941],[21.31327,46.61574],[21.3256,46.62679],[21.3655,46.63586],[21.40687,46.62101],[21.41929,46.64439],[21.45526,46.66051],[21.43481,46.67505],[21.43026,46.69169],[21.45014,46.68672],[21.47124,46.69301],[21.49161,46.68418],[21.52765,46.71832],[21.52515,46.7376],[21.48343,46.75728],[21.49007,46.77368],[21.50732,46.78133],[21.51852,46.79914],[21.52015,46.83602],[21.59959,46.86264],[21.60304,46.88318],[21.61331,46.88492],[21.59776,46.90846],[21.59918,46.92636],[21.63574,46.93192],[21.65681,46.9553],[21.67171,46.95273],[21.67964,46.96233],[21.66629,46.97138],[21.6767,46.98545],[21.67479,46.99516],[21.68712,46.99953],[21.67713,47.01677],[21.6583,47.0207],[21.64735,47.03994],[21.67964,47.045],[21.71314,47.07273],[21.72466,47.09714],[21.79072,47.10706],[21.78879,47.12247],[21.79864,47.12805],[21.81631,47.17174],[21.85739,47.1891],[21.8491,47.23657],[21.88625,47.27242],[21.87697,47.28674],[21.88457,47.28876],[21.93778,47.37224],[22.01165,47.37741],[22.03354,47.41395],[22.02334,47.44169],[22.02957,47.44955],[22.01777,47.45371],[22.00594,47.47497],[22.02276,47.51967],[22.04289,47.5374],[22.06051,47.52786],[22.06954,47.53541],[22.05215,47.54588],[22.07254,47.55883],[22.09409,47.5593],[22.12702,47.58795],[22.12773,47.59642],[22.17248,47.59239],[22.18876,47.61149],[22.20231,47.65369],[22.21998,47.66122],[22.22586,47.69002],[22.25657,47.69799],[22.26319,47.72957],[22.28435,47.72814],[22.31511,47.7418],[22.31569,47.76644],[22.35423,47.7488],[22.42816,47.74043],[22.42473,47.74938],[22.44723,47.80291],[22.48059,47.80958],[22.54826,47.77143],[22.60855,47.77116],[22.67881,47.78683],[22.70991,47.83364],[22.74859,47.83296],[22.77389,47.84143],[22.77635,47.85066],[22.76024,47.86585],[22.76508,47.8786],[22.75545,47.89114],[22.79114,47.88984],[22.82453,47.90687],[22.84181,47.90676],[22.88499,47.94927],[22.95,47.96542],[22.94171,47.97211],[22.93956,47.99615],[22.9212,48.00306],[22.92965,48.01824],[22.96267,48.00675],[22.97373,48.0102],[23.01567,47.98907],[23.0323,48.00233],[23.09223,48.00473],[23.09921,48.01437],[23.09081,48.01537],[23.09373,48.02074],[23.10975,48.03691],[23.09981,48.04286],[23.11151,48.05384],[23.1064,48.06682],[23.12372,48.07713],[23.11594,48.08567],[23.14551,48.09833],[23.15073,48.11198],[23.16731,48.11952],[23.18108,48.11692],[23.19141,48.09665],[23.24661,48.09194],[23.2674,48.09896],[23.26967,48.08631],[23.29182,48.07221],[23.27815,48.05958],[23.28081,48.05354],[23.33795,48.03521],[23.33356,48.01955],[23.40069,48.00092],[23.4197,47.98621],[23.43498,47.98911],[23.45144,47.97566],[23.49679,47.96725],[23.52165,47.99373],[23.5301,48.01841],[23.56613,48.00254],[23.61516,48.00696],[23.66913,47.98311],[23.77943,47.99412],[23.82373,47.97711],[23.84762,47.93977],[23.86695,47.9316],[23.88272,47.94105],[23.9423,47.94685],[23.95385,47.9616],[23.97807,47.9652],[23.98482,47.95862],[24.00873,47.96606],[24.03258,47.9487],[24.06238,47.95157],[24.09566,47.9368],[24.11338,47.91352],[24.19273,47.91759],[24.22848,47.89673],[24.25767,47.90726],[24.28051,47.90619],[24.32529,47.92517],[24.34955,47.91436],[24.38212,47.92633],[24.39323,47.95352],[24.43559,47.96897],[24.51113,47.9504],[24.52564,47.95994],[24.58113,47.96596],[24.60225,47.94499],[24.62819,47.94917],[24.63756,47.92307],[24.65231,47.91919],[24.67393,47.89527],[24.66661,47.87617],[24.67156,47.86404],[24.70516,47.85092],[24.70621,47.84026],[24.73598,47.84294],[24.75203,47.82931],[24.76655,47.83882],[24.77877,47.83621],[24.78369,47.82407],[24.82702,47.81916],[24.82136,47.80558],[24.83626,47.79303],[24.83505,47.77981],[24.87702,47.75209],[24.88398,47.72339],[24.92563,47.72727],[24.96247,47.74805],[24.96645,47.75612],[24.95125,47.76299],[24.96986,47.7901],[25.02475,47.80361],[25.00895,47.83162],[25.03012,47.85742],[24.99466,47.84602],[24.96705,47.89191],[24.98365,47.90781],[24.97119,47.9143],[24.98607,47.9247],[24.96436,47.95254],[24.94674,47.9473],[24.93623,47.98316],[24.94421,47.9993],[24.92258,48.01372],[24.96286,48.02162],[24.95238,48.03453],[25.00811,48.07284],[25.00228,48.10041],[25.05845,48.09847],[25.06369,48.11497],[25.0808,48.11837],[25.09047,48.13043],[25.07692,48.14281],[25.10248,48.14983],[25.09871,48.16087],[25.1287,48.16345],[25.14736,48.17619],[25.13269,48.20787],[25.17381,48.24048],[25.20445,48.24487],[25.22117,48.25596],[25.24411,48.28628],[25.26226,48.29716],[25.2645,48.31312],[25.28996,48.32395],[25.3129,48.34948],[25.35381,48.35816],[25.36581,48.36798],[25.39535,48.36865],[25.41276,48.38154],[25.43179,48.37697],[25.46955,48.3937],[25.51263,48.39533],[25.59573,48.37597],[25.58083,48.61458],[25.63663,48.65365],[25.69264,48.65341],[25.74118,48.61781],[25.75864,48.65652],[25.79492,48.65903],[25.85108,48.61559],[25.84244,48.58137],[25.87991,48.58751],[25.90556,48.57617],[25.92944,48.58136],[25.96222,48.60828],[26.01613,48.60626],[26.02865,48.6428],[26.04459,48.62899],[26.0527,48.60097],[26.04721,48.57205],[26.08324,48.54381],[26.11287,48.53567],[26.11433,48.56135],[26.09129,48.5973],[26.10742,48.61413],[26.13799,48.59147],[26.15252,48.53948],[26.17229,48.52413],[26.21144,48.52224],[26.27611,48.53865],[26.30746,48.51005],[26.36265,48.50765],[26.3738,48.51848],[26.40632,48.5271],[26.47908,48.53261],[26.48776,48.51115],[26.51529,48.4888],[26.52814,48.46671],[26.56681,48.45515],[26.58618,48.45993],[26.57679,48.5084],[26.62797,48.49879],[26.65737,48.48188],[26.68464,48.49217],[26.66645,48.50741],[26.66453,48.52691],[26.60804,48.53829],[26.62616,48.5519],[26.70304,48.53551],[26.71826,48.5409],[26.72112,48.56545],[26.70367,48.57865],[26.71955,48.58586],[26.74747,48.57299],[26.75744,48.5513],[26.77416,48.55261],[26.78341,48.57427],[26.77247,48.59323],[26.79248,48.60365],[26.8109,48.59316],[26.80038,48.58035],[26.83746,48.5478],[26.86918,48.54969],[26.96587,48.58394],[27.02329,48.55877],[27.04327,48.573],[27.0691,48.55459],[27.16714,48.57982],[27.19712,48.56073],[27.22825,48.55684],[27.24488,48.5658],[27.22509,48.60448],[27.24527,48.61097],[27.27503,48.60729],[27.28678,48.59101],[27.31227,48.59184],[27.32468,48.6053],[27.32303,48.62481],[27.3439,48.63309],[27.38245,48.62511],[27.40618,48.62909],[27.43164,48.60197],[27.44914,48.5655],[27.45837,48.51492],[27.48208,48.47938],[27.50377,48.47016],[27.57471,48.48971],[27.57445,48.47722],[27.59063,48.4573],[27.64123,48.44246],[27.68025,48.44006],[27.74286,48.45698],[27.7847,48.44638],[27.82168,48.41918],[27.87217,48.40424],[27.88439,48.37041],[27.95148,48.32956],[28.05535,48.32314],[28.07999,48.31425],[28.09451,48.29448],[28.08118,48.2484],[28.09292,48.23295],[28.1099,48.2311],[28.13561,48.24423],[28.1447,48.26011],[28.16516,48.25962],[28.18801,48.25003],[28.18783,48.21529],[28.20821,48.2032],[28.30343,48.23949],[28.32418,48.23216],[28.35343,48.24658],[28.36888,48.22949],[28.37038,48.20315],[28.35424,48.18072],[28.30976,48.16112],[28.30819,48.13819],[28.32475,48.13155],[28.35455,48.13621],[28.38744,48.17514],[28.42999,48.17088],[28.44215,48.14175],[28.42292,48.12276],[28.43993,48.09474],[28.46425,48.07419],[28.50043,48.06515],[28.49295,48.07609],[28.4975,48.11014],[28.52637,48.12362],[28.64101,48.08571],[28.6008,48.07709],[28.58838,48.05309],[28.55095,48.04399],[28.53826,48.02293],[28.55561,48.00353],[28.58734,48.00198],[28.59776,48.03213],[28.62512,48.0381],[28.6446,48.02412],[28.68862,48.03497],[28.71221,48.02026],[28.71147,47.99619],[28.74844,47.9782],[28.77838,47.99434],[28.83754,47.9473],[28.83255,47.92008],[28.84708,47.90496],[28.88632,47.90395],[28.92185,47.89001],[28.96015,47.89398],[29.03023,47.8565],[29.02725,47.83085],[28.99469,47.80457],[28.98069,47.77698],[28.99206,47.74687],[28.97752,47.72519],[29.0005,47.64354],[28.99727,47.62083],[29.04977,47.56598],[29.0476,47.546],[29.06323,47.51219],[29.0957,47.49866],[29.12343,47.47335],[29.13311,47.45028],[29.10247,47.42468],[29.1127,47.41025],[29.15503,47.38522],[29.17516,47.3593],[29.17718,47.33175],[29.15455,47.31154],[29.10814,47.36254],[29.07576,47.36151],[29.09203,47.3295],[29.12284,47.30847],[29.12733,47.2834],[29.18196,47.23866],[29.20327,47.20862],[29.09811,47.12652],[29.13758,47.09127],[29.17668,47.12406],[29.2041,47.10941],[29.21415,47.13091],[29.20484,47.15104],[29.21209,47.16916],[29.24175,47.14924],[29.27426,47.17251],[29.32003,47.13508],[29.31384,47.11968],[29.3313,47.10194],[29.36312,47.11268],[29.37482,47.08431],[29.40597,47.06113],[29.4032,47.03636],[29.37251,47.02835],[29.39544,47.00278],[29.38702,46.99265],[29.32627,46.99595],[29.31885,46.98467],[29.34156,46.95137],[29.37494,46.93751],[29.44756,46.96019],[29.48457,46.93395],[29.47811,46.90012],[29.48763,46.87016],[29.51262,46.85],[29.50237,46.81395],[29.52416,46.78949],[29.55482,46.77993],[29.60797,46.81874],[29.64232,46.81821],[29.66818,46.79685],[29.69135,46.77598],[29.68187,46.74562],[29.70035,46.71685],[29.68737,46.69201],[29.71122,46.67295],[29.76733,46.67315],[29.78656,46.63934],[29.75393,46.61917],[29.75064,46.59348],[29.79883,46.5815],[29.81095,46.60065],[29.83278,46.60141],[29.84077,46.58236],[29.87984,46.58667],[29.87856,46.56255],[29.90896,46.5178],[29.92949,46.51195],[29.92482,46.50406],[29.94476,46.50027],[29.94445,46.49253],[29.96022,46.51001],[29.95943,46.49066],[29.98393,46.50842],[29.9902,46.48187],[30.00051,46.4721],[30.02287,46.47076],[30.02387,46.46277],[29.99886,46.46462],[30.00634,46.45148],[30.03284,46.45325],[30.02497,46.4411],[30.06813,46.44161],[30.0593,46.43062],[30.12731,46.41855],[30.17783,46.41955],[30.18395,46.45156],[30.20665,46.45792],[30.23869,46.44197],[30.26452,46.40768],[30.26893,46.38046],[30.30054,46.35675],[30.27476,46.29827],[30.21842,46.38633],[30.17341,46.38819],[30.12643,46.36797],[30.1045,46.33217],[30.16084,46.27836],[30.22304,46.23897],[30.37331,46.18526],[30.37519,46.13505],[30.42032,46.10664],[30.44301,46.05525],[30.49571,46.09961],[30.481,46.07807],[30.3435,45.97314],[30.23799,45.87556],[30.12954,45.81465],[30.04821,45.7572],[29.74056,45.58421],[29.60782,45.47591],[29.62001,45.46773],[29.62962,45.47077],[29.6438,45.45342],[29.66208,45.46065],[29.6538,45.46809],[29.66166,45.47733],[29.67847,45.4702],[29.67003,45.46303],[29.68755,45.45772],[29.69115,45.46679],[29.70809,45.46354],[29.74742,45.48136],[29.74376,45.46156],[29.76641,45.46209],[29.75305,45.44611],[29.76277,45.4247],[29.74821,45.40212],[29.74851,45.3923],[29.75834,45.39236],[29.76348,45.33472],[29.73749,45.26551],[29.73746,45.2831],[29.71749,45.28207],[29.73677,45.2637],[29.73775,45.24495],[29.73112,45.24232],[29.74369,45.22817],[29.71877,45.22517],[29.7249,45.22301],[29.71989,45.21031],[29.71815,45.2165],[29.70164,45.22067],[29.70066,45.21109],[29.68908,45.20649],[29.68309,45.21253],[29.69095,45.2325],[29.67441,45.22592],[29.67495,45.21312],[29.65891,45.25039],[29.6768,45.26745],[29.67589,45.27934],[29.66944,45.29133],[29.65028,45.28525],[29.63954,45.24728],[29.67405,45.15762],[29.69692,45.15907],[29.67977,45.14382],[29.65571,45.0967],[29.61941,44.88292],[29.59901,44.88394],[29.59876,44.87617],[29.61458,44.87409],[29.61711,44.8521],[29.603,44.82649],[29.57732,44.80313],[29.60829,44.84013],[29.61607,44.86012],[29.61059,44.87095],[29.60643,44.84244],[29.56823,44.83322],[29.54901,44.81935],[29.34523,44.8038],[29.35049,44.8067],[29.33221,44.81312],[29.30777,44.80704],[29.33095,44.80262],[29.23878,44.79284],[29.14379,44.77182],[29.07781,44.7433],[29.00715,44.68735],[28.98301,44.70749],[28.97428,44.73936],[29.02226,44.74596],[29.12301,44.78257],[29.14617,44.8182],[29.09261,44.87024],[29.08357,44.85731],[29.09733,44.83521],[29.06921,44.82295],[29.04228,44.85044],[29.04364,44.86871],[29.03372,44.89008],[29.03748,44.92934],[29.04419,44.93979],[29.09806,44.95405],[29.10083,44.97596],[29.09065,44.98567],[29.04251,44.99762],[29.01067,44.99772],[29.00582,45.01422],[28.95861,45.01036],[28.95549,44.98365],[28.93074,44.98046],[28.94582,44.9874],[28.94414,45.00136],[28.93671,45.00371],[28.92571,44.9892],[28.92102,44.99884],[28.9184,44.98081],[28.88893,45.02038],[28.90702,44.98],[28.8608,44.95643],[28.85153,44.90944],[28.86139,44.89884],[28.85941,44.87874],[28.92429,44.8306],[28.95132,44.82166],[28.90788,44.8015],[28.92044,44.79818],[28.91294,44.77814],[28.91761,44.76849],[28.93998,44.75456],[28.93047,44.74756],[28.88616,44.74707],[28.8973,44.75474],[28.88957,44.75618],[28.82762,44.72678],[28.78158,44.71779],[28.80503,44.72903],[28.78367,44.72715],[28.774,44.70848],[28.735,44.71473],[28.72425,44.73036],[28.7136,44.73136],[28.71057,44.72315],[28.72749,44.7093],[28.782,44.70407],[28.77144,44.69044],[28.80594,44.68695],[28.77634,44.67394],[28.78457,44.64414],[28.79569,44.63331],[28.83028,44.63759],[28.91383,44.68828],[28.895,44.70057],[28.86471,44.70428],[28.88118,44.70413],[28.94813,44.69161],[28.94086,44.68322],[28.93125,44.68697],[28.89152,44.66905],[28.78476,44.59635],[28.79773,44.62025],[28.77662,44.61151],[28.77736,44.61722],[28.76058,44.61644],[28.76666,44.5734],[28.78998,44.58075],[28.78438,44.57302],[28.80014,44.57106],[28.77073,44.56582],[28.76222,44.55765],[28.74145,44.56834],[28.72143,44.54379],[28.72773,44.53482],[28.76216,44.55376],[28.77718,44.5461],[28.75091,44.49347],[28.75455,44.45867],[28.76648,44.46132],[28.77232,44.48461],[28.80929,44.52158],[28.82787,44.53469],[28.88572,44.5463],[28.88809,44.55268],[28.90148,44.56285],[28.84388,44.49269],[28.74802,44.41114],[28.6889,44.34317],[28.65968,44.34178],[28.63149,44.3207],[28.63756,44.3186],[28.62402,44.28894],[28.62284,44.24821],[28.63148,44.2232],[28.65048,44.20796],[28.65549,44.1768],[28.66403,44.17033],[28.64413,44.16429],[28.65234,44.15691],[28.6392,44.15448],[28.64292,44.14598],[28.65573,44.1475],[28.64575,44.14253],[28.6662,44.14261],[28.64697,44.1384],[28.65557,44.13582],[28.66605,44.1085],[28.66134,44.11426],[28.64755,44.11001],[28.65469,44.11843],[28.6513,44.12784],[28.64266,44.12653],[28.64008,44.10067],[28.6244,44.09872],[28.62496,44.09276],[28.66362,44.09433],[28.66639,44.08698],[28.64303,44.08256],[28.63777,44.07184],[28.66692,43.98737],[28.63772,43.94795],[28.63609,43.92094],[28.61349,43.89589],[28.60716,43.84829],[28.59015,43.83488],[28.58662,43.80627],[28.57629,43.79258],[28.58638,43.78679],[28.57901,43.78134],[28.57769,43.72498],[28.55999,43.67559],[28.58297,43.63809],[28.5731,43.63311],[28.56978,43.5937],[28.61149,43.54094],[28.59293,43.49658],[28.56191,43.46238],[28.55921,43.44726],[28.50205,43.41114],[28.46992,43.38104],[28.46778,43.35605],[28.45418,43.38204],[28.43024,43.38262],[28.3835,43.406],[28.31772,43.41728],[28.20541,43.39907],[28.15943,43.4056],[28.13925,43.40152],[28.11366,43.38184],[28.08845,43.37867]],[[29.6995,45.21522],[29.69659,45.22555],[29.69435,45.22696],[29.68877,45.21632],[29.6995,45.21522]]]],"type":"MultiPolygon"},"id":"1939-02-035","properties":{"Foreign_Po":"<Null>","Govt_in_Ex":"","Head_of_St":"King Carol II","Name":"Romania","editorialFlagIds":["HA-CAUTION-HEAD-OF-STATE"],"foreignPowerCategory":"unclassified","snapshotDate":"1939-02-28","sourceFeatureIndex":35,"yearMonth":"1939-02"},"type":"Feature"},{"geometry":{"coordinates":[[[[34.5,52.42496],[34.5,46.13651],[34.44429,46.15296],[34.432,46.16882],[34.4173,46.17131],[34.38262,46.19744],[34.36702,46.19815],[34.35342,46.18845],[34.3347,46.21177],[34.33354,46.22099],[34.34096,46.2242],[34.32549,46.23382],[34.32992,46.23973],[34.31381,46.23658],[34.32102,46.25376],[34.30459,46.25863],[34.29846,46.25511],[34.29833,46.2462],[34.3262,46.22371],[34.31091,46.21639],[34.30317,46.19238],[34.28462,46.19875],[34.29785,46.18469],[34.30831,46.18818],[34.31582,46.16852],[34.33285,46.17642],[34.34308,46.16505],[34.32453,46.1426],[34.3201,46.10786],[34.30546,46.11331],[34.30533,46.1044],[34.29797,46.10415],[34.30336,46.11778],[34.2921,46.14728],[34.29572,46.15736],[34.26143,46.18434],[34.23865,46.23144],[34.22011,46.24077],[34.21467,46.25595],[34.17299,46.29156],[34.15995,46.29163],[34.1492,46.26436],[34.13487,46.26473],[34.12068,46.27699],[34.11326,46.27376],[34.1118,46.25921],[34.09573,46.25899],[34.15173,46.25781],[34.1822,46.19405],[34.21058,46.17545],[34.20391,46.16212],[34.1909,46.1622],[34.16247,46.14007],[34.15217,46.14845],[34.16009,46.15851],[34.15583,46.16448],[34.16801,46.16857],[34.16919,46.19412],[34.15506,46.20936],[34.13774,46.21242],[34.12484,46.18367],[34.0992,46.17875],[34.10392,46.17367],[34.12306,46.18011],[34.13685,46.17291],[34.14531,46.15503],[34.13371,46.16371],[34.13105,46.15838],[34.14139,46.15297],[34.14425,46.13839],[34.16673,46.13411],[34.16665,46.12816],[34.15325,46.13032],[34.15922,46.12196],[34.15437,46.11515],[34.12218,46.14059],[34.10207,46.12346],[34.08823,46.12472],[34.08927,46.14135],[34.06649,46.15959],[34.04462,46.13889],[34.04271,46.12048],[33.97544,46.20664],[33.94693,46.2222],[33.92262,46.21991],[33.92136,46.22615],[33.89484,46.21941],[33.8962,46.22802],[33.8802,46.23669],[33.86885,46.22543],[33.83846,46.22254],[33.77699,46.25656],[33.75217,46.23848],[33.72484,46.2418],[33.69872,46.21806],[33.69224,46.22847],[33.68356,46.22551],[33.70868,46.21181],[33.72392,46.22813],[33.72776,46.2094],[33.73643,46.20642],[33.73517,46.2186],[33.74294,46.20789],[33.74075,46.20047],[33.71949,46.19842],[33.68309,46.21273],[33.6697,46.2386],[33.65925,46.22316],[33.64366,46.24159],[33.6289,46.23804],[33.63801,46.23892],[33.6679,46.21126],[33.69867,46.20023],[33.71336,46.18001],[33.70249,46.16962],[33.73067,46.17107],[33.72629,46.15919],[33.7159,46.16158],[33.71242,46.15742],[33.73709,46.14877],[33.74917,46.13508],[33.77043,46.14306],[33.7808,46.13769],[33.77516,46.13503],[33.78119,46.12669],[33.77339,46.12552],[33.80408,46.11446],[33.81375,46.14297],[33.83111,46.14887],[33.81164,46.15337],[33.80353,46.17806],[33.82653,46.18365],[33.82213,46.17177],[33.84462,46.16161],[33.83386,46.17501],[33.84468,46.1735],[33.86064,46.15889],[33.86442,46.14016],[33.83873,46.11734],[33.84648,46.1096],[33.8279,46.11589],[33.8222,46.10134],[33.84904,46.10305],[33.88743,46.08124],[33.90144,46.04226],[33.88632,46.0438],[33.88496,46.03518],[33.87459,46.03462],[33.88146,46.02806],[33.89405,46.03604],[33.90522,46.0265],[33.91305,46.0336],[33.90846,46.05651],[33.93711,46.07068],[33.94699,46.06143],[33.93748,46.06265],[33.94343,46.04836],[33.93001,46.04752],[33.9317,46.04216],[33.94685,46.04359],[33.95152,46.03258],[33.9817,46.02354],[33.94736,46.0534],[33.99285,46.06363],[33.9899,46.07226],[33.97558,46.06667],[33.97477,46.0738],[33.95999,46.06435],[33.96094,46.07505],[33.95312,46.07091],[33.93461,46.08317],[33.94326,46.08314],[33.9468,46.09323],[34.02305,46.10125],[34.05841,46.08801],[34.06827,46.07875],[34.06471,46.06866],[34.07715,46.05879],[34.08113,46.0668],[34.06865,46.07369],[34.08551,46.07272],[34.09344,46.04504],[34.11676,46.04254],[34.13266,46.03383],[34.13171,46.02611],[34.15757,46.02002],[34.16821,46.00659],[34.14817,45.99243],[34.188,45.99993],[34.14184,45.96809],[34.12991,45.98183],[34.10311,45.98018],[34.12396,45.95243],[34.15417,45.95226],[34.15141,45.93801],[34.16874,45.94385],[34.17903,45.93844],[34.18383,45.94228],[34.1731,45.9468],[34.19508,45.94459],[34.20426,45.95435],[34.2223,45.9471],[34.20866,45.96027],[34.19967,46.00016],[34.18209,46.01126],[34.18786,46.02282],[34.16628,46.02592],[34.17652,46.01456],[34.16614,46.01403],[34.13538,46.04511],[34.11386,46.05415],[34.10644,46.04794],[34.11358,46.06812],[34.133,46.06356],[34.13739,46.06948],[34.14754,46.04921],[34.16842,46.0592],[34.17049,46.05175],[34.18908,46.05135],[34.19891,46.04208],[34.21668,46.04583],[34.24028,46.03231],[34.2427,46.01981],[34.23063,46.02167],[34.22752,46.01544],[34.23003,46.00889],[34.23386,46.005],[34.23338,46.00114],[34.23766,45.99814],[34.23883,45.98891],[34.24924,45.99241],[34.24069,45.99842],[34.2396,46.01358],[34.25539,46.03072],[34.25825,46.01911],[34.26645,46.01816],[34.25891,46.03486],[34.27976,46.04186],[34.27253,46.05052],[34.28667,46.04121],[34.27469,46.02019],[34.28308,46.0023],[34.31033,46.00478],[34.32218,45.98805],[34.33874,45.99804],[34.33153,46.00671],[34.33728,46.01529],[34.31541,46.02645],[34.33791,46.02807],[34.31804,46.02881],[34.31385,46.03775],[34.32027,46.03325],[34.34104,46.03429],[34.33965,46.02865],[34.3466,46.03098],[34.34367,46.03665],[34.33671,46.03432],[34.34024,46.03846],[34.35534,46.03686],[34.36941,46.02456],[34.36673,46.01923],[34.39073,46.00656],[34.40999,45.97014],[34.44258,45.95739],[34.49236,45.91861],[34.47815,45.89613],[34.48594,45.87436],[34.5,45.8747],[34.5,45.80318],[34.49067,45.80354],[34.48709,45.79643],[34.49698,45.79605],[34.4943,45.79072],[34.49129,45.79045],[34.48531,45.79288],[34.47804,45.79562],[34.47558,45.80218],[34.46435,45.7999],[34.47419,45.79655],[34.47609,45.78315],[34.5,45.78338],[34.5,44.72895],[34.4532,44.70636],[34.41639,44.6715],[34.37757,44.61218],[34.37304,44.59135],[34.34977,44.58109],[34.34758,44.54771],[34.30776,44.55248],[34.2769,44.53809],[34.27336,44.52499],[34.25127,44.50546],[34.16805,44.49286],[34.12958,44.42747],[34.06457,44.42035],[34.0309,44.40261],[33.98524,44.40073],[33.97135,44.39213],[33.86133,44.40773],[33.78796,44.38853],[33.73731,44.38774],[33.70684,44.4209],[33.66914,44.41796],[33.65072,44.42633],[33.63487,44.46989],[33.61518,44.4875],[33.59379,44.49556],[33.5552,44.48781],[33.50527,44.50361],[33.48808,44.49674],[33.46748,44.52147],[33.40106,44.55897],[33.3783,44.58219],[33.40097,44.58878],[33.40102,44.57089],[33.40857,44.57508],[33.4128,44.56614],[33.41485,44.58552],[33.42538,44.57212],[33.43673,44.57243],[33.42323,44.59448],[33.44002,44.60344],[33.44802,44.59361],[33.44884,44.60733],[33.46775,44.60884],[33.46693,44.59512],[33.4749,44.60914],[33.50432,44.61513],[33.52618,44.61692],[33.52788,44.59665],[33.53417,44.61603],[33.59051,44.61066],[33.56192,44.62438],[33.53585,44.62259],[33.51187,44.63123],[33.53332,44.64107],[33.54762,44.67149],[33.53536,44.7916],[33.55139,44.81068],[33.55012,44.83184],[33.56152,44.84108],[33.5725,44.8375],[33.59531,44.84703],[33.60757,44.86699],[33.61353,44.9093],[33.60132,44.97276],[33.60558,44.99659],[33.56408,45.08477],[33.5059,45.14104],[33.45912,45.17079],[33.39188,45.19631],[33.3503,45.1742],[33.30526,45.17172],[33.28414,45.14784],[33.25992,45.14748],[33.2296,45.1733],[33.18617,45.18328],[33.14988,45.2025],[33.0654,45.27627],[33.00878,45.3129],[32.90801,45.36144],[32.85716,45.36796],[32.75013,45.36333],[32.65246,45.314],[32.49492,45.34706],[32.51383,45.36064],[32.51616,45.37198],[32.50995,45.38323],[32.48077,45.39067],[32.4977,45.41853],[32.58495,45.4792],[32.69324,45.52329],[32.69004,45.51017],[32.69561,45.50992],[32.71345,45.5178],[32.71284,45.52881],[32.79067,45.56184],[32.80406,45.5539],[32.81899,45.55847],[32.82855,45.54842],[32.84572,45.57621],[32.84048,45.58331],[32.82076,45.58377],[32.82325,45.58914],[32.90193,45.63578],[33.09638,45.71266],[33.13886,45.71789],[33.15501,45.73997],[33.16709,45.78968],[33.18013,45.77188],[33.20949,45.75533],[33.26281,45.75311],[33.35811,45.78783],[33.42639,45.83463],[33.43758,45.83702],[33.41695,45.82093],[33.42985,45.82987],[33.44837,45.82365],[33.45438,45.83317],[33.4716,45.83616],[33.47158,45.84805],[33.48923,45.85491],[33.50044,45.83945],[33.52541,45.8466],[33.54265,45.83471],[33.56289,45.86474],[33.57969,45.86682],[33.61375,45.8897],[33.63959,45.87184],[33.65553,45.87213],[33.68433,45.84266],[33.6806,45.906],[33.69483,45.90568],[33.72638,45.92615],[33.75138,45.92135],[33.76003,45.92728],[33.74243,45.95021],[33.68547,45.95445],[33.65439,45.9527],[33.63582,45.94112],[33.6177,45.9453],[33.63153,45.96194],[33.6148,46.05202],[33.64252,46.08231],[33.61618,46.12305],[33.611,46.14504],[33.59368,46.15694],[33.57548,46.15516],[33.56638,46.13644],[33.54689,46.13495],[33.53823,46.11712],[33.51181,46.12216],[33.51616,46.09839],[33.56118,46.07521],[33.51791,46.08115],[33.50104,46.07609],[33.49415,46.0529],[33.51708,46.02884],[33.50153,46.02645],[33.46258,46.0502],[33.44747,46.03979],[33.41981,46.03619],[33.42242,46.02965],[33.36649,46.07504],[33.37681,46.09349],[33.36038,46.0893],[33.34607,46.09551],[33.33083,46.1148],[33.314,46.10376],[33.30852,46.07433],[33.28427,46.07784],[33.28158,46.09626],[33.30065,46.09095],[33.311,46.09752],[33.3109,46.11832],[33.28571,46.13193],[33.25536,46.13779],[33.21556,46.12994],[33.2074,46.11892],[33.21184,46.10408],[33.20143,46.10642],[33.20813,46.13854],[33.22754,46.15197],[33.20616,46.1736],[33.22495,46.21585],[33.20214,46.18933],[33.18651,46.19285],[33.19529,46.17802],[33.18549,46.15451],[33.13202,46.124],[33.08124,46.13537],[33.06807,46.15314],[33.0195,46.15707],[33.01607,46.15289],[33.03184,46.13752],[33.01555,46.12139],[33.02909,46.11046],[32.93522,46.10371],[32.87446,46.11523],[32.83255,46.10871],[32.81771,46.11693],[32.79438,46.1132],[32.76827,46.12193],[32.74541,46.11611],[32.7382,46.10684],[32.67775,46.09744],[32.65292,46.10585],[32.60459,46.0977],[32.5491,46.08025],[32.54021,46.07036],[32.54727,46.06388],[32.22012,46.13281],[32.23967,46.14732],[32.23045,46.16801],[32.23725,46.17344],[32.23568,46.16689],[32.24738,46.16733],[32.23873,46.18297],[32.20692,46.18882],[32.19325,46.18091],[32.20257,46.17301],[32.19341,46.17497],[32.1575,46.20334],[32.12977,46.20238],[32.09103,46.22147],[32.08428,46.24455],[32.06936,46.2497],[32.06954,46.24375],[32.04961,46.25685],[32.03079,46.24707],[31.97409,46.25516],[31.95322,46.26941],[31.94255,46.29035],[31.89842,46.2977],[31.89479,46.31518],[31.87862,46.30482],[31.8968,46.29411],[31.898,46.28402],[31.87345,46.26462],[31.84447,46.27367],[31.81701,46.26372],[31.81437,46.27705],[31.77914,46.26577],[31.78317,46.27475],[31.77557,46.29305],[31.75849,46.29663],[31.76463,46.30713],[31.79836,46.32463],[31.83242,46.33321],[31.89814,46.33217],[31.95872,46.342],[32.00569,46.35666],[32.0258,46.3819],[32.03995,46.37497],[32.0662,46.38515],[32.02116,46.44779],[32.00223,46.45376],[31.97392,46.43908],[31.95477,46.4382],[31.88994,46.46069],[31.74503,46.48805],[31.70461,46.47191],[31.69627,46.45008],[31.70451,46.43953],[31.69883,46.43972],[31.52794,46.55754],[31.57944,46.53712],[31.75688,46.54647],[31.80524,46.52558],[31.88176,46.50957],[31.90246,46.51702],[31.98013,46.49086],[32.02697,46.4859],[32.09731,46.49757],[32.16159,46.49278],[32.15393,46.50129],[32.16093,46.50079],[32.19097,46.48751],[32.16521,46.48807],[32.20257,46.47815],[32.34255,46.462],[32.40559,46.47012],[32.42913,46.48968],[32.40545,46.49478],[32.36848,46.48992],[32.34031,46.48218],[32.34011,46.47237],[32.32455,46.46685],[32.32079,46.4775],[32.28824,46.48841],[32.31212,46.49314],[32.30802,46.49992],[32.27782,46.50343],[32.31355,46.50563],[32.29553,46.51047],[32.30099,46.51915],[32.29079,46.52527],[32.30588,46.53287],[32.29839,46.53545],[32.29034,46.54308],[32.30427,46.54503],[32.30562,46.56048],[32.28284,46.58011],[32.24674,46.58978],[32.13883,46.55663],[32.10092,46.61285],[32.05232,46.61426],[32.01821,46.62833],[31.98136,46.65868],[31.90738,46.65847],[31.88416,46.63287],[31.79926,46.60835],[31.77646,46.62194],[31.64374,46.64847],[31.59079,46.63683],[31.55247,46.59959],[31.48845,46.62452],[31.36907,46.62246],[31.35715,46.61509],[31.35171,46.59953],[31.29078,46.61193],[31.23622,46.60928],[31.1979,46.6239],[31.16715,46.62619],[31.0184,46.59932],[30.83944,46.55187],[30.80895,46.55793],[30.77419,46.55407],[30.7458,46.53817],[30.73042,46.50894],[30.73921,46.49253],[30.75853,46.49066],[30.76752,46.47811],[30.77354,46.44855],[30.77068,46.42172],[30.75103,46.37573],[30.71346,46.35483],[30.68303,46.32369],[30.55608,46.15517],[30.44301,46.05525],[30.42032,46.10664],[30.37519,46.13505],[30.37331,46.18526],[30.22304,46.23897],[30.16084,46.27836],[30.1045,46.33217],[30.12643,46.36797],[30.17341,46.38819],[30.21842,46.38633],[30.27476,46.29827],[30.30054,46.35675],[30.26893,46.38046],[30.26452,46.40768],[30.23869,46.44197],[30.20665,46.45792],[30.18395,46.45156],[30.17783,46.41955],[30.12731,46.41855],[30.0593,46.43062],[30.06813,46.44161],[30.02497,46.4411],[30.03284,46.45325],[30.00634,46.45148],[29.99886,46.46462],[30.02387,46.46277],[30.02287,46.47076],[30.00051,46.4721],[29.9902,46.48187],[29.98393,46.50842],[29.95943,46.49066],[29.96022,46.51001],[29.94445,46.49253],[29.94476,46.50027],[29.92482,46.50406],[29.92949,46.51195],[29.90896,46.5178],[29.87856,46.56255],[29.87984,46.58667],[29.84077,46.58236],[29.83278,46.60141],[29.81095,46.60065],[29.79883,46.5815],[29.75064,46.59348],[29.75393,46.61917],[29.78656,46.63934],[29.76733,46.67315],[29.71122,46.67295],[29.68737,46.69201],[29.70035,46.71685],[29.68187,46.74562],[29.69135,46.77598],[29.66818,46.79685],[29.64232,46.81821],[29.60797,46.81874],[29.55482,46.77993],[29.52416,46.78949],[29.50237,46.81395],[29.51262,46.85],[29.48763,46.87016],[29.47811,46.90012],[29.48457,46.93395],[29.44756,46.96019],[29.37494,46.93751],[29.34156,46.95137],[29.31885,46.98467],[29.32627,46.99595],[29.38702,46.99265],[29.39544,47.00278],[29.37251,47.02835],[29.4032,47.03636],[29.40597,47.06113],[29.37482,47.08431],[29.36312,47.11268],[29.3313,47.10194],[29.31384,47.11968],[29.32003,47.13508],[29.27426,47.17251],[29.24175,47.14924],[29.21209,47.16916],[29.20484,47.15104],[29.21415,47.13091],[29.2041,47.10941],[29.17668,47.12406],[29.13758,47.09127],[29.09811,47.12652],[29.20327,47.20862],[29.18196,47.23866],[29.12733,47.2834],[29.12284,47.30847],[29.09203,47.3295],[29.07576,47.36151],[29.10814,47.36254],[29.15455,47.31154],[29.17718,47.33175],[29.17516,47.3593],[29.15503,47.38522],[29.1127,47.41025],[29.10247,47.42468],[29.13311,47.45028],[29.12343,47.47335],[29.0957,47.49866],[29.06323,47.51219],[29.0476,47.546],[29.04977,47.56598],[28.99727,47.62083],[29.0005,47.64354],[28.97752,47.72519],[28.99206,47.74687],[28.98069,47.77698],[28.99469,47.80457],[29.02725,47.83085],[29.03023,47.8565],[28.96015,47.89398],[28.92185,47.89001],[28.88632,47.90395],[28.84708,47.90496],[28.83255,47.92008],[28.83754,47.9473],[28.77838,47.99434],[28.74844,47.9782],[28.71147,47.99619],[28.71221,48.02026],[28.68862,48.03497],[28.6446,48.02412],[28.62512,48.0381],[28.59776,48.03213],[28.58734,48.00198],[28.55561,48.00353],[28.53826,48.02293],[28.55095,48.04399],[28.58838,48.05309],[28.6008,48.07709],[28.64101,48.08571],[28.52637,48.12362],[28.4975,48.11014],[28.49295,48.07609],[28.50043,48.06515],[28.46425,48.07419],[28.43993,48.09474],[28.42292,48.12276],[28.44215,48.14175],[28.42999,48.17088],[28.38744,48.17514],[28.35455,48.13621],[28.32475,48.13155],[28.30819,48.13819],[28.30976,48.16112],[28.35424,48.18072],[28.37038,48.20315],[28.36888,48.22949],[28.35343,48.24658],[28.32418,48.23216],[28.30343,48.23949],[28.20821,48.2032],[28.18783,48.21529],[28.18801,48.25003],[28.16516,48.25962],[28.1447,48.26011],[28.13561,48.24423],[28.1099,48.2311],[28.09292,48.23295],[28.08118,48.2484],[28.09451,48.29448],[28.07999,48.31425],[28.05535,48.32314],[27.95148,48.32956],[27.88439,48.37041],[27.87217,48.40424],[27.82168,48.41918],[27.7847,48.44638],[27.74286,48.45698],[27.68025,48.44006],[27.64123,48.44246],[27.59063,48.4573],[27.57445,48.47722],[27.57471,48.48971],[27.50377,48.47016],[27.48208,48.47938],[27.45837,48.51492],[27.44914,48.5655],[27.43164,48.60197],[27.40618,48.62909],[27.38245,48.62511],[27.3439,48.63309],[27.32303,48.62481],[27.32468,48.6053],[27.31227,48.59184],[27.28678,48.59101],[27.27503,48.60729],[27.24527,48.61097],[27.22509,48.60448],[27.24488,48.5658],[27.22825,48.55684],[27.19712,48.56073],[27.16714,48.57982],[27.0691,48.55459],[27.04327,48.573],[27.02329,48.55877],[26.96587,48.58394],[26.86918,48.54969],[26.83746,48.5478],[26.80038,48.58035],[26.8109,48.59316],[26.79248,48.60365],[26.77247,48.59323],[26.78341,48.57427],[26.77416,48.55261],[26.75744,48.5513],[26.74747,48.57299],[26.71955,48.58586],[26.70367,48.57865],[26.72112,48.56545],[26.71826,48.5409],[26.70304,48.53551],[26.62616,48.5519],[26.60804,48.53829],[26.66453,48.52691],[26.66645,48.50741],[26.68464,48.49217],[26.65737,48.48188],[26.62797,48.49879],[26.57679,48.5084],[26.58618,48.45993],[26.56681,48.45515],[26.52814,48.46671],[26.51529,48.4888],[26.48776,48.51115],[26.47908,48.53261],[26.43865,48.53094],[26.38505,48.58016],[26.36259,48.56237],[26.3421,48.57979],[26.32086,48.62897],[26.27873,48.6438],[26.26553,48.66108],[26.27153,48.69953],[26.23758,48.73807],[26.23648,48.76892],[26.20516,48.78115],[26.21515,48.80559],[26.25585,48.81596],[26.25453,48.83342],[26.22427,48.84454],[26.21396,48.85754],[26.2272,48.89973],[26.19831,48.91063],[26.2029,48.9579],[26.18198,48.96189],[26.174,48.97743],[26.19925,48.99007],[26.19727,49.00569],[26.1694,49.01547],[26.17007,49.02592],[26.18162,49.03767],[26.20811,49.03671],[26.23103,49.04682],[26.23189,49.06203],[26.21855,49.0793],[26.21232,49.17221],[26.23254,49.19997],[26.21357,49.20558],[26.20275,49.26847],[26.24756,49.35306],[26.22332,49.36517],[26.22466,49.41576],[26.19867,49.43578],[26.19863,49.46548],[26.18037,49.47768],[26.17172,49.50861],[26.15423,49.51877],[26.1556,49.54827],[26.20694,49.58691],[26.23231,49.58616],[26.24193,49.59628],[26.24837,49.60589],[26.2415,49.63753],[26.25424,49.66061],[26.23985,49.69237],[26.21015,49.70236],[26.19597,49.71778],[26.22668,49.74884],[26.21214,49.79306],[26.19026,49.81245],[26.21399,49.84929],[26.20429,49.86887],[26.18195,49.86151],[26.16464,49.91949],[26.16257,49.9734],[26.21475,49.98324],[26.23355,50.01026],[26.2107,50.01446],[26.2119,50.03056],[26.24218,50.0301],[26.25788,50.04415],[26.25522,50.05794],[26.23801,50.06516],[26.24226,50.07701],[26.30374,50.08264],[26.30661,50.1033],[26.239,50.13587],[26.23706,50.1687],[26.26036,50.17402],[26.26079,50.19215],[26.28846,50.19685],[26.2918,50.21456],[26.31156,50.21847],[26.32939,50.24658],[26.43454,50.2747],[26.50876,50.32252],[26.57364,50.29883],[26.57653,50.33579],[26.59278,50.3507],[26.5921,50.37379],[26.60735,50.38597],[26.64157,50.38295],[26.71618,50.43063],[26.74537,50.4264],[26.75994,50.45305],[26.81022,50.46396],[26.78856,50.4719],[26.83187,50.50108],[26.88713,50.48822],[26.92012,50.51025],[26.95329,50.50827],[27.00645,50.4899],[27.02977,50.50662],[27.0788,50.49362],[27.10945,50.52939],[27.19608,50.50982],[27.21982,50.5514],[27.17287,50.5699],[27.19833,50.59587],[27.24576,50.61858],[27.26216,50.64493],[27.24993,50.70531],[27.23573,50.7247],[27.25363,50.75084],[27.24065,50.7854],[27.24765,50.83139],[27.24441,50.87506],[27.28072,50.95222],[27.26174,50.96751],[27.26442,51.0103],[27.33752,51.02155],[27.34215,51.06118],[27.36329,51.07916],[27.35961,51.16514],[27.39102,51.2248],[27.43091,51.26208],[27.40704,51.30882],[27.44084,51.33453],[27.44753,51.36714],[27.41212,51.38102],[27.4192,51.44236],[27.44226,51.44087],[27.45393,51.42667],[27.51401,51.39952],[27.53055,51.41722],[27.48459,51.44421],[27.48126,51.47926],[27.53185,51.47944],[27.59496,51.49502],[27.62004,51.52586],[27.67876,51.5459],[27.69716,51.58734],[27.62389,51.61364],[27.59264,51.60292],[27.56901,51.61891],[27.50547,51.63024],[27.39164,51.69018],[27.40021,51.72347],[27.37485,51.74733],[27.38305,51.77971],[27.40128,51.78952],[27.4167,51.78438],[27.4409,51.79715],[27.4395,51.82135],[27.46137,51.84405],[27.44873,51.86798],[27.47116,51.87621],[27.46836,51.89293],[27.48966,51.90228],[27.49927,51.91815],[27.49595,51.94935],[27.56328,51.98938],[27.5659,52.03507],[27.52057,52.0494],[27.5063,52.15993],[27.52819,52.20184],[27.51065,52.21783],[27.50916,52.25355],[27.48638,52.26071],[27.49205,52.29826],[27.4827,52.32265],[27.51986,52.32301],[27.52331,52.35897],[27.54742,52.37849],[27.58151,52.43399],[27.57787,52.46043],[27.533,52.50054],[27.49599,52.50878],[27.31317,52.51206],[27.2342,52.56838],[27.23027,52.6],[33.59619,52.6],[34.5,52.42496]],[[33.94595,46.03884],[33.93903,46.03946],[33.94851,46.03526],[33.94595,46.03884]],[[34.1248,46.02674],[34.12476,46.02377],[34.13171,46.02611],[34.1248,46.02674]],[[34.24924,45.99241],[34.25005,45.98825],[34.25098,45.993],[34.24924,45.99241]],[[34.30702,46.00125],[34.30726,46.00153],[34.30698,46.00154],[34.30702,46.00125]],[[34.30374,45.9974],[34.30762,45.99648],[34.30702,46.00125],[34.30374,45.9974]],[[33.59766,44.60798],[33.59934,44.61155],[33.59051,44.61066],[33.59766,44.60798]],[[33.95917,46.0159],[33.9591,46.00698],[33.96481,46.01856],[33.95917,46.0159]],[[34.22878,45.98036],[34.23742,45.9803],[34.22926,45.98422],[34.22878,45.98036]]],[[[34.49784,45.981],[34.48265,45.95378],[34.47333,45.98686],[34.48134,45.99987],[34.4677,46.01009],[34.42852,46.01845],[34.4236,46.00868],[34.41814,46.01794],[34.4355,46.04663],[34.46616,46.04429],[34.46992,46.03742],[34.48081,46.04179],[34.48092,46.04773],[34.44812,46.05158],[34.43791,46.08585],[34.46105,46.09725],[34.47526,46.11674],[34.47109,46.12569],[34.49185,46.12373],[34.48318,46.12381],[34.49034,46.08927],[34.5,46.0994],[34.49784,45.981]],[[34.46565,46.04043],[34.46162,46.03244],[34.46808,46.0309],[34.47032,46.03534],[34.46565,46.04043]],[[34.45674,46.02565],[34.46117,46.03155],[34.45208,46.03074],[34.45674,46.02565]]],[[[34.48179,45.78875],[34.48531,45.79288],[34.48827,45.79018],[34.48179,45.78875]]],[[[34.49916,45.79752],[34.49402,45.79875],[34.49709,45.802],[34.49916,45.79752]]],[[[34.31403,46.02081],[34.32606,46.01597],[34.30646,46.0057],[34.30477,46.00809],[34.31403,46.02081]]],[[[34.23572,46.0145],[34.23003,46.00889],[34.23011,46.01483],[34.23572,46.0145]]],[[[34.5,45.79301],[34.5,45.78976],[34.49341,45.78894],[34.5,45.79301]]],[[[33.9281,46.0817],[33.90919,46.09901],[33.92608,46.10103],[33.93037,46.09507],[33.92169,46.09213],[33.9281,46.0817]]],[[[34.20981,46.04944],[34.20597,46.05333],[34.2107,46.05122],[34.20981,46.04944]]],[[[34.43844,45.99221],[34.43035,45.99911],[34.43124,46.00089],[34.43814,46.00024],[34.43844,45.99221]]],[[[34.26376,46.04167],[34.26028,46.0405],[34.26162,46.04317],[34.26376,46.04167]]],[[[34.45405,45.97156],[34.4442,46.00078],[34.44902,46.0046],[34.45405,45.97156]]],[[[34.08561,46.08164],[34.07638,46.10962],[34.09603,46.08515],[34.08561,46.08164]]],[[[34.27276,46.09719],[34.27696,46.08824],[34.26786,46.08741],[34.27276,46.09719]]],[[[34.24909,46.07594],[34.24808,46.06525],[34.22989,46.06358],[34.22524,46.07164],[34.23963,46.08017],[34.24283,46.09233],[34.21794,46.10913],[34.20832,46.10146],[34.20595,46.08513],[34.19208,46.08343],[34.20935,46.08036],[34.20405,46.07266],[34.17902,46.07756],[34.16718,46.10022],[34.17954,46.11917],[34.18109,46.13967],[34.19005,46.12862],[34.18479,46.1239],[34.20345,46.12646],[34.199,46.11757],[34.205,46.11218],[34.19278,46.10513],[34.19578,46.10243],[34.21495,46.11183],[34.19594,46.14909],[34.22246,46.15576],[34.21933,46.18134],[34.22852,46.18812],[34.24494,46.18326],[34.25028,46.16213],[34.24327,46.15682],[34.2312,46.16165],[34.24258,46.1381],[34.23182,46.11083],[34.25294,46.10386],[34.26213,46.11063],[34.2608,46.13977],[34.27429,46.14354],[34.27666,46.12807],[34.26573,46.12072],[34.269,46.10702],[34.25937,46.09936],[34.26491,46.09308],[34.255,46.09641],[34.25144,46.0893],[34.26786,46.08741],[34.26644,46.0788],[34.24909,46.07594]]],[[[34.31144,46.10792],[34.30957,46.09842],[34.30484,46.10054],[34.31144,46.10792]]],[[[34.27057,46.15635],[34.27053,46.15337],[34.26753,46.15607],[34.27057,46.15635]]],[[[34.1318,46.18601],[34.14139,46.19071],[34.14979,46.16689],[34.1433,46.16841],[34.1318,46.18601]]],[[[34.4111,46.08725],[34.41787,46.07769],[34.41498,46.06047],[34.40717,46.05935],[34.39514,46.09006],[34.39872,46.09716],[34.43595,46.12212],[34.46845,46.12334],[34.45097,46.11457],[34.44683,46.10063],[34.4111,46.08725]]],[[[34.33443,46.22276],[34.3258,46.2258],[34.32934,46.22993],[34.33443,46.22276]]],[[[34.3114,46.24908],[34.31395,46.24549],[34.3109,46.24522],[34.3114,46.24908]]],[[[34.31319,46.25263],[34.30231,46.25122],[34.3024,46.25716],[34.31319,46.25263]]],[[[31.91163,46.18675],[31.80475,46.20437],[31.94912,46.18079],[31.91163,46.18675]]],[[[31.99951,46.17797],[32.02348,46.17386],[31.98479,46.17716],[31.99951,46.17797]]],[[[31.96751,46.20246],[31.97185,46.20253],[31.97244,46.19748],[31.96751,46.20246]]],[[[31.6786,46.2593],[31.68947,46.27078],[31.69563,46.26851],[31.6786,46.2593]]],[[[31.51623,46.35291],[31.5296,46.36683],[31.5371,46.3643],[31.53778,46.30428],[31.57156,46.2639],[31.61749,46.24453],[31.68127,46.24597],[31.64781,46.23527],[31.65842,46.23011],[31.80475,46.20437],[31.64318,46.23132],[31.57797,46.2557],[31.55029,46.2742],[31.51885,46.31017],[31.51623,46.35291]]],[[[31.73026,46.27208],[31.74157,46.27168],[31.74077,46.26988],[31.73026,46.27208]]],[[[31.76673,46.32143],[31.69924,46.2766],[31.76056,46.32371],[31.81786,46.33921],[31.76673,46.32143]]],[[[31.88337,46.30579],[31.89236,46.30979],[31.89549,46.30716],[31.89206,46.30592],[31.88337,46.30579]]],[[[31.91453,46.33658],[31.8946,46.33389],[31.89238,46.33535],[31.90705,46.33914],[31.91453,46.33658]]],[[[31.76336,46.39091],[31.76572,46.37371],[31.72998,46.42243],[31.76336,46.39091]]],[[[32.03333,46.39211],[32.03482,46.38589],[32.02966,46.38404],[32.02743,46.38549],[32.03333,46.39211]]],[[[31.41659,46.59608],[31.41077,46.59924],[31.41462,46.60139],[31.41659,46.59608]]],[[[31.99557,46.4994],[31.99457,46.50355],[31.99811,46.50182],[31.99557,46.4994]]],[[[31.90094,46.52324],[31.90967,46.52337],[31.90064,46.51937],[31.90094,46.52324]]],[[[31.89171,46.52517],[31.88329,46.5289],[31.89689,46.52704],[31.89171,46.52517]]],[[[31.90085,46.52621],[31.90166,46.528],[31.90521,46.52627],[31.90085,46.52621]]],[[[32.08545,46.50008],[32.08627,46.50187],[32.08981,46.50014],[32.08545,46.50008]]],[[[32.114,46.50878],[32.09327,46.50137],[32.11178,46.51024],[32.114,46.50878]]],[[[33.1769,45.80131],[33.17135,45.79564],[33.17429,45.80487],[33.1769,45.80131]]],[[[33.44705,45.83881],[33.44145,45.8391],[33.45694,45.84447],[33.44705,45.83881]]],[[[32.19528,46.13814],[32.04655,46.17091],[32.11975,46.15825],[32.19528,46.13814]]],[[[32.89181,46.01458],[32.73639,46.03222],[32.55029,46.06421],[32.63909,46.05758],[32.78788,46.02874],[32.86611,46.06078],[32.91185,46.0358],[32.92914,46.03591],[32.94414,46.0464],[32.97894,46.02876],[33.04078,46.02581],[33.07076,46.01019],[32.89181,46.01458]]],[[[33.20126,46.06986],[33.20473,46.06809],[33.20085,46.066],[33.20126,46.06986]]],[[[33.55425,46.12633],[33.54602,46.12425],[33.54992,46.1293],[33.55425,46.12633]]],[[[32.27892,46.4776],[32.27925,46.48147],[32.28674,46.47888],[32.27892,46.4776]]],[[[32.26899,46.49055],[32.2656,46.48635],[32.25797,46.49488],[32.26899,46.49055]]],[[[32.25492,46.49454],[32.25476,46.50048],[32.25797,46.49488],[32.25492,46.49454]]],[[[32.28027,46.49306],[32.27368,46.49447],[32.26883,46.49649],[32.28027,46.49306]]],[[[32.2909,46.53804],[32.29839,46.53545],[32.30325,46.53343],[32.28767,46.5279],[32.2909,46.53804]]],[[[33.51679,45.86443],[33.5198,45.86771],[33.51937,45.86384],[33.51679,45.86443]]],[[[33.52799,45.86979],[33.5198,45.86771],[33.52884,45.87455],[33.52799,45.86979]]]],"type":"MultiPolygon"},"id":"1939-02-037","properties":{"Foreign_Po":"<Null>","Govt_in_Ex":"","Head_of_St":"Joseph Stalin (General Secretary)","Name":"Soviet Union","editorialFlagIds":["HA-CAUTION-HEAD-OF-STATE"],"foreignPowerCategory":"unclassified","snapshotDate":"1939-02-28","sourceFeatureIndex":37,"yearMonth":"1939-02"},"type":"Feature"},{"geometry":{"coordinates":[[[19.00845,45.92327],[19.0,45.93737],[19.00668,45.95942],[19.08033,45.96354],[19.06608,45.99887],[19.10336,46.03735],[19.13608,46.03548],[19.14809,45.9956],[19.23399,45.99856],[19.28583,45.99592],[19.29681,45.98832],[19.30192,45.99356],[19.28369,46.01411],[19.3649,46.05055],[19.38126,46.03489],[19.4149,46.04517],[19.46552,46.07952],[19.46545,46.09375],[19.52541,46.11871],[19.50505,46.14233],[19.55433,46.1616],[19.56552,46.17671],[19.63329,46.16963],[19.6619,46.18883],[19.68238,46.18033],[19.69606,46.18667],[19.7598,46.1448],[19.81716,46.12718],[19.85315,46.1485],[19.94011,46.17548],[20.02215,46.17061],[20.04172,46.1441],[20.06399,46.14483],[20.0981,46.17669],[20.11081,46.15746],[20.1384,46.14344],[20.18,46.15748],[20.23069,46.12129],[20.24733,46.12822],[20.25008,46.11467],[20.26748,46.12532],[20.26266,46.11535],[20.28183,46.11444],[20.26384,46.10764],[20.27123,46.09649],[20.30048,46.08415],[20.3096,46.06808],[20.34115,46.04696],[20.33884,46.03579],[20.35568,46.00376],[20.34603,45.99711],[20.40513,45.96282],[20.44606,45.96733],[20.48252,45.95042],[20.51518,45.88922],[20.56845,45.9067],[20.58044,45.86559],[20.61105,45.86061],[20.65999,45.82525],[20.65085,45.80812],[20.66231,45.7908],[20.68349,45.79341],[20.69975,45.74708],[20.7734,45.75096],[20.78288,45.78231],[20.82183,45.77165],[20.81469,45.74481],[20.80133,45.73383],[20.79593,45.68303],[20.80451,45.65267],[20.76505,45.60918],[20.77096,45.57909],[20.79399,45.58432],[20.83225,45.53281],[20.76709,45.49673],[20.77601,45.48725],[20.76981,45.47743],[20.83252,45.47665],[20.86623,45.46173],[20.88,45.44317],[20.86592,45.42846],[20.91888,45.41436],[20.93429,45.39085],[20.93021,45.38462],[20.94776,45.38373],[20.95882,45.36543],[21.00926,45.34012],[21.01516,45.32331],[21.06044,45.33089],[21.05986,45.31571],[21.07912,45.31652],[21.09484,45.29485],[21.14185,45.3041],[21.15833,45.32329],[21.16264,45.31807],[21.17207,45.32372],[21.18057,45.319],[21.17791,45.3069],[21.18825,45.28579],[21.20463,45.27354],[21.19992,45.26453],[21.21546,45.24856],[21.27089,45.22827],[21.28729,45.24078],[21.32207,45.23794],[21.35506,45.221],[21.39073,45.21614],[21.40254,45.22628],[21.43249,45.20201],[21.4773,45.18944],[21.48925,45.17],[21.51293,45.16642],[21.52428,45.13846],[21.47373,45.11928],[21.46619,45.10391],[21.47763,45.08834],[21.45294,45.06914],[21.44632,45.05176],[21.45155,45.03878],[21.4186,45.03099],[21.4018,45.03475],[21.35486,45.01894],[21.40973,44.98524],[21.40257,44.97745],[21.43383,44.95969],[21.46577,44.9571],[21.54088,44.92964],[21.55583,44.8879],[21.47695,44.8681],[21.45917,44.86722],[21.44743,44.8752],[21.36602,44.868],[21.35047,44.83443],[21.3595,44.83248],[21.3548,44.82346],[21.37981,44.80829],[21.39844,44.77666],[21.53247,44.7722],[21.58368,44.75976],[21.60027,44.74357],[21.61259,44.71449],[21.6138,44.67808],[21.63036,44.66188],[21.69181,44.66539],[21.72165,44.65434],[21.79116,44.66356],[21.80521,44.6543],[21.92095,44.64758],[21.95445,44.63508],[21.99162,44.63264],[22.00435,44.6063],[22.02491,44.59051],[22.0372,44.53936],[22.06973,44.52309],[22.07934,44.49519],[22.14038,44.46882],[22.1842,44.47794],[22.23721,44.56531],[22.25846,44.58667],[22.27321,44.62028],[22.29863,44.63636],[22.31296,44.66236],[22.33906,44.67548],[22.38985,44.67891],[22.4279,44.70777],[22.46867,44.71429],[22.565,44.63842],[22.60306,44.61747],[22.67277,44.61555],[22.708,44.59969],[22.75276,44.56252],[22.76339,44.54013],[22.75762,44.53319],[22.69737,44.51294],[22.62724,44.54558],[22.58555,44.54594],[22.56423,44.53038],[22.55819,44.48902],[22.54871,44.47774],[22.51811,44.4681],[22.46868,44.47512],[22.45707,44.46601],[22.46537,44.43916],[22.49811,44.41887],[22.50603,44.37387],[22.52252,44.34216],[22.55763,44.30432],[22.65674,44.28722],[22.67942,44.27577],[22.68589,44.25293],[22.6691,44.20617],[22.66289,44.21366],[22.65259,44.2044],[22.64395,44.2074],[22.63676,44.18339],[22.62744,44.18359],[22.6332,44.17425],[22.61976,44.17401],[22.61337,44.16427],[22.6276,44.15675],[22.62771,44.1462],[22.6184,44.1464],[22.60998,44.10625],[22.6194,44.0955],[22.61511,44.07783],[22.62306,44.07204],[22.6208,44.06274],[22.53246,44.05075],[22.5429,44.03316],[22.52895,44.01957],[22.44422,44.01663],[22.40891,44.00278],[22.41424,43.99159],[22.4064,43.98106],[22.40724,43.93976],[22.38644,43.92507],[22.39303,43.90798],[22.38505,43.86872],[22.35652,43.80995],[22.37721,43.77386],[22.39991,43.75764],[22.3933,43.7297],[22.40665,43.69642],[22.45023,43.66226],[22.47894,43.65485],[22.48955,43.63819],[22.47891,43.62129],[22.4927,43.60135],[22.48748,43.56268],[22.53534,43.4694],[22.57568,43.46144],[22.59831,43.43459],[22.65956,43.42587],[22.66827,43.40173],[22.6795,43.39358],[22.72074,43.39504],[22.76748,43.37562],[22.76967,43.36285],[22.79606,43.34122],[22.82725,43.32855],[22.83805,43.3],[19.0,43.3],[19.0,45.92271],[19.00845,45.92327]]],"type":"Polygon"},"id":"1939-02-034","properties":{"Foreign_Po":"","Govt_in_Ex":"","Head_of_St":"Prince Paul Karadordevic (Regent)","Name":"Yugoslavia","editorialFlagIds":["HA-CAUTION-HEAD-OF-STATE"],"foreignPowerCategory":"unclassified","snapshotDate":"1939-02-28","sourceFeatureIndex":34,"yearMonth":"1939-02"},"type":"Feature"}],"metadata":{"regionalBbox":[19.0,43.3,34.5,52.6],"simplifyToleranceDegrees":0.005,"snapshotDate":"1939-02-28","sourceCrs":"ESRI:102013","targetCrs":"EPSG:4326","yearMonth":"1939-02"},"type":"FeatureCollection"}
