{"features":[{"geometry":{"coordinates":[[[22.35652,43.80995],[22.38505,43.86872],[22.39303,43.90798],[22.38644,43.92507],[22.40724,43.93976],[22.4064,43.98106],[22.41424,43.99159],[22.40891,44.00278],[22.44422,44.01663],[22.52895,44.01957],[22.5429,44.03316],[22.53246,44.05075],[22.6208,44.06274],[22.62306,44.07204],[22.61511,44.07783],[22.6194,44.0955],[22.60998,44.10625],[22.6184,44.1464],[22.62771,44.1462],[22.6276,44.15675],[22.61337,44.16427],[22.61976,44.17401],[22.6332,44.17425],[22.62744,44.18359],[22.63676,44.18339],[22.64395,44.2074],[22.65259,44.2044],[22.66289,44.21366],[22.6691,44.20617],[22.67267,44.21531],[22.69249,44.20325],[22.74468,44.19765],[22.80656,44.15534],[22.86669,44.13334],[22.9195,44.10359],[23.02446,44.09012],[23.03944,44.08051],[23.04666,44.06135],[23.04187,44.04758],[23.00963,44.00954],[22.92997,44.0006],[22.88144,43.97708],[22.84263,43.88997],[22.84397,43.86294],[22.86792,43.8359],[22.9689,43.80852],[23.06484,43.7932],[23.14362,43.80499],[23.27192,43.84381],[23.42627,43.84826],[23.50412,43.83494],[23.55941,43.80154],[23.61328,43.78848],[23.69805,43.80192],[23.74637,43.7982],[23.7648,43.78221],[23.86215,43.75243],[23.97254,43.7419],[24.05786,43.71744],[24.08875,43.69865],[24.1729,43.68002],[24.34064,43.69461],[24.37675,43.70966],[24.40466,43.73358],[24.50956,43.76081],[24.62775,43.73974],[24.68911,43.69699],[24.7354,43.68149],[24.80551,43.70777],[24.88569,43.70357],[24.93842,43.72464],[24.99483,43.72584],[25.05646,43.68954],[25.1076,43.68181],[25.18388,43.6963],[25.25768,43.67924],[25.34463,43.62532],[25.3995,43.61685],[25.48261,43.64069],[25.55763,43.64157],[25.65926,43.68656],[25.73059,43.68784],[25.78235,43.70868],[25.81071,43.74481],[25.86044,43.76303],[25.87828,43.77761],[25.9483,43.85738],[26.04598,43.89981],[26.09829,43.9601],[26.14464,43.98361],[26.19279,43.98261],[26.30588,44.02526],[26.37656,44.03988],[26.41316,44.03196],[26.45374,44.0408],[26.52648,44.04046],[26.78248,44.07642],[26.82187,44.08533],[26.85409,44.11773],[26.9157,44.11997],[26.94142,44.14472],[27.0356,44.15109],[27.07291,44.13699],[27.11233,44.14968],[27.14377,44.14237],[27.19151,44.11091],[27.25974,44.12054],[27.28729,44.11385],[27.28041,44.07717],[27.38215,44.05374],[27.39944,44.01673],[27.54903,44.00711],[27.56812,44.01153],[27.60586,44.0428],[27.62735,44.02249],[27.63327,43.99228],[27.66242,43.96282],[27.88339,44.00714],[27.91498,43.94212],[27.9484,43.90983],[27.99292,43.89401],[28.00277,43.88346],[27.99004,43.87797],[27.98685,43.86102],[28.02053,43.85688],[28.04625,43.84151],[28.28159,43.77706],[28.35022,43.7878],[28.4029,43.74977],[28.57451,43.74998],[28.57769,43.72498],[28.55999,43.67559],[28.58297,43.63809],[28.5731,43.63311],[28.56978,43.5937],[28.61149,43.54094],[28.59293,43.49658],[28.56191,43.46238],[28.55921,43.44726],[28.4887,43.39998],[28.46992,43.38104],[28.46778,43.35605],[28.45418,43.38204],[28.43024,43.38262],[28.3835,43.406],[28.31772,43.41728],[28.20541,43.39907],[28.15943,43.4056],[28.09285,43.37591],[28.04921,43.3],[22.83805,43.3],[22.82725,43.32855],[22.79606,43.34122],[22.76967,43.36285],[22.76748,43.37562],[22.72074,43.39504],[22.6795,43.39358],[22.66827,43.40173],[22.65956,43.42587],[22.59831,43.43459],[22.57568,43.46144],[22.53534,43.4694],[22.48748,43.56268],[22.4927,43.60135],[22.47891,43.62129],[22.48955,43.63819],[22.47894,43.65485],[22.45023,43.66226],[22.40665,43.69642],[22.3933,43.7297],[22.39991,43.75764],[22.37721,43.77386],[22.35652,43.80995]]],"type":"Polygon"},"id":"1940-10-006","properties":{"Foreign_Po":"Neutral","Govt_in_Ex":"","Head_of_St":"King Boris III","Name":"Bulgaria","editorialFlagIds":["HA-CAUTION-HEAD-OF-STATE"],"foreignPowerCategory":"neutral","snapshotDate":"1940-10-31","sourceFeatureIndex":6,"yearMonth":"1940-10"},"type":"Feature"},{"geometry":{"coordinates":[[[22.38687,52.6],[22.40118,52.57389],[22.41593,52.57523],[22.41607,52.55914],[22.43337,52.55832],[22.46111,52.53848],[22.45277,52.49866],[22.46575,52.47747],[22.47993,52.47697],[22.48271,52.47006],[22.4727,52.44649],[22.52159,52.41215],[22.59083,52.40975],[22.60821,52.39849],[22.63639,52.40787],[22.65765,52.39904],[22.69448,52.39993],[22.69386,52.39243],[22.7112,52.38115],[22.72216,52.39136],[22.75953,52.37799],[22.89121,52.38778],[22.95103,52.35396],[22.96384,52.33839],[23.02749,52.33348],[23.03458,52.3043],[23.05666,52.30382],[23.08207,52.31435],[23.1123,52.28835],[23.13521,52.29061],[23.15101,52.27469],[23.15506,52.28278],[23.17266,52.27802],[23.18578,52.26902],[23.18382,52.25217],[23.1961,52.24041],[23.19834,52.24775],[23.20936,52.2475],[23.2074,52.24108],[23.2286,52.22739],[23.26682,52.22795],[23.28033,52.2151],[23.33251,52.21979],[23.34639,52.2031],[23.37471,52.20755],[23.38954,52.18885],[23.40651,52.18223],[23.43586,52.19509],[23.45963,52.18487],[23.47463,52.19742],[23.49333,52.18111],[23.49585,52.16376],[23.5082,52.15764],[23.50669,52.14263],[23.53539,52.12804],[23.54248,52.11017],[23.55738,52.12747],[23.6005,52.12357],[23.63591,52.09017],[23.68299,52.08389],[23.69442,52.075],[23.67416,52.06591],[23.6707,52.05492],[23.68724,52.03217],[23.68024,51.97982],[23.66897,51.96402],[23.64008,51.94737],[23.64442,51.926],[23.61813,51.90242],[23.63884,51.88299],[23.63778,51.87457],[23.61544,51.86856],[23.62397,51.85051],[23.61283,51.82995],[23.63872,51.80708],[23.63553,51.76664],[23.62755,51.75616],[23.59902,51.76035],[23.54206,51.7336],[23.53402,51.71269],[23.5363,51.70484],[23.56196,51.70668],[23.54512,51.68771],[23.5667,51.66629],[23.53806,51.63443],[23.55366,51.62412],[23.54773,51.5745],[23.57171,51.53571],[23.62186,51.51101],[23.61525,51.49468],[23.62615,51.47445],[23.66443,51.48715],[23.67384,51.48227],[23.67482,51.46032],[23.65493,51.44647],[23.65547,51.43312],[23.67984,51.43127],[23.6748,51.41001],[23.70253,51.40397],[23.71086,51.39066],[23.6464,51.30316],[23.66681,51.28372],[23.71539,51.28],[23.73848,51.25928],[23.73558,51.23493],[23.75286,51.20063],[23.78851,51.19553],[23.81658,51.1761],[23.81971,51.16624],[23.83922,51.1592],[23.85618,51.16386],[23.87937,51.14879],[23.89611,51.12307],[23.8848,51.09685],[23.88883,51.08497],[23.9383,51.06013],[23.9352,51.04529],[23.95176,51.02907],[23.95689,50.99615],[23.97447,50.99311],[24.00507,50.96761],[23.99917,50.9341],[24.00876,50.92535],[24.08725,50.88078],[24.1476,50.86685],[24.17382,50.84752],[24.16207,50.82992],[24.1112,50.81514],[24.08515,50.81067],[24.0264,50.81962],[23.99725,50.8003],[23.98118,50.77845],[23.98277,50.76876],[24.0418,50.75598],[24.03604,50.73766],[24.04349,50.73201],[24.04284,50.70546],[24.10589,50.69596],[24.09724,50.66848],[24.12874,50.64184],[24.11677,50.62332],[24.19908,50.62664],[24.21669,50.59024],[24.23911,50.58845],[24.25006,50.5795],[24.24424,50.56118],[24.32031,50.54994],[24.34009,50.53037],[24.34163,50.50639],[24.30074,50.49811],[24.30255,50.48456],[24.29406,50.47228],[24.31442,50.44979],[24.28864,50.42632],[24.31247,50.41481],[24.28842,50.40636],[24.28638,50.39995],[24.30257,50.38843],[24.28087,50.38254],[24.27833,50.35526],[24.11454,50.36772],[23.9255,50.34779],[23.89301,50.36595],[23.83513,50.37097],[23.7713,50.36146],[23.73052,50.34254],[23.52483,50.34677],[23.48488,50.33528],[23.35764,50.32152],[23.26153,50.26325],[23.18969,50.25627],[23.05352,50.19959],[23.01541,50.19345],[22.81518,50.22434],[22.60024,50.2356],[22.57468,50.2308],[22.55727,50.20615],[22.58008,50.18472],[22.58322,50.15783],[22.59362,50.14627],[22.61882,50.14447],[22.61964,50.13111],[22.64681,50.13099],[22.68489,50.105],[22.67028,50.09049],[22.69383,50.07747],[22.67457,50.06252],[22.69199,50.04923],[22.70194,50.02537],[22.73445,50.02842],[22.76174,50.00739],[22.79537,50.00366],[22.84443,49.97448],[22.85249,49.9603],[22.88552,49.93857],[22.87939,49.92218],[22.90056,49.90652],[22.89932,49.89148],[22.88642,49.87775],[22.90882,49.85056],[22.89114,49.84116],[22.89693,49.82438],[22.88826,49.81491],[22.8319,49.80131],[22.79577,49.8063],[22.72139,49.78706],[22.6755,49.7893],[22.66229,49.80119],[22.64665,49.79344],[22.63157,49.77139],[22.5907,49.76451],[22.54078,49.77377],[22.52854,49.78933],[22.48284,49.81423],[22.47345,49.79629],[22.45709,49.78574],[22.37375,49.8213],[22.33449,49.79804],[22.31748,49.79608],[22.27922,49.82671],[22.24422,49.83045],[22.19964,49.79256],[22.2178,49.77074],[22.20051,49.75078],[22.19147,49.72237],[22.21014,49.71944],[22.21688,49.69977],[22.22853,49.70421],[22.2355,49.68546],[22.26992,49.68557],[22.27734,49.66297],[22.26709,49.64133],[22.24232,49.62124],[22.1905,49.60593],[22.21512,49.58624],[22.22063,49.56764],[22.23994,49.5561],[22.26748,49.55314],[22.26815,49.53885],[22.31042,49.53524],[22.31979,49.5257],[22.3179,49.48514],[22.34801,49.47524],[22.33392,49.45591],[22.34567,49.44421],[22.37857,49.46149],[22.40961,49.44958],[22.43819,49.43413],[22.44772,49.41981],[22.43987,49.4017],[22.44511,49.39354],[22.51112,49.36827],[22.50843,49.33631],[22.47136,49.3034],[22.4741,49.28602],[22.49978,49.28224],[22.52793,49.26016],[22.58294,49.23888],[22.63767,49.23848],[22.66699,49.22097],[22.73073,49.23185],[22.73827,49.22151],[22.72358,49.20038],[22.753,49.19421],[22.75243,49.17054],[22.78689,49.16665],[22.79441,49.1563],[22.79001,49.13496],[22.86216,49.12297],[22.8558,49.09995],[22.82449,49.07217],[22.83728,49.04888],[22.82302,49.02391],[22.76634,49.05408],[22.7559,49.04292],[22.72017,49.05266],[22.68413,49.03963],[22.64111,49.0606],[22.62722,49.08019],[22.58888,49.09681],[22.56675,49.08599],[22.53738,49.09211],[22.49662,49.08334],[22.4556,49.10116],[22.4235,49.09711],[22.39011,49.11596],[22.36657,49.14415],[22.33255,49.14407],[22.31957,49.13411],[22.30496,49.13475],[22.22356,49.15117],[22.23511,49.16699],[22.22125,49.18176],[22.18767,49.17211],[22.14238,49.1912],[22.14287,49.19873],[22.06011,49.21042],[22.02962,49.22409],[22.04015,49.2533],[22.02885,49.26113],[22.03268,49.27589],[21.98191,49.30874],[21.96064,49.34698],[21.90192,49.34936],[21.88307,49.36838],[21.85611,49.36741],[21.84809,49.38245],[21.8336,49.38965],[21.79635,49.37742],[21.78631,49.36709],[21.78759,49.35465],[21.77869,49.35462],[21.76634,49.36442],[21.7631,49.38086],[21.72686,49.39596],[21.72145,49.40978],[21.66022,49.41417],[21.63076,49.44464],[21.58581,49.43123],[21.56258,49.43927],[21.55014,49.43107],[21.52842,49.43327],[21.51513,49.41569],[21.48824,49.42692],[21.47277,49.41239],[21.43665,49.41035],[21.39608,49.43239],[21.372,49.43102],[21.34207,49.44819],[21.30593,49.4461],[21.2763,49.4585],[21.26648,49.45474],[21.26568,49.44536],[21.23355,49.43529],[21.22339,49.42399],[21.22573,49.41525],[21.20766,49.4019],[21.17925,49.40091],[21.15106,49.42542],[21.12508,49.43458],[21.11183,49.42264],[21.09677,49.42789],[21.05332,49.41982],[21.04642,49.41576],[21.0537,49.40276],[21.10343,49.37523],[21.09332,49.36392],[21.04133,49.3633],[21.01045,49.34549],[21.00782,49.3344],[20.98849,49.32776],[20.99222,49.31227],[20.98469,49.30544],[20.963,49.30753],[20.92604,49.29502],[20.90248,49.3143],[20.90277,49.32183],[20.87253,49.31906],[20.88157,49.33237],[20.86658,49.3442],[20.85356,49.34544],[20.83729,49.33282],[20.81072,49.34574],[20.79516,49.34249],[20.79694,49.3565],[20.80976,49.35434],[20.78144,49.35986],[20.78279,49.37202],[20.75897,49.37144],[20.75966,49.38082],[20.74544,49.38972],[20.75504,49.39921],[20.74076,49.4015],[20.74435,49.41061],[20.7363,49.41421],[20.69134,49.41843],[20.65122,49.39857],[20.61359,49.4153],[20.61165,49.40037],[20.59791,49.38559],[20.57466,49.37453],[20.5103,49.39087],[20.50224,49.40106],[20.46662,49.41378],[20.42807,49.41353],[20.43261,49.39423],[20.41542,49.40336],[20.4065,49.39001],[20.38495,49.38631],[20.37293,49.40534],[20.3576,49.39635],[20.31406,49.41352],[20.24925,49.46184],[20.14296,49.47038],[20.13617,49.45966],[20.1483,49.44065],[20.14821,49.37931],[20.1678,49.35397],[20.17207,49.32622],[20.16671,49.32197],[20.17358,49.31286],[20.16121,49.30359],[20.14646,49.31717],[20.13454,49.30313],[20.12849,49.27535],[20.10075,49.24951],[20.09589,49.23389],[20.10195,49.22108],[20.08678,49.20544],[20.08675,49.17807],[20.01954,49.20101],[20.00687,49.21062],[20.00847,49.21803],[19.98153,49.22984],[19.90184,49.22926],[19.90099,49.21141],[19.86775,49.19354],[19.80637,49.20263],[19.78167,49.19722],[19.75884,49.20767],[19.76572,49.23349],[19.78272,49.24429],[19.79154,49.26523],[19.81994,49.2741],[19.80917,49.29296],[19.79237,49.29723],[19.80343,49.32175],[19.79323,49.34338],[19.80188,49.36339],[19.79136,49.37655],[19.7781,49.43994],[19.79848,49.50138],[19.83242,49.52865],[19.82856,49.53841],[19.73047,49.53736],[19.7161,49.55367],[19.64694,49.54914],[19.62555,49.56037],[19.58862,49.604],[19.57034,49.60176],[19.56555,49.57859],[19.52223,49.56995],[19.4793,49.58482],[19.46769,49.59332],[19.47378,49.6013],[19.46673,49.61036],[19.44427,49.60938],[19.44143,49.59548],[19.43046,49.59262],[19.41859,49.59265],[19.41286,49.6082],[19.40703,49.66709],[19.50495,49.70238],[19.5122,49.71591],[19.54884,49.72041],[19.55661,49.72919],[19.55652,49.75747],[19.53897,49.7806],[19.54288,49.80666],[19.53709,49.81468],[19.46786,49.82604],[19.46154,49.83881],[19.47,49.8871],[19.4711,49.97933],[19.49527,49.98771],[19.5168,50.04811],[19.54996,50.08495],[19.51785,50.1036],[19.52844,50.11121],[19.52699,50.15465],[19.55425,50.18444],[19.56148,50.20457],[19.57079,50.32059],[19.56264,50.33915],[19.57196,50.36193],[19.56282,50.37586],[19.49288,50.40229],[19.47812,50.50517],[19.41653,50.5365],[19.41903,50.54853],[19.39765,50.58414],[19.35421,50.58667],[19.32163,50.59773],[19.28728,50.63715],[19.24398,50.64057],[19.15204,50.7409],[19.15132,50.77482],[19.07117,50.77726],[19.05786,50.79427],[19.02865,50.78523],[19.00068,50.81276],[19.00361,50.84263],[19.0662,50.89614],[19.09134,50.98261],[19.09359,51.00124],[19.0838,51.01328],[19.15897,51.06674],[19.17508,51.12286],[19.29443,51.18789],[19.34994,51.2475],[19.36575,51.32997],[19.38902,51.38175],[19.40558,51.44535],[19.42845,51.48023],[19.46142,51.51149],[19.54591,51.56593],[19.55421,51.57562],[19.54866,51.59299],[19.63027,51.6401],[19.6506,51.64787],[19.66211,51.6366],[19.7209,51.66385],[19.71817,51.70076],[19.73052,51.74963],[19.7732,51.78758],[19.77886,51.82005],[19.74593,51.8754],[19.70135,51.88558],[19.63016,51.88845],[19.61304,51.90298],[19.60684,51.93169],[19.56832,51.94133],[19.50191,51.99546],[19.4991,52.02577],[19.5445,52.04007],[19.54498,52.04944],[19.54124,52.06102],[19.46881,52.08831],[19.48609,52.12458],[19.49992,52.1376],[19.5954,52.12916],[19.60742,52.13385],[19.60873,52.14691],[19.63465,52.15051],[19.64841,52.1701],[19.66221,52.16148],[19.67003,52.16839],[19.66692,52.19685],[19.68442,52.20486],[19.68864,52.21676],[19.71224,52.21676],[19.70358,52.23438],[19.72451,52.23647],[19.71689,52.2446],[19.71864,52.25951],[19.83847,52.28094],[19.84232,52.29098],[19.85182,52.29115],[19.88683,52.32031],[19.94554,52.30801],[20.16153,52.29396],[20.17725,52.287],[20.2538,52.3173],[20.28629,52.32116],[20.31769,52.3138],[20.32806,52.33081],[20.40942,52.32766],[20.49458,52.34014],[20.56455,52.36142],[20.61541,52.35606],[20.69604,52.40085],[20.7564,52.38895],[20.79595,52.42692],[20.81114,52.46234],[20.835,52.4753],[20.88317,52.47763],[20.971,52.44244],[20.99063,52.45104],[21.01276,52.49431],[21.12241,52.49476],[21.1533,52.52213],[21.18745,52.53127],[21.19893,52.55097],[21.19895,52.6],[22.38687,52.6]]],"type":"Polygon"},"id":"1940-10-033","properties":{"Foreign_Po":"German-occupied","Govt_in_Ex":"Ignacy Moscicki (President)","Head_of_St":"Hans Frank (Governor General)","Name":"General Government","editorialFlagIds":["HA-CAUTION-HEAD-OF-STATE"],"foreignPowerCategory":"german_occupied","snapshotDate":"1940-10-31","sourceFeatureIndex":33,"yearMonth":"1940-10"},"type":"Feature"},{"geometry":{"coordinates":[[[19.02281,52.6],[21.19895,52.6],[21.20061,52.58194],[21.19893,52.55097],[21.18745,52.53127],[21.1533,52.52213],[21.12241,52.49476],[21.01276,52.49431],[20.99063,52.45104],[20.971,52.44244],[20.88317,52.47763],[20.835,52.4753],[20.81114,52.46234],[20.79595,52.42692],[20.7564,52.38895],[20.69604,52.40085],[20.61541,52.35606],[20.56455,52.36142],[20.49458,52.34014],[20.40942,52.32766],[20.32806,52.33081],[20.31769,52.3138],[20.28629,52.32116],[20.2538,52.3173],[20.17725,52.287],[20.16153,52.29396],[19.94554,52.30801],[19.88683,52.32031],[19.85182,52.29115],[19.84232,52.29098],[19.83847,52.28094],[19.71864,52.25951],[19.71689,52.2446],[19.72451,52.23647],[19.70358,52.23438],[19.71224,52.21676],[19.68864,52.21676],[19.68442,52.20486],[19.66692,52.19685],[19.67003,52.16839],[19.66221,52.16148],[19.64841,52.1701],[19.63465,52.15051],[19.60873,52.14691],[19.60742,52.13385],[19.5954,52.12916],[19.49992,52.1376],[19.48609,52.12458],[19.46881,52.08831],[19.54124,52.06102],[19.54498,52.04944],[19.5445,52.04007],[19.4991,52.02577],[19.50191,51.99546],[19.56832,51.94133],[19.60684,51.93169],[19.61304,51.90298],[19.63016,51.88845],[19.70135,51.88558],[19.74593,51.8754],[19.77886,51.82005],[19.7732,51.78758],[19.73052,51.74963],[19.71817,51.70076],[19.7209,51.66385],[19.66211,51.6366],[19.6506,51.64787],[19.63027,51.6401],[19.54866,51.59299],[19.55421,51.57562],[19.54591,51.56593],[19.46142,51.51149],[19.42845,51.48023],[19.40558,51.44535],[19.38902,51.38175],[19.36575,51.32997],[19.34994,51.2475],[19.29443,51.18789],[19.17508,51.12286],[19.15897,51.06674],[19.0838,51.01328],[19.09359,51.00124],[19.09134,50.98261],[19.0662,50.89614],[19.00361,50.84263],[19.00068,50.81276],[19.02865,50.78523],[19.05786,50.79427],[19.07117,50.77726],[19.15132,50.77482],[19.15204,50.7409],[19.24398,50.64057],[19.28728,50.63715],[19.32163,50.59773],[19.35421,50.58667],[19.39765,50.58414],[19.41903,50.54853],[19.41653,50.5365],[19.47812,50.50517],[19.49288,50.40229],[19.56282,50.37586],[19.57196,50.36193],[19.56264,50.33915],[19.57079,50.32059],[19.56148,50.20457],[19.55425,50.18444],[19.52699,50.15465],[19.52844,50.11121],[19.51785,50.1036],[19.54996,50.08495],[19.5168,50.04811],[19.49527,49.98771],[19.4711,49.97933],[19.47,49.8871],[19.46154,49.83881],[19.46786,49.82604],[19.53709,49.81468],[19.54288,49.80666],[19.53897,49.7806],[19.55652,49.75747],[19.55661,49.72919],[19.54884,49.72041],[19.5122,49.71591],[19.50495,49.70238],[19.40703,49.66709],[19.41859,49.59265],[19.39967,49.57253],[19.37008,49.56553],[19.36572,49.53668],[19.35914,49.53345],[19.26362,49.52991],[19.23258,49.50792],[19.23418,49.49366],[19.21864,49.46759],[19.22772,49.46121],[19.2246,49.45298],[19.19657,49.44582],[19.18527,49.43354],[19.19432,49.41208],[19.12124,49.40098],[19.07397,49.41605],[19.05271,49.41303],[19.04236,49.39784],[19.02511,49.39261],[19.0,49.39697],[19.0,52.4878],[19.02281,52.6]]],"type":"Polygon"},"id":"1940-10-008","properties":{"Foreign_Po":"Axis","Govt_in_Ex":"","Head_of_St":"Adolf Hitler (Führer)","Name":"Germany","editorialFlagIds":["HA-CAUTION-HEAD-OF-STATE"],"foreignPowerCategory":"axis","snapshotDate":"1940-10-31","sourceFeatureIndex":8,"yearMonth":"1940-10"},"type":"Feature"},{"geometry":{"coordinates":[[[[19.02656,48.19812],[19.05351,48.18838],[19.03016,48.16386],[19.07833,48.14483],[19.13002,48.15192],[19.15571,48.17339],[19.15483,48.18385],[19.18285,48.2023],[19.19419,48.20136],[19.19328,48.18917],[19.21864,48.20122],[19.22252,48.19146],[19.2422,48.19643],[19.24975,48.17598],[19.26673,48.16702],[19.29029,48.16977],[19.28246,48.15909],[19.32188,48.14729],[19.35585,48.14443],[19.3831,48.17329],[19.39758,48.1664],[19.45901,48.16402],[19.4609,48.18085],[19.43683,48.1829],[19.42405,48.2057],[19.44601,48.22933],[19.45268,48.21932],[19.47307,48.22042],[19.45953,48.21024],[19.47025,48.19894],[19.51072,48.22853],[19.53624,48.22635],[19.54432,48.23793],[19.53077,48.24948],[19.53664,48.27164],[19.56076,48.26957],[19.54622,48.29064],[19.55555,48.30117],[19.54711,48.30945],[19.5903,48.33029],[19.55855,48.37362],[19.58043,48.37457],[19.59592,48.35813],[19.6179,48.35246],[19.63597,48.36318],[19.67822,48.35763],[19.68892,48.37464],[19.76188,48.37772],[19.75668,48.38762],[19.80465,48.39569],[19.81307,48.38739],[19.8312,48.39808],[19.84484,48.39404],[19.85245,48.40281],[20.01579,48.40149],[20.02568,48.43462],[20.01577,48.45629],[20.03981,48.47397],[20.08025,48.47317],[20.10938,48.46014],[20.13885,48.49621],[20.14246,48.50628],[20.12858,48.51604],[20.14371,48.53924],[20.16283,48.54034],[20.16662,48.55795],[20.1878,48.55507],[20.21115,48.56901],[20.21959,48.60131],[20.21546,48.61587],[20.19192,48.64163],[20.1715,48.64821],[20.2204,48.65888],[20.23951,48.67982],[20.27952,48.67616],[20.29079,48.65433],[20.28965,48.61569],[20.34774,48.60183],[20.36363,48.61454],[20.36402,48.62963],[20.39705,48.6209],[20.40623,48.64273],[20.40236,48.65821],[20.43439,48.66469],[20.43234,48.65543],[20.44663,48.66071],[20.45031,48.67077],[20.47664,48.67776],[20.46462,48.68928],[20.46647,48.69762],[20.53569,48.70059],[20.5407,48.73605],[20.57127,48.76816],[20.64718,48.74207],[20.64268,48.70279],[20.68894,48.68799],[20.76572,48.66645],[20.82534,48.67206],[20.84159,48.68563],[20.88413,48.67393],[20.93415,48.69461],[20.93255,48.75059],[20.96989,48.77912],[21.02963,48.7657],[21.09624,48.76292],[21.10226,48.7822],[21.14085,48.77838],[21.15943,48.78884],[21.13389,48.81692],[21.16701,48.81458],[21.18516,48.81088],[21.22253,48.77119],[21.24187,48.76641],[21.24684,48.78106],[21.27773,48.78175],[21.30551,48.76949],[21.33396,48.72969],[21.37406,48.73226],[21.40959,48.72202],[21.44473,48.72223],[21.47387,48.70977],[21.4876,48.69416],[21.49803,48.69498],[21.4996,48.68345],[21.48909,48.67032],[21.44844,48.65933],[21.44732,48.63671],[21.46059,48.61925],[21.46808,48.59006],[21.4972,48.57191],[21.52563,48.56898],[21.5417,48.55121],[21.56705,48.54764],[21.59086,48.55559],[21.63048,48.52115],[21.67637,48.51825],[21.70339,48.53911],[21.75429,48.53282],[21.74784,48.54203],[21.75678,48.54867],[21.75006,48.56265],[21.75946,48.57114],[21.78773,48.55584],[21.80471,48.56542],[21.83359,48.56426],[21.82251,48.555],[21.82783,48.53547],[21.86921,48.53772],[21.88429,48.55129],[21.86628,48.60725],[21.87623,48.60619],[21.87832,48.61451],[21.92813,48.59782],[21.98375,48.61558],[22.00937,48.59575],[22.04014,48.60762],[22.08562,48.57425],[22.1306,48.57316],[22.11427,48.59486],[22.13393,48.59747],[22.13585,48.62762],[22.06949,48.6424],[22.06024,48.65762],[22.07067,48.66978],[22.09415,48.67578],[22.08585,48.68332],[22.06687,48.68347],[22.06354,48.699],[22.11719,48.73115],[22.1336,48.75499],[22.14553,48.80112],[22.17629,48.84616],[22.15708,48.89662],[22.20701,48.94717],[22.21112,48.96854],[22.18159,49.00208],[22.18856,49.02314],[22.20747,49.03911],[22.18436,49.0748],[22.19586,49.08494],[22.20094,49.10999],[22.18996,49.12445],[22.1924,49.14505],[22.20922,49.16409],[22.23035,49.17698],[22.23511,49.16699],[22.22356,49.15117],[22.30496,49.13475],[22.31957,49.13411],[22.33255,49.14407],[22.36657,49.14415],[22.40989,49.10145],[22.4556,49.10116],[22.49662,49.08334],[22.53738,49.09211],[22.56675,49.08599],[22.58888,49.09681],[22.62722,49.08019],[22.64111,49.0606],[22.68413,49.03963],[22.70029,49.05015],[22.72017,49.05266],[22.7559,49.04292],[22.77207,49.05343],[22.81612,49.02564],[22.83784,49.02412],[22.84825,49.00298],[22.88033,49.00692],[22.92498,48.9923],[22.93556,48.95593],[22.90672,48.95829],[22.88484,48.94845],[22.87843,48.93589],[22.88696,48.91876],[22.92318,48.8899],[22.97799,48.86457],[23.00741,48.82219],[23.02664,48.84372],[23.11015,48.86346],[23.18115,48.83327],[23.18308,48.81402],[23.19486,48.80883],[23.211,48.76699],[23.256,48.77023],[23.27345,48.76436],[23.2991,48.78224],[23.33754,48.75198],[23.37547,48.76647],[23.3977,48.73622],[23.42994,48.72569],[23.48994,48.71466],[23.52497,48.73422],[23.55754,48.7198],[23.62133,48.7168],[23.62779,48.70364],[23.66157,48.69856],[23.70494,48.64086],[23.7906,48.64268],[23.81379,48.62171],[23.80057,48.61668],[23.8302,48.57776],[23.84455,48.58169],[23.88182,48.55894],[23.90916,48.5622],[23.94579,48.54236],[23.93442,48.52377],[23.92805,48.46262],[23.97387,48.44447],[24.00106,48.4868],[24.10964,48.51692],[24.12115,48.52595],[24.14321,48.51647],[24.1276,48.48889],[24.14628,48.47793],[24.13908,48.45882],[24.14205,48.4346],[24.15755,48.43262],[24.16485,48.38876],[24.17782,48.38329],[24.18505,48.34898],[24.20159,48.35544],[24.21852,48.34373],[24.2376,48.34891],[24.26154,48.33628],[24.26764,48.35649],[24.28731,48.35872],[24.2929,48.36754],[24.28162,48.37854],[24.29003,48.387],[24.33337,48.37567],[24.35562,48.35751],[24.34948,48.33731],[24.40795,48.30871],[24.42959,48.27916],[24.46522,48.26208],[24.46269,48.2395],[24.52377,48.20569],[24.49486,48.1541],[24.52645,48.12415],[24.54937,48.11826],[24.55438,48.10613],[24.6197,48.07263],[24.64804,48.03254],[24.62675,48.01531],[24.60832,48.01203],[24.58113,47.96596],[24.60225,47.94499],[24.62819,47.94917],[24.63756,47.92307],[24.65231,47.91919],[24.67393,47.89527],[24.66661,47.87617],[24.67156,47.86404],[24.70516,47.85092],[24.70621,47.84026],[24.73598,47.84294],[24.75203,47.82931],[24.76655,47.83882],[24.77877,47.83621],[24.78369,47.82407],[24.82702,47.81916],[24.82136,47.80558],[24.83626,47.79303],[24.83505,47.77981],[24.87702,47.75209],[24.88398,47.72339],[24.92563,47.72727],[24.93739,47.73714],[24.96879,47.68977],[25.00537,47.66367],[25.05723,47.64502],[25.09479,47.59481],[25.08631,47.58163],[25.11559,47.53734],[25.1965,47.46089],[25.21111,47.38889],[25.19403,47.38938],[25.1365,47.33422],[25.12116,47.299],[25.13245,47.28017],[25.2003,47.24092],[25.22784,47.2102],[25.24846,47.21207],[25.3725,47.16566],[25.4188,47.16287],[25.47302,47.18482],[25.51929,47.15513],[25.55164,47.16676],[25.61103,47.138],[25.66899,47.13148],[25.72214,47.141],[25.72336,47.11394],[25.80781,47.066],[25.85235,47.00563],[25.90138,46.98971],[26.02423,46.91659],[26.07188,46.87962],[26.10229,46.851],[26.1677,46.75645],[26.24606,46.6887],[26.24589,46.65408],[26.21314,46.61097],[26.15406,46.56513],[26.16097,46.52173],[26.23111,46.46865],[26.26651,46.46032],[26.31863,46.4725],[26.32635,46.4405],[26.39737,46.40349],[26.3894,46.33729],[26.39383,46.31251],[26.44763,46.20775],[26.44764,46.17401],[26.49433,46.09047],[26.48984,46.03911],[26.49924,46.00001],[26.50123,45.93026],[26.48738,45.90544],[26.43021,45.85948],[26.4231,45.82105],[26.37663,45.78593],[26.35336,45.74908],[26.23649,45.7414],[26.19406,45.70945],[26.14105,45.71769],[26.11368,45.73639],[26.07212,45.7457],[25.83494,45.77914],[25.73054,45.8498],[25.71777,45.86231],[25.72125,45.87334],[25.68971,45.90598],[25.61746,45.91584],[25.61652,45.97946],[25.63507,45.99401],[25.62079,46.00191],[25.64365,46.01678],[25.64602,46.03758],[25.64362,46.06102],[25.61129,46.07834],[25.58624,46.07437],[25.56325,46.09028],[25.44884,46.10044],[25.39527,46.12176],[25.26318,46.22458],[25.10651,46.26251],[24.97093,46.35666],[24.91546,46.36834],[24.877,46.35265],[24.71651,46.41249],[24.64156,46.44875],[24.59694,46.44532],[24.53455,46.47209],[24.4805,46.54173],[24.43364,46.55481],[24.44447,46.58685],[24.42494,46.60674],[24.41978,46.62754],[24.4382,46.71887],[24.42976,46.75255],[24.43763,46.78403],[24.4556,46.79692],[24.46595,46.82232],[24.46159,46.85066],[24.27587,46.88899],[24.15254,46.89865],[23.97599,46.79182],[23.93451,46.75039],[23.77441,46.74343],[23.60055,46.71698],[23.48775,46.71695],[23.43331,46.73431],[23.40342,46.73329],[23.38973,46.75028],[23.24613,46.77197],[23.11629,46.81371],[23.02435,46.82873],[22.9637,46.83418],[22.88367,46.81427],[22.80573,46.8074],[22.72071,46.81657],[22.65626,46.85087],[22.48998,46.96747],[22.41003,46.99766],[22.31229,47.01934],[22.20292,47.00609],[22.09177,46.9682],[21.93247,46.94602],[21.90299,46.93502],[21.87491,46.91816],[21.74512,46.80025],[21.68329,46.77087],[21.52659,46.73174],[21.52765,46.71832],[21.49161,46.68418],[21.47124,46.69301],[21.45014,46.68672],[21.43026,46.69169],[21.43481,46.67505],[21.45526,46.66051],[21.41929,46.64439],[21.40687,46.62101],[21.3655,46.63586],[21.3256,46.62679],[21.30164,46.58941],[21.31905,46.57997],[21.28987,46.54409],[21.27316,46.53826],[21.26018,46.49971],[21.27283,46.47557],[21.29485,46.47419],[21.31449,46.45025],[21.28747,46.41129],[21.29322,46.40593],[21.21752,46.41012],[21.19855,46.38171],[21.19718,46.34478],[21.1724,46.32743],[21.1701,46.31722],[21.1794,46.30293],[21.16822,46.2965],[21.14607,46.29693],[21.14345,46.30386],[21.11305,46.29849],[21.10047,46.26083],[21.06948,46.25266],[21.06157,46.24208],[21.03505,46.2477],[21.02226,46.26518],[20.99148,46.25792],[20.94939,46.26226],[20.94547,46.27597],[20.92292,46.27449],[20.91578,46.26097],[20.88848,46.26947],[20.87115,46.2855],[20.77547,46.2734],[20.75021,46.24651],[20.75902,46.20383],[20.72897,46.20592],[20.71299,46.16384],[20.68515,46.14386],[20.65573,46.14872],[20.63953,46.1247],[20.54421,46.17791],[20.49829,46.19006],[20.49514,46.16853],[20.4637,46.14411],[20.4356,46.14213],[20.39996,46.15702],[20.39298,46.15011],[20.38077,46.15795],[20.36644,46.14891],[20.35383,46.16818],[20.31218,46.14756],[20.3081,46.1546],[20.28797,46.14422],[20.25008,46.11467],[20.24733,46.12822],[20.23069,46.12129],[20.18,46.15748],[20.1384,46.14344],[20.11081,46.15746],[20.0981,46.17669],[20.06399,46.14483],[20.04172,46.1441],[20.02215,46.17061],[19.93159,46.17438],[19.85315,46.1485],[19.81716,46.12718],[19.7598,46.1448],[19.69606,46.18667],[19.68238,46.18033],[19.6619,46.18883],[19.63329,46.16963],[19.56552,46.17671],[19.55433,46.1616],[19.50505,46.14233],[19.52541,46.11871],[19.46545,46.09375],[19.46552,46.07952],[19.4149,46.04517],[19.38126,46.03489],[19.3649,46.05055],[19.28369,46.01411],[19.30275,45.99064],[19.23399,45.99856],[19.14809,45.9956],[19.13608,46.03548],[19.10624,46.03805],[19.06608,45.99887],[19.08033,45.96354],[19.02411,45.96456],[19.0,45.95207],[19.0,48.19576],[19.02656,48.19812]]],[[[19.00845,45.92327],[19.0,45.92271],[19.0,45.93737],[19.00845,45.92327]]]],"type":"MultiPolygon"},"id":"1940-10-028","properties":{"Foreign_Po":"Neutral","Govt_in_Ex":"","Head_of_St":"Miklós Horthy (Regent)","Name":"Hungary","editorialFlagIds":["HA-CAUTION-HEAD-OF-STATE"],"foreignPowerCategory":"neutral","snapshotDate":"1940-10-31","sourceFeatureIndex":28,"yearMonth":"1940-10"},"type":"Feature"},{"geometry":{"coordinates":[[[[28.57451,43.74998],[28.4029,43.74977],[28.35022,43.7878],[28.28159,43.77706],[28.04625,43.84151],[28.02053,43.85688],[27.98685,43.86102],[27.99004,43.87797],[28.00277,43.88346],[27.99292,43.89401],[27.9484,43.90983],[27.91498,43.94212],[27.88339,44.00714],[27.66242,43.96282],[27.63327,43.99228],[27.62735,44.02249],[27.60586,44.0428],[27.56812,44.01153],[27.54903,44.00711],[27.39944,44.01673],[27.38215,44.05374],[27.28041,44.07717],[27.28729,44.11385],[27.25974,44.12054],[27.19151,44.11091],[27.14377,44.14237],[27.09573,44.14863],[27.07291,44.13699],[27.0356,44.15109],[26.94142,44.14472],[26.9157,44.11997],[26.85409,44.11773],[26.82187,44.08533],[26.78248,44.07642],[26.52648,44.04046],[26.45374,44.0408],[26.41316,44.03196],[26.37656,44.03988],[26.30588,44.02526],[26.19279,43.98261],[26.14464,43.98361],[26.09829,43.9601],[26.04598,43.89981],[25.9483,43.85738],[25.87828,43.77761],[25.86044,43.76303],[25.81071,43.74481],[25.78235,43.70868],[25.73059,43.68784],[25.65926,43.68656],[25.55763,43.64157],[25.48261,43.64069],[25.3995,43.61685],[25.34463,43.62532],[25.25768,43.67924],[25.18388,43.6963],[25.1076,43.68181],[25.05646,43.68954],[24.99483,43.72584],[24.93842,43.72464],[24.88569,43.70357],[24.80551,43.70777],[24.7354,43.68149],[24.68911,43.69699],[24.62775,43.73974],[24.50956,43.76081],[24.40466,43.73358],[24.37675,43.70966],[24.34064,43.69461],[24.1729,43.68002],[24.08875,43.69865],[24.05786,43.71744],[23.97254,43.7419],[23.86215,43.75243],[23.7648,43.78221],[23.74637,43.7982],[23.69805,43.80192],[23.61328,43.78848],[23.55941,43.80154],[23.50412,43.83494],[23.42627,43.84826],[23.27192,43.84381],[23.14362,43.80499],[23.06484,43.7932],[22.87626,43.83195],[22.85579,43.84608],[22.84034,43.88067],[22.88144,43.97708],[22.92997,44.0006],[23.00963,44.00954],[23.04187,44.04758],[23.04666,44.06135],[23.03944,44.08051],[23.02446,44.09012],[22.9195,44.10359],[22.86669,44.13334],[22.80656,44.15534],[22.74468,44.19765],[22.68882,44.20466],[22.6712,44.22028],[22.68589,44.25293],[22.67942,44.27577],[22.65674,44.28722],[22.55763,44.30432],[22.52252,44.34216],[22.50603,44.37387],[22.49811,44.41887],[22.46537,44.43916],[22.45721,44.45547],[22.45707,44.46601],[22.46868,44.47512],[22.51811,44.4681],[22.54871,44.47774],[22.55819,44.48902],[22.56423,44.53038],[22.58555,44.54594],[22.62724,44.54558],[22.69737,44.51294],[22.75762,44.53319],[22.76339,44.54013],[22.75276,44.56252],[22.708,44.59969],[22.67277,44.61555],[22.60306,44.61747],[22.565,44.63842],[22.47347,44.7118],[22.4564,44.71387],[22.41582,44.70254],[22.38985,44.67891],[22.33906,44.67548],[22.31296,44.66236],[22.29863,44.63636],[22.27321,44.62028],[22.25846,44.58667],[22.23721,44.56531],[22.1842,44.47794],[22.14038,44.46882],[22.07934,44.49519],[22.06973,44.52309],[22.0372,44.53936],[22.02491,44.59051],[22.00435,44.6063],[21.99162,44.63264],[21.95445,44.63508],[21.92095,44.64758],[21.80521,44.6543],[21.79116,44.66356],[21.72165,44.65434],[21.69181,44.66539],[21.63036,44.66188],[21.6138,44.67808],[21.61259,44.71449],[21.60027,44.74357],[21.58368,44.75976],[21.53247,44.7722],[21.39844,44.77666],[21.37981,44.80829],[21.3548,44.82346],[21.3595,44.83248],[21.35047,44.83443],[21.36602,44.868],[21.44743,44.8752],[21.45917,44.86722],[21.47695,44.8681],[21.55583,44.8879],[21.54088,44.92964],[21.46577,44.9571],[21.43383,44.95969],[21.40257,44.97745],[21.40973,44.98524],[21.35486,45.01894],[21.4018,45.03475],[21.4186,45.03099],[21.45155,45.03878],[21.44632,45.05176],[21.45294,45.06914],[21.47763,45.08834],[21.46619,45.10391],[21.47373,45.11928],[21.52428,45.13846],[21.51293,45.16642],[21.48925,45.17],[21.4773,45.18944],[21.43249,45.20201],[21.40254,45.22628],[21.39073,45.21614],[21.35506,45.221],[21.32207,45.23794],[21.28729,45.24078],[21.27089,45.22827],[21.21546,45.24856],[21.19992,45.26453],[21.20463,45.27354],[21.18825,45.28579],[21.17791,45.3069],[21.18057,45.319],[21.17207,45.32372],[21.16264,45.31807],[21.15833,45.32329],[21.14185,45.3041],[21.09484,45.29485],[21.07912,45.31652],[21.05986,45.31571],[21.06044,45.33089],[21.01516,45.32331],[21.00926,45.34012],[20.95882,45.36543],[20.94776,45.38373],[20.93021,45.38462],[20.93429,45.39085],[20.91888,45.41436],[20.86592,45.42846],[20.88,45.44317],[20.86623,45.46173],[20.83252,45.47665],[20.76981,45.47743],[20.77601,45.48725],[20.76709,45.49673],[20.83225,45.53281],[20.79399,45.58432],[20.77096,45.57909],[20.76505,45.60918],[20.80451,45.65267],[20.79593,45.68303],[20.80133,45.73383],[20.81469,45.74481],[20.82183,45.77165],[20.78288,45.78231],[20.7734,45.75096],[20.69975,45.74708],[20.68349,45.79341],[20.66231,45.7908],[20.65085,45.80812],[20.65999,45.82525],[20.61105,45.86061],[20.58044,45.86559],[20.56845,45.9067],[20.51518,45.88922],[20.48252,45.95042],[20.44606,45.96733],[20.40513,45.96282],[20.34603,45.99711],[20.35568,46.00376],[20.33884,46.03579],[20.34115,46.04696],[20.3096,46.06808],[20.30048,46.08415],[20.27123,46.09649],[20.26384,46.10764],[20.28183,46.11444],[20.26635,46.11309],[20.26226,46.12013],[20.28797,46.14422],[20.3081,46.1546],[20.31218,46.14756],[20.35383,46.16818],[20.36644,46.14891],[20.38077,46.15795],[20.39298,46.15011],[20.39996,46.15702],[20.4356,46.14213],[20.4637,46.14411],[20.49514,46.16853],[20.49829,46.19006],[20.54421,46.17791],[20.63953,46.1247],[20.65573,46.14872],[20.68515,46.14386],[20.71299,46.16384],[20.72897,46.20592],[20.75902,46.20383],[20.75021,46.24651],[20.77547,46.2734],[20.87115,46.2855],[20.88848,46.26947],[20.91578,46.26097],[20.92292,46.27449],[20.94547,46.27597],[20.94939,46.26226],[20.99148,46.25792],[21.02226,46.26518],[21.03505,46.2477],[21.06157,46.24208],[21.06948,46.25266],[21.10047,46.26083],[21.11305,46.29849],[21.14345,46.30386],[21.14607,46.29693],[21.16822,46.2965],[21.1794,46.30293],[21.1701,46.31722],[21.1724,46.32743],[21.19718,46.34478],[21.19855,46.38171],[21.21752,46.41012],[21.29322,46.40593],[21.28747,46.41129],[21.31449,46.45025],[21.29485,46.47419],[21.27283,46.47557],[21.26018,46.49971],[21.27316,46.53826],[21.28987,46.54409],[21.31905,46.57997],[21.30164,46.58941],[21.3256,46.62679],[21.3655,46.63586],[21.40687,46.62101],[21.41929,46.64439],[21.45526,46.66051],[21.43481,46.67505],[21.43026,46.69169],[21.45014,46.68672],[21.47124,46.69301],[21.49161,46.68418],[21.52765,46.71832],[21.52659,46.73174],[21.68329,46.77087],[21.74512,46.80025],[21.87491,46.91816],[21.90299,46.93502],[21.93247,46.94602],[22.09177,46.9682],[22.20292,47.00609],[22.31229,47.01934],[22.41003,46.99766],[22.48998,46.96747],[22.65626,46.85087],[22.72071,46.81657],[22.80573,46.8074],[22.88367,46.81427],[22.9637,46.83418],[23.02435,46.82873],[23.11629,46.81371],[23.24613,46.77197],[23.38973,46.75028],[23.40342,46.73329],[23.43331,46.73431],[23.48775,46.71695],[23.60055,46.71698],[23.77441,46.74343],[23.93451,46.75039],[23.97599,46.79182],[24.15254,46.89865],[24.27587,46.88899],[24.46159,46.85066],[24.46595,46.82232],[24.4556,46.79692],[24.43763,46.78403],[24.42976,46.75255],[24.4382,46.71887],[24.41978,46.62754],[24.42494,46.60674],[24.44447,46.58685],[24.43364,46.55481],[24.4805,46.54173],[24.53455,46.47209],[24.59694,46.44532],[24.64156,46.44875],[24.71651,46.41249],[24.877,46.35265],[24.91546,46.36834],[24.97093,46.35666],[25.10651,46.26251],[25.26318,46.22458],[25.39527,46.12176],[25.44884,46.10044],[25.56325,46.09028],[25.58624,46.07437],[25.61129,46.07834],[25.64362,46.06102],[25.64602,46.03758],[25.64365,46.01678],[25.62079,46.00191],[25.63507,45.99401],[25.61652,45.97946],[25.61746,45.91584],[25.68971,45.90598],[25.72125,45.87334],[25.71777,45.86231],[25.73054,45.8498],[25.83494,45.77914],[26.07212,45.7457],[26.11368,45.73639],[26.14105,45.71769],[26.19406,45.70945],[26.23649,45.7414],[26.35336,45.74908],[26.37663,45.78593],[26.4231,45.82105],[26.43021,45.85948],[26.48738,45.90544],[26.50123,45.93026],[26.49924,46.00001],[26.48984,46.03911],[26.49433,46.09047],[26.44764,46.17401],[26.44763,46.20775],[26.39383,46.31251],[26.3894,46.33729],[26.39737,46.40349],[26.32635,46.4405],[26.31863,46.4725],[26.26651,46.46032],[26.23111,46.46865],[26.16097,46.52173],[26.15406,46.56513],[26.21314,46.61097],[26.24589,46.65408],[26.24606,46.6887],[26.1677,46.75645],[26.10229,46.851],[26.07188,46.87962],[26.02423,46.91659],[25.90138,46.98971],[25.85235,47.00563],[25.80781,47.066],[25.72336,47.11394],[25.72214,47.141],[25.66899,47.13148],[25.61103,47.138],[25.55164,47.16676],[25.51929,47.15513],[25.47302,47.18482],[25.4188,47.16287],[25.3725,47.16566],[25.24846,47.21207],[25.22784,47.2102],[25.2003,47.24092],[25.13245,47.28017],[25.12116,47.299],[25.12302,47.31407],[25.19403,47.38938],[25.21111,47.38889],[25.21054,47.40526],[25.1965,47.46089],[25.11559,47.53734],[25.08631,47.58163],[25.09479,47.59481],[25.08749,47.60827],[25.06287,47.63084],[25.07528,47.67029],[25.07323,47.70503],[25.08114,47.71638],[25.19529,47.7618],[25.19106,47.7758],[25.15792,47.80817],[25.15514,47.82675],[25.17834,47.85416],[25.25744,47.89293],[25.30755,47.90891],[25.40913,47.89081],[25.45404,47.89501],[25.55177,47.93193],[25.71795,47.94652],[25.82622,47.9309],[25.93608,47.93316],[25.986,47.94314],[26.1931,48.01248],[26.21601,48.02829],[26.24399,48.06735],[26.25278,48.09293],[26.31215,48.16764],[26.34258,48.17944],[26.44488,48.18721],[26.45833,48.20056],[26.51302,48.21445],[26.52181,48.21025],[26.51916,48.19431],[26.52699,48.18737],[26.57665,48.19525],[26.58789,48.2022],[26.58082,48.21961],[26.59217,48.23519],[26.62817,48.23743],[26.63783,48.25231],[26.68477,48.24807],[26.70796,48.26378],[26.76494,48.24645],[26.80682,48.26504],[26.82214,48.2627],[26.81874,48.24495],[26.83989,48.23017],[26.9039,48.22034],[26.88287,48.21492],[26.88476,48.20789],[26.9237,48.20189],[26.91691,48.17889],[26.9349,48.17996],[26.9412,48.19342],[26.95543,48.19218],[26.96352,48.18612],[26.95664,48.16698],[26.99799,48.15962],[26.99935,48.14305],[26.96398,48.14661],[26.96038,48.13658],[27.01175,48.12861],[27.06289,48.13221],[27.08486,48.08354],[27.10889,48.07304],[27.1081,48.05873],[27.12301,48.05543],[27.13475,48.0353],[27.14959,48.03586],[27.14284,48.00895],[27.14983,48.004],[27.17106,48.01034],[27.17593,48.00764],[27.16773,47.98481],[27.20186,47.98618],[27.20851,47.98032],[27.19061,47.95521],[27.22456,47.94407],[27.2344,47.93095],[27.18767,47.92292],[27.18487,47.90314],[27.24512,47.90421],[27.25545,47.88042],[27.24777,47.86333],[27.27006,47.84438],[27.24154,47.84216],[27.25097,47.83199],[27.29018,47.83154],[27.29337,47.82429],[27.27362,47.81008],[27.29439,47.79907],[27.32646,47.76312],[27.32385,47.75197],[27.35037,47.74484],[27.34728,47.71641],[27.33188,47.71406],[27.32699,47.72062],[27.3059,47.70664],[27.34145,47.68843],[27.35414,47.6594],[27.40237,47.60441],[27.49458,47.55094],[27.5218,47.52626],[27.52978,47.51243],[27.50668,47.49688],[27.51769,47.48737],[27.57931,47.46576],[27.63397,47.45683],[27.63128,47.44955],[27.60128,47.44673],[27.59863,47.43558],[27.639,47.41546],[27.64421,47.39819],[27.62657,47.38564],[27.59168,47.40486],[27.58734,47.39302],[27.60037,47.38124],[27.63174,47.3761],[27.63043,47.36859],[27.64172,47.35998],[27.65669,47.36139],[27.66362,47.34094],[27.65524,47.31817],[27.69061,47.32008],[27.69953,47.30509],[27.73561,47.30107],[27.73157,47.29014],[27.74214,47.28356],[27.7639,47.28383],[27.7465,47.29927],[27.7526,47.30405],[27.78937,47.2941],[27.79384,47.275],[27.8139,47.27457],[27.80413,47.24044],[27.84323,47.22524],[27.83577,47.21682],[27.8504,47.20182],[27.85215,47.17157],[27.84878,47.1586],[27.83285,47.15449],[27.83524,47.14539],[27.87256,47.12563],[27.87695,47.13746],[27.89594,47.13428],[27.88816,47.11335],[27.90986,47.10198],[27.94068,47.09971],[27.95152,47.08628],[27.93763,47.07218],[27.97926,47.06034],[27.99416,47.06943],[28.00838,47.0651],[28.0026,47.04577],[28.03237,47.04461],[28.03606,47.02754],[28.04994,47.03389],[28.06477,47.0159],[28.07935,47.02794],[28.10437,47.02563],[28.09584,47.00289],[28.12727,46.99852],[28.14071,46.98074],[28.13522,46.95845],[28.15007,46.95592],[28.14797,46.93886],[28.13447,46.94116],[28.13576,46.92545],[28.15197,46.92656],[28.14,46.89085],[28.16562,46.88647],[28.16646,46.85051],[28.15662,46.83573],[28.19109,46.79013],[28.21024,46.78394],[28.20717,46.77575],[28.22023,46.76479],[28.21982,46.75227],[28.20971,46.7482],[28.21233,46.73613],[28.22912,46.7313],[28.22971,46.71764],[28.24619,46.71964],[28.24466,46.68891],[28.26874,46.67313],[28.27518,46.63326],[28.29352,46.61749],[28.28227,46.59134],[28.25699,46.56955],[28.27263,46.55425],[28.26321,46.54813],[28.2735,46.53375],[28.26713,46.53194],[28.27072,46.51872],[28.25165,46.52106],[28.24759,46.51401],[28.25049,46.4951],[28.26653,46.49231],[28.25,46.47095],[28.27942,46.46972],[28.28702,46.45581],[28.27395,46.45129],[28.28023,46.44148],[28.29359,46.43915],[28.27667,46.40914],[28.25929,46.40828],[28.27884,46.38453],[28.2598,46.38299],[28.25085,46.39327],[28.24369,46.37028],[28.21822,46.35144],[28.23883,46.33817],[28.23236,46.317],[28.19925,46.29658],[28.18913,46.27313],[28.17285,46.28274],[28.15182,46.27185],[28.1501,46.25955],[28.16941,46.25814],[28.16236,46.24676],[28.12771,46.24113],[28.12793,46.21105],[28.1469,46.21261],[28.14384,46.19666],[28.16277,46.19047],[28.15868,46.16792],[28.10919,46.08345],[28.09491,46.07914],[28.08957,46.06843],[28.10283,46.06613],[28.10447,46.05906],[28.09052,46.05566],[28.09577,46.03537],[28.09103,46.00323],[28.12271,45.97057],[28.1129,45.90925],[28.12044,45.89145],[28.13168,45.89143],[28.12799,45.87753],[28.11442,45.87117],[28.12181,45.8146],[28.11219,45.79979],[28.12565,45.78289],[28.15271,45.78397],[28.14041,45.76187],[28.16804,45.74539],[28.159,45.71302],[28.16679,45.68837],[28.18714,45.67509],[28.1697,45.67718],[28.16402,45.6578],[28.17254,45.65048],[28.13824,45.62933],[28.11818,45.63188],[28.10532,45.61958],[28.09611,45.62119],[28.08752,45.60523],[28.15644,45.57955],[28.16446,45.53641],[28.16014,45.52455],[28.14963,45.52252],[28.16399,45.50446],[28.1755,45.50923],[28.18392,45.48638],[28.19998,45.48452],[28.19595,45.46581],[28.24711,45.46841],[28.27719,45.45531],[28.28917,45.43473],[28.2828,45.41352],[28.29283,45.39523],[28.34795,45.32905],[28.58467,45.25045],[28.70501,45.24118],[28.77897,45.25295],[28.75054,45.29222],[28.77034,45.30416],[28.79949,45.30758],[28.79844,45.32335],[28.776,45.33038],[28.77709,45.33699],[28.80899,45.34769],[28.84297,45.32685],[28.87145,45.32843],[28.91697,45.29764],[28.93616,45.29312],[28.94405,45.29556],[28.95271,45.33681],[28.96494,45.34331],[28.98622,45.34424],[29.0378,45.36974],[29.06066,45.36744],[29.08221,45.37999],[29.14271,45.37749],[29.18003,45.39098],[29.2082,45.39156],[29.33813,45.44903],[29.35674,45.4465],[29.37446,45.42366],[29.40019,45.40709],[29.50985,45.39409],[29.52809,45.41208],[29.54941,45.4129],[29.63913,45.3528],[29.66149,45.31727],[29.63954,45.24728],[29.67405,45.15762],[29.69692,45.15907],[29.67977,45.14382],[29.65571,45.0967],[29.61941,44.88292],[29.59901,44.88394],[29.59876,44.87617],[29.61458,44.87409],[29.61711,44.8521],[29.603,44.82649],[29.57732,44.80313],[29.60829,44.84013],[29.61607,44.86012],[29.61059,44.87095],[29.60643,44.84244],[29.56823,44.83322],[29.54901,44.81935],[29.34523,44.8038],[29.35049,44.8067],[29.33221,44.81312],[29.30777,44.80704],[29.33095,44.80262],[29.23878,44.79284],[29.14379,44.77182],[29.07781,44.7433],[29.00715,44.68735],[28.98301,44.70749],[28.97428,44.73936],[29.02226,44.74596],[29.12301,44.78257],[29.14617,44.8182],[29.09261,44.87024],[29.08357,44.85731],[29.09733,44.83521],[29.06921,44.82295],[29.04228,44.85044],[29.04364,44.86871],[29.03372,44.89008],[29.03748,44.92934],[29.04419,44.93979],[29.09806,44.95405],[29.10083,44.97596],[29.09065,44.98567],[29.04251,44.99762],[29.01067,44.99772],[29.00582,45.01422],[28.95861,45.01036],[28.95549,44.98365],[28.93074,44.98046],[28.94582,44.9874],[28.94414,45.00136],[28.93671,45.00371],[28.92571,44.9892],[28.92102,44.99884],[28.9184,44.98081],[28.88893,45.02038],[28.90702,44.98],[28.8608,44.95643],[28.85153,44.90944],[28.86139,44.89884],[28.85941,44.87874],[28.92429,44.8306],[28.95132,44.82166],[28.90788,44.8015],[28.92044,44.79818],[28.91294,44.77814],[28.91761,44.76849],[28.93998,44.75456],[28.93047,44.74756],[28.88616,44.74707],[28.8973,44.75474],[28.88957,44.75618],[28.82762,44.72678],[28.78158,44.71779],[28.80503,44.72903],[28.78367,44.72715],[28.774,44.70848],[28.735,44.71473],[28.72425,44.73036],[28.7136,44.73136],[28.71057,44.72315],[28.72749,44.7093],[28.782,44.70407],[28.77144,44.69044],[28.80594,44.68695],[28.77634,44.67394],[28.78457,44.64414],[28.79569,44.63331],[28.83028,44.63759],[28.91383,44.68828],[28.895,44.70057],[28.86471,44.70428],[28.88118,44.70413],[28.94813,44.69161],[28.94086,44.68322],[28.93125,44.68697],[28.89152,44.66905],[28.78476,44.59635],[28.79773,44.62025],[28.77662,44.61151],[28.77736,44.61722],[28.76058,44.61644],[28.76666,44.5734],[28.78998,44.58075],[28.78438,44.57302],[28.80014,44.57106],[28.77073,44.56582],[28.76222,44.55765],[28.74145,44.56834],[28.72143,44.54379],[28.72773,44.53482],[28.76216,44.55376],[28.77718,44.5461],[28.75091,44.49347],[28.7492,44.46649],[28.76224,44.45724],[28.77232,44.48461],[28.80929,44.52158],[28.82787,44.53469],[28.88572,44.5463],[28.90148,44.56285],[28.84388,44.49269],[28.74802,44.41114],[28.6889,44.34317],[28.65968,44.34178],[28.63216,44.32252],[28.63756,44.3186],[28.62402,44.28894],[28.62284,44.24821],[28.63148,44.2232],[28.65048,44.20796],[28.65549,44.1768],[28.66403,44.17033],[28.64413,44.16429],[28.65234,44.15691],[28.6392,44.15448],[28.64292,44.14598],[28.65573,44.1475],[28.64575,44.14253],[28.6662,44.14261],[28.64697,44.1384],[28.65557,44.13582],[28.66605,44.1085],[28.66134,44.11426],[28.64755,44.11001],[28.65469,44.11843],[28.6513,44.12784],[28.64266,44.12653],[28.64008,44.10067],[28.6244,44.09872],[28.62496,44.09276],[28.66362,44.09433],[28.66639,44.08698],[28.64303,44.08256],[28.63777,44.07184],[28.66692,43.98737],[28.63706,43.94612],[28.63609,43.92094],[28.60661,43.88059],[28.60716,43.84829],[28.59015,43.83488],[28.58662,43.80627],[28.57629,43.79258],[28.58638,43.78679],[28.57901,43.78134],[28.57451,43.74998]]],[[[30.49571,46.09961],[30.481,46.07807],[30.42158,46.03796],[30.49571,46.09961]]],[[[30.41218,46.02905],[30.40072,46.0186],[30.3949,46.01485],[30.41218,46.02905]]],[[[30.12954,45.81465],[30.3169,45.95002],[30.23799,45.87556],[30.12954,45.81465]]],[[[29.71328,45.29265],[29.72064,45.35373],[29.73037,45.36064],[29.71643,45.39262],[29.73613,45.40347],[29.70714,45.40808],[29.69609,45.45804],[29.6858,45.46391],[29.72067,45.46698],[29.74742,45.48136],[29.74376,45.46156],[29.76641,45.46209],[29.75305,45.44611],[29.76277,45.4247],[29.74821,45.40212],[29.74851,45.3923],[29.75834,45.39236],[29.76284,45.32605],[29.73749,45.26551],[29.73746,45.2831],[29.71749,45.28207],[29.73677,45.2637],[29.73775,45.24495],[29.73112,45.24232],[29.74369,45.22817],[29.71877,45.22517],[29.7249,45.22301],[29.71658,45.20899],[29.71815,45.2165],[29.70164,45.22067],[29.70066,45.21109],[29.68908,45.20649],[29.68309,45.21253],[29.69095,45.2325],[29.67441,45.22592],[29.67495,45.21312],[29.66147,45.23915],[29.65891,45.25039],[29.67751,45.26927],[29.66944,45.29133],[29.71328,45.29265]],[[29.6995,45.21522],[29.69659,45.22555],[29.69435,45.22696],[29.68877,45.21632],[29.6995,45.21522]]],[[[29.77967,45.43902],[29.77929,45.4557],[29.78262,45.45701],[29.77967,45.43902]]],[[[29.65898,45.45637],[29.66126,45.46569],[29.65358,45.47107],[29.66462,45.47773],[29.67942,45.46904],[29.67003,45.46303],[29.68329,45.45756],[29.65898,45.45637]]],[[[29.62254,45.48481],[29.62219,45.4839],[29.61518,45.48036],[29.62254,45.48481]]],[[[29.63533,45.47456],[29.62988,45.47853],[29.64611,45.47347],[29.63533,45.47456]]],[[[29.6438,45.45342],[29.60228,45.43696],[29.60544,45.47344],[29.62962,45.47077],[29.6438,45.45342]]],[[[29.75017,45.22692],[29.75723,45.2236],[29.7452,45.22495],[29.75017,45.22692]]],[[[29.71519,45.2161],[29.71434,45.2104],[29.71045,45.21115],[29.71519,45.2161]]],[[[28.98185,45.00213],[28.97503,45.00242],[28.9764,45.00607],[28.98185,45.00213]]],[[[29.00127,44.9985],[28.99479,44.99971],[29.00291,44.99917],[29.00127,44.9985]]],[[[28.98798,45.00001],[28.98306,44.998],[28.98116,45.00031],[28.98798,45.00001]]],[[[28.96157,44.96303],[28.97406,44.97044],[28.98045,44.96535],[28.9752,44.96244],[28.96157,44.96303]]],[[[29.52475,44.77811],[29.53014,44.78489],[29.56045,44.79173],[29.54523,44.78099],[29.52475,44.77811]]],[[[28.93463,44.79553],[28.9355,44.79049],[28.93231,44.79304],[28.93463,44.79553]]],[[[29.00552,44.68668],[28.97325,44.65569],[28.98419,44.67021],[28.9507,44.69112],[28.98564,44.67774],[28.99848,44.68996],[29.00552,44.68668]]],[[[28.78151,44.71391],[28.78409,44.71343],[28.78145,44.71002],[28.78151,44.71391]]],[[[28.94249,44.68389],[28.96327,44.67316],[28.95755,44.66156],[28.95271,44.67807],[28.93685,44.67617],[28.94249,44.68389]]],[[[28.83989,44.68941],[28.83223,44.69473],[28.83454,44.69723],[28.84647,44.69598],[28.83989,44.68941]]],[[[28.85426,44.69843],[28.85453,44.69545],[28.84647,44.69598],[28.85426,44.69843]]],[[[28.82668,44.67237],[28.80378,44.67371],[28.83407,44.68854],[28.82133,44.68019],[28.82668,44.67237]]],[[[28.81456,44.66196],[28.81659,44.66743],[28.82343,44.67103],[28.81456,44.66196]]],[[[28.93837,44.62127],[28.93913,44.62698],[28.94888,44.631],[28.93837,44.62127]]],[[[28.93573,44.61787],[28.93206,44.61173],[28.92855,44.61336],[28.93573,44.61787]]],[[[28.92182,44.59902],[28.92881,44.61039],[28.93036,44.60717],[28.92182,44.59902]]],[[[28.79971,44.60331],[28.80424,44.60442],[28.80451,44.60144],[28.79971,44.60331]]],[[[28.9042,44.57014],[28.87863,44.5642],[28.87505,44.56195],[28.87478,44.56492],[28.88871,44.56914],[28.9042,44.57014]]],[[[28.77184,44.59485],[28.77157,44.59783],[28.77414,44.59735],[28.77184,44.59485]]],[[[28.7753,44.58934],[28.76948,44.58847],[28.77212,44.59188],[28.7753,44.58934]]],[[[28.87268,44.55557],[28.86876,44.5524],[28.86071,44.55293],[28.87268,44.55557]]],[[[28.88809,44.55268],[28.8399,44.54122],[28.83733,44.5417],[28.84132,44.54876],[28.88809,44.55268]]],[[[28.85199,44.55163],[28.84557,44.55283],[28.85078,44.55576],[28.85199,44.55163]]],[[[28.77128,44.55987],[28.76926,44.55439],[28.76742,44.56058],[28.77128,44.55987]]],[[[28.66221,44.15409],[28.6565,44.15711],[28.67175,44.15036],[28.66221,44.15409]]]],"type":"MultiPolygon"},"id":"1940-10-007","properties":{"Foreign_Po":"Neutral","Govt_in_Ex":"","Head_of_St":"Ion Antonescu (Conducator)","Name":"Romania","editorialFlagIds":["HA-CAUTION-HEAD-OF-STATE"],"foreignPowerCategory":"neutral","snapshotDate":"1940-10-31","sourceFeatureIndex":7,"yearMonth":"1940-10"},"type":"Feature"},{"geometry":{"coordinates":[[[19.0,49.39697],[19.03437,49.3947],[19.05271,49.41303],[19.07397,49.41605],[19.12124,49.40098],[19.19432,49.41208],[19.18527,49.43354],[19.19657,49.44582],[19.2246,49.45298],[19.22772,49.46121],[19.21864,49.46759],[19.23418,49.49366],[19.23258,49.50792],[19.26362,49.52991],[19.35914,49.53345],[19.36572,49.53668],[19.37008,49.56553],[19.39967,49.57253],[19.40908,49.58966],[19.44143,49.59548],[19.44756,49.611],[19.46673,49.61036],[19.47378,49.6013],[19.46769,49.59332],[19.4793,49.58482],[19.52223,49.56995],[19.56555,49.57859],[19.57034,49.60176],[19.58862,49.604],[19.62555,49.56037],[19.64694,49.54914],[19.7161,49.55367],[19.73047,49.53736],[19.82856,49.53841],[19.83242,49.52865],[19.79848,49.50138],[19.7781,49.43994],[19.79136,49.37655],[19.80188,49.36339],[19.79323,49.34338],[19.80343,49.32175],[19.79237,49.29723],[19.80917,49.29296],[19.81994,49.2741],[19.79154,49.26523],[19.78272,49.24429],[19.76572,49.23349],[19.75884,49.20767],[19.78167,49.19722],[19.80637,49.20263],[19.86775,49.19354],[19.90099,49.21141],[19.90184,49.22926],[19.98153,49.22984],[20.00847,49.21803],[20.00687,49.21062],[20.01954,49.20101],[20.07335,49.17737],[20.08675,49.17807],[20.08678,49.20544],[20.10195,49.22108],[20.09589,49.23389],[20.10075,49.24951],[20.12849,49.27535],[20.13454,49.30313],[20.14646,49.31717],[20.16121,49.30359],[20.17358,49.31286],[20.16671,49.32197],[20.17207,49.32622],[20.1678,49.35397],[20.14821,49.37931],[20.1483,49.44065],[20.13617,49.45966],[20.14296,49.47038],[20.24925,49.46184],[20.31406,49.41352],[20.3576,49.39635],[20.37293,49.40534],[20.38495,49.38631],[20.4065,49.39001],[20.41542,49.40336],[20.43261,49.39423],[20.42807,49.41353],[20.46662,49.41378],[20.50224,49.40106],[20.5103,49.39087],[20.57466,49.37453],[20.59791,49.38559],[20.61165,49.40037],[20.61359,49.4153],[20.65122,49.39857],[20.69134,49.41843],[20.7363,49.41421],[20.74435,49.41061],[20.74076,49.4015],[20.75504,49.39921],[20.74544,49.38972],[20.75966,49.38082],[20.75897,49.37144],[20.78279,49.37202],[20.78144,49.35986],[20.79802,49.36112],[20.80976,49.35434],[20.79694,49.3565],[20.79516,49.34249],[20.81072,49.34574],[20.83729,49.33282],[20.85356,49.34544],[20.86658,49.3442],[20.88157,49.33237],[20.87253,49.31906],[20.90277,49.32183],[20.90248,49.3143],[20.92604,49.29502],[20.963,49.30753],[20.98469,49.30544],[20.99222,49.31227],[20.98849,49.32776],[21.00782,49.3344],[21.01045,49.34549],[21.04133,49.3633],[21.09332,49.36392],[21.10343,49.37523],[21.0537,49.40276],[21.04642,49.41576],[21.05332,49.41982],[21.09677,49.42789],[21.11183,49.42264],[21.12508,49.43458],[21.15106,49.42542],[21.17925,49.40091],[21.20766,49.4019],[21.22573,49.41525],[21.22339,49.42399],[21.23355,49.43529],[21.26568,49.44536],[21.26648,49.45474],[21.2763,49.4585],[21.30593,49.4461],[21.34207,49.44819],[21.372,49.43102],[21.39608,49.43239],[21.43665,49.41035],[21.47277,49.41239],[21.48824,49.42692],[21.51513,49.41569],[21.52842,49.43327],[21.55014,49.43107],[21.56258,49.43927],[21.58581,49.43123],[21.63076,49.44464],[21.66022,49.41417],[21.72145,49.40978],[21.72686,49.39596],[21.7631,49.38086],[21.76634,49.36442],[21.77869,49.35462],[21.78759,49.35465],[21.78631,49.36709],[21.79635,49.37742],[21.8336,49.38965],[21.84809,49.38245],[21.85611,49.36741],[21.88307,49.36838],[21.90192,49.34936],[21.96064,49.34698],[21.98191,49.30874],[22.03268,49.27589],[22.02885,49.26113],[22.04015,49.2533],[22.03224,49.23992],[22.03467,49.22071],[22.06011,49.21042],[22.14287,49.19873],[22.14238,49.1912],[22.18767,49.17211],[22.20975,49.183],[22.23059,49.17791],[22.1924,49.14505],[22.18996,49.12445],[22.20094,49.10999],[22.19586,49.08494],[22.18436,49.0748],[22.20747,49.03911],[22.18856,49.02314],[22.18159,49.00208],[22.21112,48.96854],[22.20701,48.94717],[22.15708,48.89662],[22.17629,48.84616],[22.14553,48.80112],[22.1336,48.75499],[22.11719,48.73115],[22.06354,48.699],[22.06687,48.68347],[22.08585,48.68332],[22.09415,48.67578],[22.07067,48.66978],[22.06024,48.65762],[22.06949,48.6424],[22.13585,48.62762],[22.13393,48.59747],[22.11427,48.59486],[22.1306,48.57316],[22.08562,48.57425],[22.04014,48.60762],[22.00937,48.59575],[21.98375,48.61558],[21.92813,48.59782],[21.87832,48.61451],[21.87623,48.60619],[21.86628,48.60725],[21.88429,48.55129],[21.86921,48.53772],[21.82783,48.53547],[21.82251,48.555],[21.83359,48.56426],[21.80471,48.56542],[21.78773,48.55584],[21.75946,48.57114],[21.75006,48.56265],[21.75678,48.54867],[21.74784,48.54203],[21.75429,48.53282],[21.70339,48.53911],[21.67637,48.51825],[21.63048,48.52115],[21.59086,48.55559],[21.56705,48.54764],[21.5417,48.55121],[21.52563,48.56898],[21.4972,48.57191],[21.46808,48.59006],[21.46059,48.61925],[21.44732,48.63671],[21.44844,48.65933],[21.48909,48.67032],[21.4996,48.68345],[21.49803,48.69498],[21.4876,48.69416],[21.47387,48.70977],[21.44473,48.72223],[21.40959,48.72202],[21.37406,48.73226],[21.33396,48.72969],[21.30551,48.76949],[21.27773,48.78175],[21.24684,48.78106],[21.24187,48.76641],[21.22253,48.77119],[21.18516,48.81088],[21.16701,48.81458],[21.13389,48.81692],[21.15943,48.78884],[21.14085,48.77838],[21.10226,48.7822],[21.09624,48.76292],[21.02963,48.7657],[20.96989,48.77912],[20.93255,48.75059],[20.93415,48.69461],[20.88413,48.67393],[20.84159,48.68563],[20.82534,48.67206],[20.76572,48.66645],[20.68894,48.68799],[20.64268,48.70279],[20.64718,48.74207],[20.57127,48.76816],[20.5407,48.73605],[20.53569,48.70059],[20.46647,48.69762],[20.46462,48.68928],[20.47664,48.67776],[20.45031,48.67077],[20.44663,48.66071],[20.43234,48.65543],[20.43439,48.66469],[20.40236,48.65821],[20.40623,48.64273],[20.39705,48.6209],[20.36402,48.62963],[20.36363,48.61454],[20.34774,48.60183],[20.28965,48.61569],[20.29079,48.65433],[20.27952,48.67616],[20.23951,48.67982],[20.2204,48.65888],[20.1715,48.64821],[20.19192,48.64163],[20.21546,48.61587],[20.21959,48.60131],[20.21115,48.56901],[20.1878,48.55507],[20.16662,48.55795],[20.16283,48.54034],[20.14371,48.53924],[20.12858,48.51604],[20.14246,48.50628],[20.13885,48.49621],[20.10938,48.46014],[20.08025,48.47317],[20.03981,48.47397],[20.01577,48.45629],[20.02568,48.43462],[20.01579,48.40149],[19.85245,48.40281],[19.84484,48.39404],[19.8312,48.39808],[19.81307,48.38739],[19.80465,48.39569],[19.75668,48.38762],[19.76188,48.37772],[19.68892,48.37464],[19.67822,48.35763],[19.63597,48.36318],[19.6179,48.35246],[19.59592,48.35813],[19.58043,48.37457],[19.55855,48.37362],[19.5903,48.33029],[19.54711,48.30945],[19.55555,48.30117],[19.54622,48.29064],[19.56076,48.26957],[19.53664,48.27164],[19.53077,48.24948],[19.54432,48.23793],[19.53624,48.22635],[19.51072,48.22853],[19.47025,48.19894],[19.45953,48.21024],[19.47307,48.22042],[19.45268,48.21932],[19.44601,48.22933],[19.42405,48.2057],[19.43683,48.1829],[19.4609,48.18085],[19.45901,48.16402],[19.39758,48.1664],[19.3831,48.17329],[19.35585,48.14443],[19.32188,48.14729],[19.28246,48.15909],[19.29029,48.16977],[19.26673,48.16702],[19.24975,48.17598],[19.2422,48.19643],[19.22252,48.19146],[19.21864,48.20122],[19.19328,48.18917],[19.19419,48.20136],[19.18285,48.2023],[19.15483,48.18385],[19.15571,48.17339],[19.13002,48.15192],[19.07833,48.14483],[19.03016,48.16386],[19.05351,48.18838],[19.03932,48.19708],[19.0,48.19576],[19.0,49.39697]]],"type":"Polygon"},"id":"1940-10-031","properties":{"Foreign_Po":"Neutral","Govt_in_Ex":"Edvard Beneš (President)","Head_of_St":"Jozef Tiso (President)","Name":"Slovakia","editorialFlagIds":["HA-CAUTION-HEAD-OF-STATE"],"foreignPowerCategory":"neutral","snapshotDate":"1940-10-31","sourceFeatureIndex":31,"yearMonth":"1940-10"},"type":"Feature"},{"geometry":{"coordinates":[[[[34.5,52.33844],[34.5,46.13651],[34.44429,46.15296],[34.432,46.16882],[34.4173,46.17131],[34.38262,46.19744],[34.36702,46.19815],[34.35342,46.18845],[34.3347,46.21177],[34.33354,46.22099],[34.34096,46.2242],[34.32549,46.23382],[34.32992,46.23973],[34.31381,46.23658],[34.32102,46.25376],[34.30459,46.25863],[34.29846,46.25511],[34.29833,46.2462],[34.3262,46.22371],[34.31091,46.21639],[34.30317,46.19238],[34.28462,46.19875],[34.29785,46.18469],[34.30831,46.18818],[34.31582,46.16852],[34.33285,46.17642],[34.34308,46.16505],[34.32453,46.1426],[34.3201,46.10786],[34.30546,46.11331],[34.30533,46.1044],[34.29797,46.10415],[34.30336,46.11778],[34.2921,46.14728],[34.29572,46.15736],[34.26143,46.18434],[34.23865,46.23144],[34.22011,46.24077],[34.21467,46.25595],[34.17299,46.29156],[34.15995,46.29163],[34.1492,46.26436],[34.13487,46.26473],[34.12068,46.27699],[34.11326,46.27376],[34.1118,46.25921],[34.09573,46.25899],[34.15173,46.25781],[34.1822,46.19405],[34.21058,46.17545],[34.20391,46.16212],[34.1909,46.1622],[34.16247,46.14007],[34.15217,46.14845],[34.16009,46.15851],[34.15583,46.16448],[34.16801,46.16857],[34.16919,46.19412],[34.15506,46.20936],[34.13774,46.21242],[34.12484,46.18367],[34.0992,46.17875],[34.10392,46.17367],[34.12306,46.18011],[34.13685,46.17291],[34.14531,46.15503],[34.13371,46.16371],[34.13105,46.15838],[34.14139,46.15297],[34.14425,46.13839],[34.16673,46.13411],[34.16665,46.12816],[34.15325,46.13032],[34.15922,46.12196],[34.15437,46.11515],[34.12218,46.14059],[34.10207,46.12346],[34.08823,46.12472],[34.08927,46.14135],[34.06649,46.15959],[34.04462,46.13889],[34.04616,46.11868],[33.97544,46.20664],[33.94693,46.2222],[33.92262,46.21991],[33.92136,46.22615],[33.89484,46.21941],[33.8962,46.22802],[33.8802,46.23669],[33.86885,46.22543],[33.83846,46.22254],[33.77699,46.25656],[33.75217,46.23848],[33.72484,46.2418],[33.69872,46.21806],[33.69224,46.22847],[33.68356,46.22551],[33.70868,46.21181],[33.72392,46.22813],[33.72776,46.2094],[33.73643,46.20642],[33.73517,46.2186],[33.74294,46.20789],[33.74075,46.20047],[33.71949,46.19842],[33.68309,46.21273],[33.6697,46.2386],[33.65925,46.22316],[33.64366,46.24159],[33.6289,46.23804],[33.63801,46.23892],[33.6679,46.21126],[33.69867,46.20023],[33.71336,46.18001],[33.70249,46.16962],[33.73067,46.17107],[33.72629,46.15919],[33.7159,46.16158],[33.71242,46.15742],[33.73709,46.14877],[33.74917,46.13508],[33.77043,46.14306],[33.7808,46.13769],[33.77516,46.13503],[33.78119,46.12669],[33.77339,46.12552],[33.80408,46.11446],[33.81375,46.14297],[33.83111,46.14887],[33.81164,46.15337],[33.80353,46.17806],[33.82653,46.18365],[33.82213,46.17177],[33.84462,46.16161],[33.83386,46.17501],[33.84468,46.1735],[33.86064,46.15889],[33.86442,46.14016],[33.83873,46.11734],[33.84648,46.1096],[33.8279,46.11589],[33.8222,46.10134],[33.84904,46.10305],[33.88743,46.08124],[33.90144,46.04226],[33.88632,46.0438],[33.88496,46.03518],[33.87459,46.03462],[33.88146,46.02806],[33.89405,46.03604],[33.90522,46.0265],[33.91305,46.0336],[33.90846,46.05651],[33.93711,46.07068],[33.94699,46.06143],[33.93748,46.06265],[33.94343,46.04836],[33.93001,46.04752],[33.9317,46.04216],[33.94685,46.04359],[33.95152,46.03258],[33.9817,46.02354],[33.94736,46.0534],[33.99285,46.06363],[33.9899,46.07226],[33.97558,46.06667],[33.97477,46.0738],[33.95999,46.06435],[33.96094,46.07505],[33.95312,46.07091],[33.93461,46.08317],[33.94326,46.08314],[33.9468,46.09323],[34.02305,46.10125],[34.05841,46.08801],[34.06827,46.07875],[34.06471,46.06866],[34.07715,46.05879],[34.08113,46.0668],[34.06865,46.07369],[34.08551,46.07272],[34.09344,46.04504],[34.11676,46.04254],[34.13266,46.03383],[34.13171,46.02611],[34.15757,46.02002],[34.16821,46.00659],[34.14817,45.99243],[34.188,45.99993],[34.14184,45.96809],[34.12991,45.98183],[34.10311,45.98018],[34.12396,45.95243],[34.15417,45.95226],[34.15141,45.93801],[34.16874,45.94385],[34.17903,45.93844],[34.18383,45.94228],[34.1731,45.9468],[34.19508,45.94459],[34.20426,45.95435],[34.2223,45.9471],[34.20866,45.96027],[34.19967,46.00016],[34.18209,46.01126],[34.18786,46.02282],[34.16628,46.02592],[34.17652,46.01456],[34.16614,46.01403],[34.13538,46.04511],[34.11386,46.05415],[34.10644,46.04794],[34.11358,46.06812],[34.133,46.06356],[34.13739,46.06948],[34.14754,46.04921],[34.16842,46.0592],[34.17049,46.05175],[34.18908,46.05135],[34.19891,46.04208],[34.21668,46.04583],[34.24028,46.03231],[34.2427,46.01981],[34.23063,46.02167],[34.22752,46.01544],[34.23003,46.00889],[34.23386,46.005],[34.23338,46.00114],[34.23766,45.99814],[34.23883,45.98891],[34.24924,45.99241],[34.24069,45.99842],[34.2396,46.01358],[34.25539,46.03072],[34.25825,46.01911],[34.26645,46.01816],[34.25891,46.03486],[34.27976,46.04186],[34.27253,46.05052],[34.28667,46.04121],[34.27469,46.02019],[34.28308,46.0023],[34.31033,46.00478],[34.32218,45.98805],[34.33874,45.99804],[34.33153,46.00671],[34.33728,46.01529],[34.31541,46.02645],[34.33791,46.02807],[34.31804,46.02881],[34.31385,46.03775],[34.32027,46.03325],[34.34104,46.03429],[34.33965,46.02865],[34.3466,46.03098],[34.34367,46.03665],[34.33671,46.03432],[34.34024,46.03846],[34.35534,46.03686],[34.36941,46.02456],[34.36673,46.01923],[34.39073,46.00656],[34.40999,45.97014],[34.44258,45.95739],[34.49236,45.91861],[34.47815,45.89613],[34.48594,45.87436],[34.5,45.8747],[34.5,45.80318],[34.49067,45.80354],[34.48709,45.79643],[34.49698,45.79605],[34.4943,45.79072],[34.49129,45.79045],[34.48531,45.79288],[34.47804,45.79562],[34.47558,45.80218],[34.46435,45.7999],[34.47419,45.79655],[34.47609,45.78315],[34.5,45.78338],[34.5,44.72895],[34.4532,44.70636],[34.41639,44.6715],[34.37757,44.61218],[34.37304,44.59135],[34.34977,44.58109],[34.34758,44.54771],[34.30776,44.55248],[34.2769,44.53809],[34.27336,44.52499],[34.25127,44.50546],[34.16805,44.49286],[34.12958,44.42747],[34.06457,44.42035],[34.0309,44.40261],[33.95418,44.39131],[33.86133,44.40773],[33.78796,44.38853],[33.73731,44.38774],[33.70684,44.4209],[33.66914,44.41796],[33.65072,44.42633],[33.63487,44.46989],[33.61518,44.4875],[33.59379,44.49556],[33.5552,44.48781],[33.50527,44.50361],[33.48808,44.49674],[33.46748,44.52147],[33.40106,44.55897],[33.3783,44.58219],[33.40097,44.58878],[33.40102,44.57089],[33.40857,44.57508],[33.4128,44.56614],[33.41485,44.58552],[33.42538,44.57212],[33.43673,44.57243],[33.42323,44.59448],[33.44002,44.60344],[33.44802,44.59361],[33.44884,44.60733],[33.46775,44.60884],[33.46693,44.59512],[33.4749,44.60914],[33.50432,44.61513],[33.52618,44.61692],[33.52788,44.59665],[33.53417,44.61603],[33.59051,44.61066],[33.56192,44.62438],[33.53585,44.62259],[33.51187,44.63123],[33.53332,44.64107],[33.54762,44.67149],[33.53536,44.7916],[33.55139,44.81068],[33.55012,44.83184],[33.56152,44.84108],[33.5725,44.8375],[33.59531,44.84703],[33.60757,44.86699],[33.61353,44.9093],[33.60132,44.97276],[33.60558,44.99659],[33.56408,45.08477],[33.48336,45.15622],[33.43571,45.18416],[33.39188,45.19631],[33.3503,45.1742],[33.30526,45.17172],[33.28414,45.14784],[33.25992,45.14748],[33.2296,45.1733],[33.18617,45.18328],[33.14988,45.2025],[33.0654,45.27627],[33.00878,45.3129],[32.90801,45.36144],[32.85716,45.36796],[32.75013,45.36333],[32.65246,45.314],[32.49492,45.34706],[32.51383,45.36064],[32.51616,45.37198],[32.50995,45.38323],[32.48077,45.39067],[32.4977,45.41853],[32.58495,45.4792],[32.69324,45.52329],[32.69004,45.51017],[32.69561,45.50992],[32.71345,45.5178],[32.71284,45.52881],[32.79067,45.56184],[32.80406,45.5539],[32.81899,45.55847],[32.82855,45.54842],[32.84572,45.57621],[32.84048,45.58331],[32.82076,45.58377],[32.82325,45.58914],[32.90193,45.63578],[33.09638,45.71266],[33.13886,45.71789],[33.15501,45.73997],[33.16709,45.78968],[33.18013,45.77188],[33.20949,45.75533],[33.26281,45.75311],[33.35811,45.78783],[33.42639,45.83463],[33.43758,45.83702],[33.41695,45.82093],[33.42985,45.82987],[33.44837,45.82365],[33.45438,45.83317],[33.4716,45.83616],[33.47158,45.84805],[33.48923,45.85491],[33.50044,45.83945],[33.52541,45.8466],[33.54265,45.83471],[33.56289,45.86474],[33.57969,45.86682],[33.61375,45.8897],[33.63959,45.87184],[33.65553,45.87213],[33.68217,45.84118],[33.68694,45.85396],[33.6806,45.906],[33.69483,45.90568],[33.72638,45.92615],[33.75138,45.92135],[33.76003,45.92728],[33.74243,45.95021],[33.68547,45.95445],[33.65439,45.9527],[33.63582,45.94112],[33.6177,45.9453],[33.63153,45.96194],[33.6148,46.05202],[33.64252,46.08231],[33.61618,46.12305],[33.611,46.14504],[33.58112,46.15783],[33.56638,46.13644],[33.54689,46.13495],[33.53823,46.11712],[33.51181,46.12216],[33.51616,46.09839],[33.56118,46.07521],[33.51791,46.08115],[33.50104,46.07609],[33.49415,46.0529],[33.51708,46.02884],[33.50153,46.02645],[33.46258,46.0502],[33.44747,46.03979],[33.41981,46.03619],[33.42242,46.02965],[33.36649,46.07504],[33.37681,46.09349],[33.36038,46.0893],[33.34607,46.09551],[33.33083,46.1148],[33.314,46.10376],[33.30852,46.07433],[33.28427,46.07784],[33.28158,46.09626],[33.30065,46.09095],[33.311,46.09752],[33.3109,46.11832],[33.28571,46.13193],[33.25536,46.13779],[33.21556,46.12994],[33.2074,46.11892],[33.21184,46.10408],[33.20143,46.10642],[33.20813,46.13854],[33.22754,46.15197],[33.20616,46.1736],[33.22495,46.21585],[33.20214,46.18933],[33.18651,46.19285],[33.19529,46.17802],[33.18549,46.15451],[33.13202,46.124],[33.08124,46.13537],[33.06807,46.15314],[33.0195,46.15707],[33.01607,46.15289],[33.03184,46.13752],[33.01555,46.12139],[33.02909,46.11046],[32.93522,46.10371],[32.87446,46.11523],[32.83255,46.10871],[32.81771,46.11693],[32.79438,46.1132],[32.76827,46.12193],[32.74541,46.11611],[32.7382,46.10684],[32.67775,46.09744],[32.65292,46.10585],[32.60459,46.0977],[32.5491,46.08025],[32.54021,46.07036],[32.54727,46.06388],[32.37302,46.09687],[32.22012,46.13281],[32.23967,46.14732],[32.23045,46.16801],[32.23725,46.17344],[32.23568,46.16689],[32.24738,46.16733],[32.23873,46.18297],[32.20692,46.18882],[32.19325,46.18091],[32.20257,46.17301],[32.19341,46.17497],[32.1575,46.20334],[32.12977,46.20238],[32.09103,46.22147],[32.08428,46.24455],[32.06936,46.2497],[32.06954,46.24375],[32.04961,46.25685],[32.03079,46.24707],[31.97409,46.25516],[31.95322,46.26941],[31.94255,46.29035],[31.89842,46.2977],[31.89479,46.31518],[31.87862,46.30482],[31.8968,46.29411],[31.898,46.28402],[31.87345,46.26462],[31.84447,46.27367],[31.81701,46.26372],[31.81437,46.27705],[31.77914,46.26577],[31.78317,46.27475],[31.77557,46.29305],[31.75849,46.29663],[31.76463,46.30713],[31.79836,46.32463],[31.83242,46.33321],[31.89814,46.33217],[31.95872,46.342],[32.00569,46.35666],[32.0258,46.3819],[32.03995,46.37497],[32.0662,46.38515],[32.02116,46.44779],[32.00223,46.45376],[31.97392,46.43908],[31.95477,46.4382],[31.88994,46.46069],[31.74503,46.48805],[31.70461,46.47191],[31.69627,46.45008],[31.70451,46.43953],[31.69883,46.43972],[31.52794,46.55754],[31.57944,46.53712],[31.75688,46.54647],[31.80524,46.52558],[31.88176,46.50957],[31.90246,46.51702],[31.98013,46.49086],[32.02697,46.4859],[32.09731,46.49757],[32.16159,46.49278],[32.15393,46.50129],[32.16093,46.50079],[32.19097,46.48751],[32.16521,46.48807],[32.20257,46.47815],[32.34255,46.462],[32.40559,46.47012],[32.42913,46.48968],[32.40545,46.49478],[32.36848,46.48992],[32.34031,46.48218],[32.34011,46.47237],[32.32455,46.46685],[32.32079,46.4775],[32.28824,46.48841],[32.31212,46.49314],[32.30802,46.49992],[32.27782,46.50343],[32.31355,46.50563],[32.29553,46.51047],[32.30099,46.51915],[32.29079,46.52527],[32.30588,46.53287],[32.29839,46.53545],[32.29034,46.54308],[32.30427,46.54503],[32.30562,46.56048],[32.28284,46.58011],[32.24674,46.58978],[32.13883,46.55663],[32.10092,46.61285],[32.05232,46.61426],[32.01821,46.62833],[31.98136,46.65868],[31.90738,46.65847],[31.88416,46.63287],[31.79926,46.60835],[31.77646,46.62194],[31.64374,46.64847],[31.59079,46.63683],[31.55247,46.59959],[31.48845,46.62452],[31.36907,46.62246],[31.35715,46.61509],[31.35171,46.59953],[31.29078,46.61193],[31.23622,46.60928],[31.1979,46.6239],[31.16715,46.62619],[31.0184,46.59932],[30.83944,46.55187],[30.80895,46.55793],[30.75668,46.54678],[30.73042,46.50894],[30.73921,46.49253],[30.75853,46.49066],[30.76752,46.47811],[30.77354,46.44855],[30.77068,46.42172],[30.75103,46.37573],[30.71346,46.35483],[30.68303,46.32369],[30.55608,46.15517],[30.28377,45.92132],[30.04821,45.7572],[29.74056,45.58421],[29.60544,45.47344],[29.60228,45.43696],[29.6336,45.45244],[29.69609,45.45804],[29.70714,45.40808],[29.73613,45.40347],[29.71643,45.39262],[29.73037,45.36064],[29.72064,45.35373],[29.71328,45.29265],[29.65028,45.28525],[29.66149,45.31727],[29.63913,45.3528],[29.54941,45.4129],[29.52809,45.41208],[29.50985,45.39409],[29.40019,45.40709],[29.37446,45.42366],[29.35674,45.4465],[29.33813,45.44903],[29.2082,45.39156],[29.18003,45.39098],[29.14271,45.37749],[29.08221,45.37999],[29.06066,45.36744],[29.0378,45.36974],[28.98622,45.34424],[28.96494,45.34331],[28.95271,45.33681],[28.94405,45.29556],[28.93616,45.29312],[28.91697,45.29764],[28.87145,45.32843],[28.84297,45.32685],[28.81847,45.34692],[28.78539,45.34423],[28.776,45.33038],[28.79844,45.32335],[28.79949,45.30758],[28.75225,45.29677],[28.7498,45.28652],[28.77897,45.25295],[28.72754,45.24193],[28.57164,45.25281],[28.36098,45.32283],[28.34795,45.32905],[28.29283,45.39523],[28.2828,45.41352],[28.28917,45.43473],[28.27719,45.45531],[28.24711,45.46841],[28.19595,45.46581],[28.19998,45.48452],[28.18392,45.48638],[28.1755,45.50923],[28.16399,45.50446],[28.14963,45.52252],[28.16014,45.52455],[28.16446,45.53641],[28.15644,45.57955],[28.08752,45.60523],[28.09611,45.62119],[28.10532,45.61958],[28.11818,45.63188],[28.13824,45.62933],[28.17254,45.65048],[28.16402,45.6578],[28.1697,45.67718],[28.18714,45.67509],[28.16679,45.68837],[28.159,45.71302],[28.16804,45.74539],[28.14041,45.76187],[28.15271,45.78397],[28.12565,45.78289],[28.11219,45.79979],[28.12181,45.8146],[28.11442,45.87117],[28.12799,45.87753],[28.13168,45.89143],[28.12044,45.89145],[28.1129,45.90925],[28.12271,45.97057],[28.09103,46.00323],[28.08842,46.01919],[28.09577,46.03537],[28.09052,46.05566],[28.10447,46.05906],[28.10283,46.06613],[28.08957,46.06843],[28.1152,46.0921],[28.15868,46.16792],[28.16277,46.19047],[28.14384,46.19666],[28.1469,46.21261],[28.12793,46.21105],[28.12771,46.24113],[28.16236,46.24676],[28.16941,46.25814],[28.1501,46.25955],[28.15182,46.27185],[28.17285,46.28274],[28.18913,46.27313],[28.19925,46.29658],[28.23236,46.317],[28.23883,46.33817],[28.21822,46.35144],[28.24369,46.37028],[28.25085,46.39327],[28.2598,46.38299],[28.27884,46.38453],[28.25929,46.40828],[28.27667,46.40914],[28.29359,46.43915],[28.28023,46.44148],[28.27395,46.45129],[28.28702,46.45581],[28.27942,46.46972],[28.25,46.47095],[28.26653,46.49231],[28.25049,46.4951],[28.24759,46.51401],[28.25165,46.52106],[28.27072,46.51872],[28.26713,46.53194],[28.2735,46.53375],[28.26321,46.54813],[28.27263,46.55425],[28.25699,46.56955],[28.28227,46.59134],[28.29352,46.61749],[28.27518,46.63326],[28.26874,46.67313],[28.24466,46.68891],[28.24619,46.71964],[28.22971,46.71764],[28.22912,46.7313],[28.21233,46.73613],[28.20971,46.7482],[28.21982,46.75227],[28.22023,46.76479],[28.20717,46.77575],[28.21024,46.78394],[28.19109,46.79013],[28.15662,46.83573],[28.16646,46.85051],[28.16562,46.88647],[28.14,46.89085],[28.15197,46.92656],[28.13576,46.92545],[28.13447,46.94116],[28.14797,46.93886],[28.15007,46.95592],[28.13522,46.95845],[28.14071,46.98074],[28.12727,46.99852],[28.09584,47.00289],[28.10437,47.02563],[28.07935,47.02794],[28.06477,47.0159],[28.04994,47.03389],[28.03606,47.02754],[28.03237,47.04461],[28.0026,47.04577],[28.00838,47.0651],[27.99416,47.06943],[27.97926,47.06034],[27.93763,47.07218],[27.95152,47.08628],[27.94068,47.09971],[27.90986,47.10198],[27.88816,47.11335],[27.89594,47.13428],[27.87695,47.13746],[27.87256,47.12563],[27.83524,47.14539],[27.83285,47.15449],[27.84878,47.1586],[27.85215,47.17157],[27.8504,47.20182],[27.83577,47.21682],[27.84323,47.22524],[27.80413,47.24044],[27.8139,47.27457],[27.79384,47.275],[27.78937,47.2941],[27.7526,47.30405],[27.7465,47.29927],[27.7639,47.28383],[27.74214,47.28356],[27.73157,47.29014],[27.73561,47.30107],[27.69953,47.30509],[27.69061,47.32008],[27.65524,47.31817],[27.66362,47.34094],[27.65669,47.36139],[27.64172,47.35998],[27.63043,47.36859],[27.63174,47.3761],[27.60037,47.38124],[27.58734,47.39302],[27.59168,47.40486],[27.62657,47.38564],[27.64421,47.39819],[27.639,47.41546],[27.59863,47.43558],[27.60128,47.44673],[27.63128,47.44955],[27.63397,47.45683],[27.57931,47.46576],[27.51769,47.48737],[27.50668,47.49688],[27.52978,47.51243],[27.5218,47.52626],[27.49458,47.55094],[27.40237,47.60441],[27.35414,47.6594],[27.34145,47.68843],[27.3059,47.70664],[27.32699,47.72062],[27.33188,47.71406],[27.34728,47.71641],[27.35037,47.74484],[27.32385,47.75197],[27.32646,47.76312],[27.29439,47.79907],[27.27362,47.81008],[27.29337,47.82429],[27.29018,47.83154],[27.25097,47.83199],[27.24154,47.84216],[27.27006,47.84438],[27.24777,47.86333],[27.25545,47.88042],[27.24512,47.90421],[27.18487,47.90314],[27.18767,47.92292],[27.2344,47.93095],[27.22456,47.94407],[27.19061,47.95521],[27.20851,47.98032],[27.20186,47.98618],[27.16773,47.98481],[27.17593,48.00764],[27.17106,48.01034],[27.14983,48.004],[27.14284,48.00895],[27.14959,48.03586],[27.13475,48.0353],[27.12301,48.05543],[27.1081,48.05873],[27.10889,48.07304],[27.08486,48.08354],[27.06289,48.13221],[27.01175,48.12861],[26.96038,48.13658],[26.96398,48.14661],[26.99935,48.14305],[26.99799,48.15962],[26.95664,48.16698],[26.96352,48.18612],[26.95543,48.19218],[26.9412,48.19342],[26.9349,48.17996],[26.91691,48.17889],[26.9237,48.20189],[26.88476,48.20789],[26.88287,48.21492],[26.9039,48.22034],[26.83989,48.23017],[26.81874,48.24495],[26.82214,48.2627],[26.80682,48.26504],[26.76494,48.24645],[26.70796,48.26378],[26.68477,48.24807],[26.63783,48.25231],[26.62817,48.23743],[26.59217,48.23519],[26.58082,48.21961],[26.58789,48.2022],[26.57665,48.19525],[26.52699,48.18737],[26.51916,48.19431],[26.52181,48.21025],[26.51302,48.21445],[26.45833,48.20056],[26.44488,48.18721],[26.34258,48.17944],[26.31215,48.16764],[26.25278,48.09293],[26.24399,48.06735],[26.21601,48.02829],[26.1931,48.01248],[25.986,47.94314],[25.93608,47.93316],[25.82622,47.9309],[25.71795,47.94652],[25.55177,47.93193],[25.45404,47.89501],[25.40913,47.89081],[25.30755,47.90891],[25.22636,47.88195],[25.17834,47.85416],[25.15514,47.82675],[25.15792,47.80817],[25.19106,47.7758],[25.19529,47.7618],[25.08114,47.71638],[25.07323,47.70503],[25.07528,47.67029],[25.06287,47.63084],[25.05723,47.64502],[25.00537,47.66367],[24.96879,47.68977],[24.93739,47.73714],[24.92563,47.72727],[24.88398,47.72339],[24.87702,47.75209],[24.83505,47.77981],[24.83626,47.79303],[24.82136,47.80558],[24.82702,47.81916],[24.78369,47.82407],[24.77877,47.83621],[24.76655,47.83882],[24.75203,47.82931],[24.73598,47.84294],[24.70621,47.84026],[24.70516,47.85092],[24.67156,47.86404],[24.66661,47.87617],[24.67393,47.89527],[24.65231,47.91919],[24.63756,47.92307],[24.62819,47.94917],[24.60225,47.94499],[24.58113,47.96596],[24.60832,48.01203],[24.62675,48.01531],[24.64804,48.03254],[24.6197,48.07263],[24.55438,48.10613],[24.54937,48.11826],[24.52645,48.12415],[24.49486,48.1541],[24.52377,48.20569],[24.46269,48.2395],[24.46522,48.26208],[24.42959,48.27916],[24.40795,48.30871],[24.34948,48.33731],[24.35562,48.35751],[24.33337,48.37567],[24.29003,48.387],[24.28162,48.37854],[24.2929,48.36754],[24.28731,48.35872],[24.26764,48.35649],[24.26154,48.33628],[24.2376,48.34891],[24.21852,48.34373],[24.20159,48.35544],[24.18505,48.34898],[24.17782,48.38329],[24.16485,48.38876],[24.15755,48.43262],[24.14205,48.4346],[24.13908,48.45882],[24.14628,48.47793],[24.1276,48.48889],[24.14321,48.51647],[24.12115,48.52595],[24.10964,48.51692],[24.01622,48.49347],[24.00106,48.4868],[23.97387,48.44447],[23.92805,48.46262],[23.93442,48.52377],[23.94579,48.54236],[23.90916,48.5622],[23.88182,48.55894],[23.84455,48.58169],[23.8302,48.57776],[23.80057,48.61668],[23.81379,48.62171],[23.7906,48.64268],[23.70494,48.64086],[23.66157,48.69856],[23.62779,48.70364],[23.62133,48.7168],[23.55754,48.7198],[23.52497,48.73422],[23.48994,48.71466],[23.42994,48.72569],[23.3977,48.73622],[23.37547,48.76647],[23.33754,48.75198],[23.2991,48.78224],[23.27345,48.76436],[23.256,48.77023],[23.211,48.76699],[23.19486,48.80883],[23.18308,48.81402],[23.18115,48.83327],[23.11015,48.86346],[23.02664,48.84372],[23.00741,48.82219],[22.97799,48.86457],[22.92318,48.8899],[22.88696,48.91876],[22.87843,48.93589],[22.88484,48.94845],[22.90672,48.95829],[22.93556,48.95593],[22.92498,48.9923],[22.88033,49.00692],[22.84825,49.00298],[22.83784,49.02412],[22.82302,49.02391],[22.83728,49.04888],[22.82449,49.07217],[22.8558,49.09995],[22.86216,49.12297],[22.79001,49.13496],[22.79441,49.1563],[22.78689,49.16665],[22.75243,49.17054],[22.753,49.19421],[22.72358,49.20038],[22.73827,49.22151],[22.73073,49.23185],[22.66699,49.22097],[22.63767,49.23848],[22.58294,49.23888],[22.52793,49.26016],[22.49978,49.28224],[22.4741,49.28602],[22.47136,49.3034],[22.50843,49.33631],[22.51112,49.36827],[22.44511,49.39354],[22.43987,49.4017],[22.44772,49.41981],[22.43819,49.43413],[22.40961,49.44958],[22.37857,49.46149],[22.34567,49.44421],[22.33392,49.45591],[22.34801,49.47524],[22.3179,49.48514],[22.31979,49.5257],[22.31042,49.53524],[22.26815,49.53885],[22.26748,49.55314],[22.23994,49.5561],[22.22063,49.56764],[22.21512,49.58624],[22.1905,49.60593],[22.24232,49.62124],[22.26709,49.64133],[22.27734,49.66297],[22.26992,49.68557],[22.2355,49.68546],[22.22853,49.70421],[22.21688,49.69977],[22.21014,49.71944],[22.19147,49.72237],[22.20051,49.75078],[22.2178,49.77074],[22.19964,49.79256],[22.24422,49.83045],[22.27922,49.82671],[22.31748,49.79608],[22.33449,49.79804],[22.37375,49.8213],[22.45709,49.78574],[22.47345,49.79629],[22.48284,49.81423],[22.52854,49.78933],[22.54078,49.77377],[22.5907,49.76451],[22.63157,49.77139],[22.64665,49.79344],[22.66229,49.80119],[22.6755,49.7893],[22.72139,49.78706],[22.79577,49.8063],[22.8319,49.80131],[22.88826,49.81491],[22.89693,49.82438],[22.89114,49.84116],[22.90882,49.85056],[22.88642,49.87775],[22.89932,49.89148],[22.90056,49.90652],[22.87939,49.92218],[22.88552,49.93857],[22.85249,49.9603],[22.84443,49.97448],[22.79537,50.00366],[22.76174,50.00739],[22.73445,50.02842],[22.70194,50.02537],[22.69199,50.04923],[22.67457,50.06252],[22.69383,50.07747],[22.67028,50.09049],[22.68489,50.105],[22.64681,50.13099],[22.61964,50.13111],[22.61882,50.14447],[22.59362,50.14627],[22.58322,50.15783],[22.58008,50.18472],[22.55727,50.20615],[22.57468,50.2308],[22.60024,50.2356],[22.81518,50.22434],[23.01541,50.19345],[23.05352,50.19959],[23.18969,50.25627],[23.26153,50.26325],[23.35764,50.32152],[23.48488,50.33528],[23.52483,50.34677],[23.73052,50.34254],[23.7713,50.36146],[23.83513,50.37097],[23.89301,50.36595],[23.9255,50.34779],[24.11454,50.36772],[24.27833,50.35526],[24.28087,50.38254],[24.30257,50.38843],[24.28638,50.39995],[24.28842,50.40636],[24.31247,50.41481],[24.28864,50.42632],[24.31442,50.44979],[24.29406,50.47228],[24.30255,50.48456],[24.30074,50.49811],[24.34163,50.50639],[24.34009,50.53037],[24.32031,50.54994],[24.24424,50.56118],[24.25006,50.5795],[24.23911,50.58845],[24.21669,50.59024],[24.19908,50.62664],[24.11677,50.62332],[24.12874,50.64184],[24.09724,50.66848],[24.10589,50.69596],[24.04284,50.70546],[24.04349,50.73201],[24.03604,50.73766],[24.0418,50.75598],[23.98277,50.76876],[23.98118,50.77845],[23.99725,50.8003],[24.0264,50.81962],[24.08515,50.81067],[24.1112,50.81514],[24.16207,50.82992],[24.17382,50.84752],[24.1476,50.86685],[24.08725,50.88078],[24.00876,50.92535],[23.99917,50.9341],[24.00507,50.96761],[23.97447,50.99311],[23.95689,50.99615],[23.95176,51.02907],[23.9352,51.04529],[23.9383,51.06013],[23.88883,51.08497],[23.8848,51.09685],[23.89611,51.12307],[23.87937,51.14879],[23.85618,51.16386],[23.83922,51.1592],[23.81971,51.16624],[23.81658,51.1761],[23.78851,51.19553],[23.75286,51.20063],[23.73558,51.23493],[23.73848,51.25928],[23.71539,51.28],[23.66681,51.28372],[23.6464,51.30316],[23.71086,51.39066],[23.70253,51.40397],[23.6748,51.41001],[23.67984,51.43127],[23.65547,51.43312],[23.65493,51.44647],[23.67482,51.46032],[23.67384,51.48227],[23.66443,51.48715],[23.62615,51.47445],[23.61525,51.49468],[23.62186,51.51101],[23.57171,51.53571],[23.54773,51.5745],[23.55366,51.62412],[23.53806,51.63443],[23.5667,51.66629],[23.54512,51.68771],[23.56196,51.70668],[23.5363,51.70484],[23.53402,51.71269],[23.54206,51.7336],[23.59902,51.76035],[23.62755,51.75616],[23.63553,51.76664],[23.63872,51.80708],[23.61283,51.82995],[23.62397,51.85051],[23.61544,51.86856],[23.63778,51.87457],[23.63884,51.88299],[23.61813,51.90242],[23.64442,51.926],[23.64008,51.94737],[23.66897,51.96402],[23.68024,51.97982],[23.68724,52.03217],[23.6707,52.05492],[23.67416,52.06591],[23.69442,52.075],[23.68299,52.08389],[23.63591,52.09017],[23.6005,52.12357],[23.55738,52.12747],[23.54248,52.11017],[23.53539,52.12804],[23.50669,52.14263],[23.5082,52.15764],[23.49585,52.16376],[23.49333,52.18111],[23.47463,52.19742],[23.45963,52.18487],[23.43586,52.19509],[23.40651,52.18223],[23.38954,52.18885],[23.37471,52.20755],[23.34639,52.2031],[23.33251,52.21979],[23.28033,52.2151],[23.26682,52.22795],[23.2286,52.22739],[23.2074,52.24108],[23.20936,52.2475],[23.19834,52.24775],[23.1961,52.24041],[23.18382,52.25217],[23.18578,52.26902],[23.17266,52.27802],[23.15506,52.28278],[23.15101,52.27469],[23.13521,52.29061],[23.1123,52.28835],[23.08207,52.31435],[23.05666,52.30382],[23.03458,52.3043],[23.02749,52.33348],[22.96384,52.33839],[22.95103,52.35396],[22.89121,52.38778],[22.75953,52.37799],[22.72216,52.39136],[22.7112,52.38115],[22.69386,52.39243],[22.69448,52.39993],[22.65765,52.39904],[22.63639,52.40787],[22.60821,52.39849],[22.59083,52.40975],[22.52159,52.41215],[22.4727,52.44649],[22.48271,52.47006],[22.47993,52.47697],[22.46575,52.47747],[22.45277,52.49866],[22.46111,52.53848],[22.43337,52.55832],[22.41607,52.55914],[22.41593,52.57523],[22.40118,52.57389],[22.38687,52.6],[33.00843,52.6],[34.5,52.33844]],[[33.94595,46.03884],[33.93903,46.03946],[33.94851,46.03526],[33.94595,46.03884]],[[34.1248,46.02674],[34.12476,46.02377],[34.13171,46.02611],[34.1248,46.02674]],[[34.24924,45.99241],[34.25005,45.98825],[34.25098,45.993],[34.24924,45.99241]],[[34.30702,46.00125],[34.30726,46.00153],[34.30698,46.00154],[34.30702,46.00125]],[[34.30374,45.9974],[34.30762,45.99648],[34.30702,46.00125],[34.30374,45.9974]],[[33.59766,44.60798],[33.59934,44.61155],[33.59051,44.61066],[33.59766,44.60798]],[[33.95917,46.0159],[33.9591,46.00698],[33.96481,46.01856],[33.95917,46.0159]],[[34.22878,45.98036],[34.23742,45.9803],[34.22926,45.98422],[34.22878,45.98036]]],[[[34.49784,45.981],[34.48265,45.95378],[34.47333,45.98686],[34.48134,45.99987],[34.4677,46.01009],[34.42852,46.01845],[34.4236,46.00868],[34.41814,46.01794],[34.4355,46.04663],[34.46616,46.04429],[34.46992,46.03742],[34.48081,46.04179],[34.48092,46.04773],[34.44812,46.05158],[34.43791,46.08585],[34.46105,46.09725],[34.47526,46.11674],[34.47109,46.12569],[34.49185,46.12373],[34.48318,46.12381],[34.49034,46.08927],[34.5,46.0994],[34.49784,45.981]],[[34.46565,46.04043],[34.46162,46.03244],[34.46808,46.0309],[34.47032,46.03534],[34.46565,46.04043]],[[34.45674,46.02565],[34.46117,46.03155],[34.45208,46.03074],[34.45674,46.02565]]],[[[34.48179,45.78875],[34.48531,45.79288],[34.48827,45.79018],[34.48179,45.78875]]],[[[34.49916,45.79752],[34.49402,45.79875],[34.49709,45.802],[34.49916,45.79752]]],[[[34.31403,46.02081],[34.32606,46.01597],[34.30646,46.0057],[34.30477,46.00809],[34.31403,46.02081]]],[[[34.23572,46.0145],[34.23003,46.00889],[34.23011,46.01483],[34.23572,46.0145]]],[[[34.49341,45.78894],[34.5,45.79301],[34.5,45.78976],[34.49341,45.78894]]],[[[33.9281,46.0817],[33.91435,46.09483],[33.90919,46.09901],[33.92608,46.10103],[33.93037,46.09507],[33.92169,46.09213],[33.9281,46.0817]]],[[[34.20771,46.05391],[34.20981,46.04944],[34.20597,46.05333],[34.20771,46.05391]]],[[[34.43814,46.00024],[34.43844,45.99221],[34.43035,45.99911],[34.43124,46.00089],[34.43814,46.00024]]],[[[34.26162,46.04317],[34.26376,46.04167],[34.26028,46.0405],[34.26162,46.04317]]],[[[34.44478,45.98472],[34.4442,46.00078],[34.44902,46.0046],[34.45405,45.97156],[34.44478,45.98472]]],[[[34.08561,46.08164],[34.07638,46.10962],[34.09603,46.08515],[34.08561,46.08164]]],[[[34.27276,46.09719],[34.27696,46.08824],[34.26786,46.08741],[34.27276,46.09719]]],[[[34.24909,46.07594],[34.24808,46.06525],[34.22989,46.06358],[34.22524,46.07164],[34.23963,46.08017],[34.24283,46.09233],[34.21794,46.10913],[34.20832,46.10146],[34.20595,46.08513],[34.19208,46.08343],[34.20935,46.08036],[34.20405,46.07266],[34.17902,46.07756],[34.16718,46.10022],[34.17954,46.11917],[34.18109,46.13967],[34.19005,46.12862],[34.18479,46.1239],[34.20345,46.12646],[34.199,46.11757],[34.205,46.11218],[34.19278,46.10513],[34.19578,46.10243],[34.21495,46.11183],[34.19594,46.14909],[34.22246,46.15576],[34.21933,46.18134],[34.22852,46.18812],[34.24494,46.18326],[34.25028,46.16213],[34.24327,46.15682],[34.2312,46.16165],[34.24258,46.1381],[34.23182,46.11083],[34.25294,46.10386],[34.26213,46.11063],[34.2608,46.13977],[34.27429,46.14354],[34.27666,46.12807],[34.26573,46.12072],[34.269,46.10702],[34.25937,46.09936],[34.26491,46.09308],[34.255,46.09641],[34.25144,46.0893],[34.26786,46.08741],[34.26644,46.0788],[34.24909,46.07594]]],[[[34.30752,46.10587],[34.31394,46.10136],[34.30484,46.10054],[34.30752,46.10587]]],[[[34.26753,46.15607],[34.27057,46.15635],[34.27053,46.15337],[34.26753,46.15607]]],[[[34.14979,46.16689],[34.1318,46.18601],[34.13924,46.19221],[34.14979,46.16689]]],[[[34.41931,46.0863],[34.4111,46.08725],[34.41787,46.07769],[34.41498,46.06047],[34.40717,46.05935],[34.39514,46.09006],[34.39872,46.09716],[34.43595,46.12212],[34.46845,46.12334],[34.45097,46.11457],[34.44683,46.10063],[34.42817,46.09811],[34.41931,46.0863]]],[[[34.32934,46.22993],[34.33184,46.22338],[34.3258,46.2258],[34.32934,46.22993]]],[[[34.3109,46.24522],[34.31574,46.24905],[34.31395,46.24549],[34.3109,46.24522]]],[[[34.31319,46.25263],[34.30401,46.24883],[34.3024,46.25716],[34.31319,46.25263]]],[[[31.94912,46.18079],[31.85195,46.19444],[31.80475,46.20437],[31.94912,46.18079]]],[[[31.99951,46.17797],[32.02348,46.17386],[31.98479,46.17716],[31.99951,46.17797]]],[[[32.04655,46.17091],[32.11975,46.15825],[32.19528,46.13814],[32.05449,46.16627],[32.04655,46.17091]]],[[[31.96751,46.20246],[31.97185,46.20253],[31.97244,46.19748],[31.96751,46.20246]]],[[[31.6786,46.2593],[31.68947,46.27078],[31.69563,46.26851],[31.6786,46.2593]]],[[[31.51623,46.35291],[31.5296,46.36683],[31.5371,46.3643],[31.53778,46.30428],[31.57156,46.2639],[31.61749,46.24453],[31.68127,46.24597],[31.64781,46.23527],[31.65842,46.23011],[31.80475,46.20437],[31.64318,46.23132],[31.57797,46.2557],[31.55029,46.2742],[31.51885,46.31017],[31.51623,46.35291]]],[[[31.73581,46.27485],[31.74077,46.26988],[31.73026,46.27208],[31.73581,46.27485]]],[[[31.76673,46.32143],[31.69924,46.2766],[31.76056,46.32371],[31.81786,46.33921],[31.76673,46.32143]]],[[[31.88337,46.30579],[31.89236,46.30979],[31.89549,46.30716],[31.89206,46.30592],[31.88337,46.30579]]],[[[31.8946,46.33389],[31.90705,46.33914],[31.91453,46.33658],[31.90623,46.33734],[31.8946,46.33389]]],[[[31.76336,46.39091],[31.76572,46.37371],[31.72998,46.42243],[31.73211,46.42395],[31.76336,46.39091]]],[[[32.03333,46.39211],[32.03482,46.38589],[32.02966,46.38404],[32.02743,46.38549],[32.03333,46.39211]]],[[[31.41355,46.59573],[31.41462,46.60139],[31.41659,46.59608],[31.41355,46.59573]]],[[[31.99811,46.50182],[31.99202,46.50114],[31.99457,46.50355],[31.99811,46.50182]]],[[[31.90094,46.52324],[31.90967,46.52337],[31.90064,46.51937],[31.90094,46.52324]]],[[[31.88329,46.5289],[31.89689,46.52704],[31.89699,46.52407],[31.89171,46.52517],[31.88329,46.5289]]],[[[31.90085,46.52621],[31.90166,46.528],[31.90521,46.52627],[31.90085,46.52621]]],[[[32.08627,46.50187],[32.08981,46.50014],[32.08545,46.50008],[32.08627,46.50187]]],[[[32.114,46.50878],[32.09327,46.50137],[32.11178,46.51024],[32.114,46.50878]]],[[[32.26899,46.49055],[32.2656,46.48635],[32.25797,46.49488],[32.26899,46.49055]]],[[[32.25492,46.49454],[32.25476,46.50048],[32.25797,46.49488],[32.25492,46.49454]]],[[[32.27508,46.49122],[32.26883,46.49649],[32.28027,46.49306],[32.27508,46.49122]]],[[[33.1769,45.80131],[33.17135,45.79564],[33.17429,45.80487],[33.1769,45.80131]]],[[[33.45393,45.84417],[33.45694,45.84447],[33.44145,45.8391],[33.45393,45.84417]]],[[[33.51679,45.86443],[33.5198,45.86771],[33.51937,45.86384],[33.51679,45.86443]]],[[[33.52799,45.86979],[33.5198,45.86771],[33.52884,45.87455],[33.52799,45.86979]]],[[[32.89181,46.01458],[32.73639,46.03222],[32.55029,46.06421],[32.63909,46.05758],[32.78788,46.02874],[32.86611,46.06078],[32.91185,46.0358],[32.92914,46.03591],[32.94414,46.0464],[32.97894,46.02876],[33.04078,46.02581],[33.07076,46.01019],[32.89181,46.01458]]],[[[33.20126,46.06986],[33.20473,46.06809],[33.20085,46.066],[33.20126,46.06986]]],[[[33.55425,46.12633],[33.54602,46.12425],[33.54992,46.1293],[33.55425,46.12633]]],[[[32.27892,46.4776],[32.27925,46.48147],[32.28674,46.47888],[32.27892,46.4776]]],[[[32.2909,46.53804],[32.29839,46.53545],[32.30325,46.53343],[32.28767,46.5279],[32.2909,46.53804]]]],"type":"MultiPolygon"},"id":"1940-10-030","properties":{"Foreign_Po":"Belligerent","Govt_in_Ex":"","Head_of_St":"Joseph Stalin (General Secretary)","Name":"Soviet Union","editorialFlagIds":["HA-CAUTION-HEAD-OF-STATE"],"foreignPowerCategory":"belligerent","snapshotDate":"1940-10-31","sourceFeatureIndex":30,"yearMonth":"1940-10"},"type":"Feature"},{"geometry":{"coordinates":[[[19.00845,45.92327],[19.0,45.93737],[19.00668,45.95942],[19.08033,45.96354],[19.06608,45.99887],[19.10336,46.03735],[19.13608,46.03548],[19.14809,45.9956],[19.23399,45.99856],[19.28583,45.99592],[19.29681,45.98832],[19.30192,45.99356],[19.28369,46.01411],[19.3649,46.05055],[19.38126,46.03489],[19.4149,46.04517],[19.46552,46.07952],[19.46545,46.09375],[19.52541,46.11871],[19.50505,46.14233],[19.55433,46.1616],[19.56552,46.17671],[19.63329,46.16963],[19.6619,46.18883],[19.68238,46.18033],[19.69606,46.18667],[19.7598,46.1448],[19.81716,46.12718],[19.85315,46.1485],[19.94011,46.17548],[20.02215,46.17061],[20.04172,46.1441],[20.06399,46.14483],[20.0981,46.17669],[20.11081,46.15746],[20.1384,46.14344],[20.18,46.15748],[20.23069,46.12129],[20.24733,46.12822],[20.25008,46.11467],[20.26748,46.12532],[20.26266,46.11535],[20.28183,46.11444],[20.26384,46.10764],[20.27123,46.09649],[20.30048,46.08415],[20.3096,46.06808],[20.34115,46.04696],[20.33884,46.03579],[20.35568,46.00376],[20.34603,45.99711],[20.40513,45.96282],[20.44606,45.96733],[20.48252,45.95042],[20.51518,45.88922],[20.56845,45.9067],[20.58044,45.86559],[20.61105,45.86061],[20.65999,45.82525],[20.65085,45.80812],[20.66231,45.7908],[20.68349,45.79341],[20.69975,45.74708],[20.7734,45.75096],[20.78288,45.78231],[20.82183,45.77165],[20.81469,45.74481],[20.80133,45.73383],[20.79593,45.68303],[20.80451,45.65267],[20.76505,45.60918],[20.77096,45.57909],[20.79399,45.58432],[20.83225,45.53281],[20.76709,45.49673],[20.77601,45.48725],[20.76981,45.47743],[20.83252,45.47665],[20.86623,45.46173],[20.88,45.44317],[20.86592,45.42846],[20.91888,45.41436],[20.93429,45.39085],[20.93021,45.38462],[20.94776,45.38373],[20.95882,45.36543],[21.00926,45.34012],[21.01516,45.32331],[21.06044,45.33089],[21.05986,45.31571],[21.07912,45.31652],[21.09484,45.29485],[21.14185,45.3041],[21.15833,45.32329],[21.16264,45.31807],[21.17207,45.32372],[21.18057,45.319],[21.17791,45.3069],[21.18825,45.28579],[21.20463,45.27354],[21.19992,45.26453],[21.21546,45.24856],[21.27089,45.22827],[21.28729,45.24078],[21.32207,45.23794],[21.35506,45.221],[21.39073,45.21614],[21.40254,45.22628],[21.43249,45.20201],[21.4773,45.18944],[21.48925,45.17],[21.51293,45.16642],[21.52428,45.13846],[21.47373,45.11928],[21.46619,45.10391],[21.47763,45.08834],[21.45294,45.06914],[21.44632,45.05176],[21.45155,45.03878],[21.4186,45.03099],[21.4018,45.03475],[21.35486,45.01894],[21.40973,44.98524],[21.40257,44.97745],[21.43383,44.95969],[21.46577,44.9571],[21.54088,44.92964],[21.55583,44.8879],[21.47695,44.8681],[21.45917,44.86722],[21.44743,44.8752],[21.36602,44.868],[21.35047,44.83443],[21.3595,44.83248],[21.3548,44.82346],[21.37981,44.80829],[21.39844,44.77666],[21.53247,44.7722],[21.58368,44.75976],[21.60027,44.74357],[21.61259,44.71449],[21.6138,44.67808],[21.63036,44.66188],[21.69181,44.66539],[21.72165,44.65434],[21.79116,44.66356],[21.80521,44.6543],[21.92095,44.64758],[21.95445,44.63508],[21.99162,44.63264],[22.00435,44.6063],[22.02491,44.59051],[22.0372,44.53936],[22.06973,44.52309],[22.07934,44.49519],[22.14038,44.46882],[22.1842,44.47794],[22.23721,44.56531],[22.25846,44.58667],[22.27321,44.62028],[22.29863,44.63636],[22.31296,44.66236],[22.33906,44.67548],[22.38985,44.67891],[22.4279,44.70777],[22.46867,44.71429],[22.565,44.63842],[22.60306,44.61747],[22.67277,44.61555],[22.708,44.59969],[22.75276,44.56252],[22.76339,44.54013],[22.75762,44.53319],[22.69737,44.51294],[22.62724,44.54558],[22.58555,44.54594],[22.56423,44.53038],[22.55819,44.48902],[22.54871,44.47774],[22.51811,44.4681],[22.46868,44.47512],[22.45707,44.46601],[22.46537,44.43916],[22.49811,44.41887],[22.50603,44.37387],[22.52252,44.34216],[22.55763,44.30432],[22.65674,44.28722],[22.67942,44.27577],[22.68589,44.25293],[22.6691,44.20617],[22.66289,44.21366],[22.65259,44.2044],[22.64395,44.2074],[22.63676,44.18339],[22.62744,44.18359],[22.6332,44.17425],[22.61976,44.17401],[22.61337,44.16427],[22.6276,44.15675],[22.62771,44.1462],[22.6184,44.1464],[22.60998,44.10625],[22.6194,44.0955],[22.61511,44.07783],[22.62306,44.07204],[22.6208,44.06274],[22.53246,44.05075],[22.5429,44.03316],[22.52895,44.01957],[22.44422,44.01663],[22.40891,44.00278],[22.41424,43.99159],[22.4064,43.98106],[22.40724,43.93976],[22.38644,43.92507],[22.39303,43.90798],[22.38505,43.86872],[22.35652,43.80995],[22.37721,43.77386],[22.39991,43.75764],[22.3933,43.7297],[22.40665,43.69642],[22.45023,43.66226],[22.47894,43.65485],[22.48955,43.63819],[22.47891,43.62129],[22.4927,43.60135],[22.48748,43.56268],[22.53534,43.4694],[22.57568,43.46144],[22.59831,43.43459],[22.65956,43.42587],[22.66827,43.40173],[22.6795,43.39358],[22.72074,43.39504],[22.76748,43.37562],[22.76967,43.36285],[22.79606,43.34122],[22.82725,43.32855],[22.83805,43.3],[19.0,43.3],[19.0,45.92271],[19.00845,45.92327]]],"type":"Polygon"},"id":"1940-10-029","properties":{"Foreign_Po":"Neutral","Govt_in_Ex":"","Head_of_St":"Prince Paul Karadordevic (Regent)","Name":"Yugoslavia","editorialFlagIds":["HA-CAUTION-HEAD-OF-STATE"],"foreignPowerCategory":"neutral","snapshotDate":"1940-10-31","sourceFeatureIndex":29,"yearMonth":"1940-10"},"type":"Feature"}],"metadata":{"regionalBbox":[19.0,43.3,34.5,52.6],"simplifyToleranceDegrees":0.005,"snapshotDate":"1940-10-31","sourceCrs":"ESRI:102013","targetCrs":"EPSG:4326","yearMonth":"1940-10"},"type":"FeatureCollection"}
